{"type":"FeatureCollection","features":[{"type":"Feature","properties":{"name":"Westeros"},"geometry":{"type":"Polygon","coordinates":[[[16.40672,39.47535],[16.46089,39.45401],[16.44687,39.38393],[16.49359,39.20638],[16.60573,39.10359],[16.66647,39.02416],[16.73188,38.95875],[16.88606,38.97277],[17.05427,38.98211],[17.19443,38.88867],[17.3019,38.71112],[17.386,38.58497],[17.52149,38.50554],[17.71773,38.43546],[17.87191,38.34201],[18.06347,38.32332],[18.24569,38.32332],[18.36717,38.37005],[18.52135,38.38406],[18.62414,38.34201],[18.70357,38.29062],[18.79702,38.20652],[18.96055,38.12242],[19.09137,38.02897],[19.30629,37.83274],[19.47917,37.69257],[19.58663,37.44494],[19.59597,37.27674],[19.56794,37.14124],[19.63802,37.06181],[19.69409,37.00107],[19.89033,36.94968],[20.03049,36.93099],[20.08656,37.00107],[20.21271,37.02444],[20.34354,36.98238],[20.44633,37.09452],[20.56313,37.20198],[20.60051,37.30944],[20.6519,37.40756],[20.75002,37.48232],[20.84814,37.48232],[20.86216,37.35149],[20.84347,37.27206],[20.90888,37.18796],[20.92757,37.09452],[21.08642,37.09919],[21.18454,37.15526],[21.23126,37.26272],[21.28266,37.34215],[21.31537,37.46363],[21.26397,37.5524],[21.24061,37.70658],[21.24995,37.82806],[21.32938,37.91684],[21.49291,37.93553],[21.59103,37.93085],[21.63308,37.80003],[21.68915,37.64585],[21.70784,37.53371],[21.74054,37.39822],[21.72652,37.21133],[21.80595,37.07116],[21.8153,36.80484],[21.81062,36.62262],[21.78726,36.45442],[21.70316,36.37032],[21.61439,36.34696],[21.48357,36.45909],[21.40414,36.49647],[21.33405,36.47311],[21.27799,36.36565],[21.26864,36.12269],[21.27799,35.91244],[21.19856,35.74891],[21.08642,35.72087],[21.02569,35.62743],[20.91822,35.60407],[20.84814,35.44988],[20.75002,35.41251],[20.72199,35.30972],[20.63322,35.23963],[20.57248,35.11815],[20.59117,34.98266],[20.68461,34.89389],[20.80609,34.77241],[20.81543,34.63224],[20.7874,34.43133],[20.73601,34.30518],[20.76404,34.11362],[20.83412,34.01083],[21.01167,33.88001],[21.14716,33.84263],[21.23594,33.73984],[21.22192,33.65574],[21.26397,33.53893],[21.28266,33.35204],[21.38078,33.23056],[21.43217,33.13244],[21.40414,32.95023],[21.47889,32.81473],[21.54431,32.58112],[21.51627,32.41204],[21.54898,32.25873],[21.58168,32.10922],[21.55365,31.89897],[21.60505,31.82421],[21.69382,31.87561],[21.86669,31.92233],[21.96481,31.90364],[22.03957,31.78216],[22.11899,31.70273],[22.32457,31.74011],[22.47409,31.74478],[22.65163,31.66068],[22.81516,31.58125],[23.01607,31.57658],[23.11886,31.4551],[23.20296,31.38502],[23.42723,31.35231],[23.49264,31.2542],[23.55338,31.1701],[23.65149,31.17477],[23.69354,31.14206],[23.8197,31.15141],[23.91781,31.21682],[23.93183,31.35231],[24.04396,31.4224],[24.18413,31.41305],[24.39906,31.45043],[24.53922,31.52051],[24.78218,31.58125],[24.93169,31.57658],[25.05317,31.52986],[25.10924,31.44576],[25.12793,31.32895],[25.2681,31.22616],[25.30547,31.10001],[25.28211,30.97853],[25.23539,30.91779],[25.26342,30.80566],[25.41761,30.68418],[25.45031,30.61877],[25.45031,30.54868],[25.39425,30.48327],[25.45031,30.42721],[25.52974,30.31974],[25.52974,30.08146],[25.40359,30.01138],[25.50171,29.76842],[25.37089,29.54415],[25.30547,29.32923],[25.22137,29.25447],[25.10924,29.06291],[25.11391,28.9461],[25.0485,28.87134],[24.9644,28.75454],[24.89521,28.62001],[24.90132,28.56298],[24.93403,28.36674],[24.8546,28.14714],[24.83124,27.96025],[24.85927,27.80607],[24.85927,27.5818],[24.83124,27.51639],[24.78919,27.50237],[24.66771,27.56311],[24.5509,27.67057],[24.55558,27.81074],[24.57427,27.98829],[24.53689,28.10509],[24.40606,28.23592],[24.39205,28.45551],[24.28459,28.46486],[24.17712,28.49289],[24.02294,28.5256],[23.92482,28.62839],[23.89212,28.53494],[23.90146,28.32936],[23.83605,28.26395],[23.85941,28.17985],[23.80802,28.10042],[23.72391,27.97427],[23.67719,27.83877],[23.72391,27.6659],[23.67252,27.48836],[23.62112,27.35286],[23.55571,27.22671],[23.51366,27.10523],[23.39218,27.06785],[23.20997,27.06785],[23.0184,27.04916],[22.91094,26.92768],[22.91561,26.77817],[22.89225,26.67071],[22.77545,26.56325],[22.67733,26.53521],[22.64462,26.49316],[22.55585,26.47448],[22.48577,26.4698],[22.4624,26.55858],[22.36429,26.68473],[22.24281,26.82957],[22.1774,26.83891],[22.06526,26.89031],[21.88772,26.97908],[21.77558,26.97908],[21.67747,27.05384],[21.6541,26.909],[21.71017,26.81555],[21.79427,26.78752],[21.90641,26.74079],[21.99985,26.62399],[22.00452,26.53054],[21.96247,26.47915],[21.78493,26.48849],[21.7382,26.45111],[21.83165,26.38103],[21.88304,26.29693],[21.90173,26.20816],[21.81763,26.1334],[21.6214,26.12873],[21.58869,26.07733],[21.66345,25.97922],[21.72419,25.91848],[21.78026,25.76896],[21.85501,25.69421],[21.99051,25.61011],[22.18207,25.5447],[22.28019,25.45592],[22.2615,25.1569],[22.41568,25.03542],[22.42035,24.94665],[22.39699,24.89058],[21.89706,24.88124],[21.85968,24.80181],[21.89706,24.65697],[22.07461,24.45606],[22.27084,24.45606],[22.33625,24.44672],[22.36896,24.28319],[22.43437,24.28319],[22.48109,24.22712],[22.45773,24.08228],[22.50446,23.99351],[22.56987,23.89539],[22.6493,23.84399],[22.82684,23.86268],[22.86889,23.81596],[22.8502,23.68981],[22.90627,23.58702],[22.95766,23.5403],[22.96701,23.38611],[22.88758,23.36275],[22.85487,23.31136],[22.99037,23.22258],[23.00439,23.09643],[22.99504,22.97495],[22.87824,22.87684],[22.84086,22.79274],[22.86422,22.68995],[23.11652,22.59183],[23.1866,22.3769],[23.59776,22.35354],[23.60244,22.24608],[23.66785,22.18067],[23.85007,22.10124],[24.08368,22.02181],[24.26122,21.97509],[24.39205,21.89566],[24.34533,21.8396],[24.30327,21.75549],[24.18647,21.71344],[24.02761,21.77418],[23.84539,21.82091],[23.67719,21.90501],[23.36882,21.85828],[23.16324,21.88632],[23.01373,21.99845],[22.87356,22.00312],[22.70536,22.03583],[22.54651,22.07788],[22.45773,22.21805],[22.32691,22.15264],[22.16805,22.15264],[22.01854,22.19001],[21.91108,22.28346],[21.73353,22.28346],[21.58869,22.36289],[21.38311,22.47035],[21.23827,22.40961],[21.27565,22.23674],[21.33639,22.11059],[21.3691,22.02181],[21.30368,21.90968],[21.23827,21.76017],[21.07942,21.56393],[21.07007,21.38171],[20.98597,21.24622],[20.9299,21.12941],[20.97195,20.98924],[20.96728,20.72293],[20.93458,20.62014],[20.79441,20.4753],[20.76638,20.34447],[20.74301,20.24636],[20.66359,20.13422],[20.5935,20.0034],[20.58883,19.88659],[20.5094,19.81651],[20.44399,19.71372],[20.32718,19.56888],[20.27112,19.48478],[20.20103,19.49412],[20.04685,19.48945],[19.93939,19.45674],[19.85061,19.4801],[19.76184,19.50814],[19.67774,19.45674],[19.5656,19.39133],[19.47216,19.2792],[19.35535,19.28387],[19.26191,19.32125],[19.16846,19.41469],[19.15445,19.53617],[19.08903,19.61093],[18.9769,19.62027],[18.93952,19.58289],[18.85542,19.58757],[18.80403,19.62027],[18.74329,19.59224],[18.61246,19.50814],[18.48631,19.43338],[18.35549,19.2792],[18.34147,19.19977],[18.27139,19.1437],[18.20598,19.03157],[18.14524,19.01288],[18.07515,19.08296],[18.01441,19.13436],[17.95835,19.17174],[17.83687,19.18575],[17.75277,19.25116],[17.7481,19.4474],[17.7481,19.55019],[17.77613,19.68568],[17.80884,19.79315],[17.76211,19.80716],[17.55653,19.8352],[17.43505,19.92397],[17.393,20.09684],[17.40235,20.2557],[17.34161,20.56407],[17.32759,20.79768],[17.29021,20.89113],[17.17808,21.01728],[17.05193,21.08736],[17.04726,20.93318],[17.03791,20.7603],[17.03791,20.62481],[17.08464,20.47997],[17.07529,20.30242],[17.03324,20.22299],[16.92578,20.13422],[16.81832,20.01274],[16.75291,19.90528],[16.76692,19.76978],[16.79028,19.62494],[16.77159,19.51748],[16.67348,19.40535],[16.57069,19.29321],[16.64544,19.16706],[16.63143,19.06427],[16.48659,19.04558],[16.33707,19.08296],[16.26699,19.05026],[16.17822,18.8914],[16.14084,18.72787],[16.17355,18.48959],[16.18289,18.33073],[16.09879,18.27466],[16.04739,18.19991],[16.06608,18.10646],[16.04739,18.01769],[15.99133,17.999],[15.89788,18.10646],[15.80444,18.06441],[15.7437,17.91023],[15.72034,17.73268],[15.62222,17.59251],[15.60353,17.43833],[15.67829,17.33554],[15.67361,17.21406],[15.59886,17.19537],[15.50541,17.14398],[15.34188,17.11594],[15.20639,17.07856],[15.17368,16.96643],[15.12229,16.75618],[15.12696,16.65806],[15.30918,16.55527],[15.32787,16.4151],[15.39795,16.26092],[15.46803,16.11608],[15.56148,16.09272],[15.79976,16.09739],[15.89321,16.05534],[15.92124,15.95255],[16.01469,15.86845],[16.20625,15.87312],[16.3324,15.96189],[16.44454,16.04599],[16.6361,16.10206],[16.9398,16.14878],[17.09398,16.1628],[17.3089,16.17215],[17.42571,16.11141],[17.54719,16.08337],[17.664,16.06936],[17.71539,16.13944],[17.65465,16.23289],[17.62662,16.32166],[17.64531,16.47584],[17.76211,16.52257],[17.92097,16.53658],[18.07515,16.50855],[18.14991,16.42912],[18.2527,16.36838],[18.38352,16.37305],[18.42557,16.42912],[18.45828,16.51789],[18.43959,16.61134],[18.52836,16.70478],[18.51435,16.78888],[18.59377,16.86831],[18.78534,16.90102],[18.93018,16.86364],[19.07969,16.78888],[19.18715,16.75618],[19.24322,16.8029],[19.3647,16.93372],[19.49085,16.93372],[19.67307,16.92905],[19.81744,16.98019],[19.81557,16.99446],[19.91135,17.06221],[19.9791,17.14631],[20.06787,17.23275],[20.14496,17.27947],[20.23841,17.31919],[20.29915,17.36591],[20.37391,17.37292],[20.45567,17.3005],[20.53276,17.27246],[20.6192,17.34255],[20.79908,17.44534],[20.97663,17.52944],[21.13548,17.56214],[21.18221,17.52009],[21.21024,17.44767],[21.14716,17.37992],[21.09343,17.32152],[21.01167,17.23976],[20.92056,17.17201],[20.91122,17.09492],[20.94392,17.04352],[21.03036,17.02717],[21.11913,17.06455],[21.21958,17.09258],[21.3177,17.12996],[21.40414,17.14631],[21.47656,17.08791],[21.50926,17.05287],[21.56533,17.09492],[21.57701,17.17668],[21.6471,17.24677],[21.74054,17.29349],[21.84567,17.30283],[21.89239,17.24443],[21.95546,17.20238],[22.09797,17.20705],[22.18674,17.24677],[22.38765,17.28181],[22.59089,17.39161],[22.69368,17.443],[22.72872,17.48038],[22.71237,17.5855],[22.73106,17.64157],[22.78713,17.67194],[22.94131,17.67661],[23.04176,17.73969],[23.16091,17.78641],[23.26837,17.8308],[23.34079,17.89154],[23.47862,17.89154],[23.59076,17.9406],[23.64916,17.99666],[23.71691,18.00834],[23.74494,17.95461],[23.72859,17.89855],[23.70756,17.82846],[23.61178,17.74202],[23.50665,17.68829],[23.43423,17.68362],[23.31509,17.58784],[23.14455,17.48505],[22.99037,17.43366],[22.98803,17.33554],[22.93898,17.26078],[22.87123,17.17902],[22.71237,17.15098],[22.5979,17.0809],[22.50212,16.98979],[22.33392,17.01082],[22.27084,16.95942],[22.14002,16.88233],[22.0676,16.78655],[22.01854,16.70245],[22.0676,16.68142],[22.20309,16.67909],[22.30588,16.6931],[22.37363,16.72581],[22.46007,16.73282],[22.53249,16.74683],[22.61192,16.80991],[22.66331,16.87065],[22.73106,16.87766],[22.8175,16.88467],[22.89225,16.9127],[22.94598,16.97577],[22.94598,17.08324],[23.00672,17.12996],[23.1282,17.17668],[23.24501,17.23508],[23.36649,17.33787],[23.4319,17.36357],[23.46928,17.36357],[23.50665,17.29349],[23.48797,17.21406],[23.44124,17.13697],[23.36181,17.08324],[23.26136,17.00381],[23.2637,16.91737],[23.20763,16.85663],[23.20296,16.78421],[23.14455,16.72347],[22.97168,16.64404],[22.88758,16.59499],[22.7918,16.53658],[22.71003,16.55527],[22.61893,16.50621],[22.54417,16.43146],[22.50446,16.31932],[22.404,16.19784],[22.29654,16.10907],[22.27084,16.06468],[22.32925,16.03431],[22.46941,16.05534],[22.53249,16.08337],[22.62827,16.07636],[22.7334,16.08805],[22.79647,16.1301],[22.85955,16.19551],[22.93664,16.22354],[23.02074,16.25625],[23.1796,16.35436],[23.31042,16.47117],[23.44358,16.57863],[23.51366,16.62769],[23.60944,16.70011],[23.7099,16.73048],[23.7683,16.80991],[23.80802,16.87999],[23.89679,16.90803],[23.96687,16.96409],[24.10003,17.01549],[24.17712,17.05754],[24.2402,17.04819],[24.27057,17.03184],[24.26356,16.97344],[24.20983,16.90803],[24.1888,16.85897],[24.08835,16.81225],[23.95753,16.75618],[23.93183,16.69077],[23.9622,16.64404],[23.95052,16.59732],[23.85707,16.52724],[23.77064,16.47584],[23.65149,16.40576],[23.51834,16.28662],[23.3805,16.1885],[23.36181,16.14411],[23.39218,16.12075],[23.53002,16.11608],[23.63047,16.14178],[23.69588,16.19551],[23.78699,16.26325],[23.82904,16.33567],[23.8524,16.42445],[23.96454,16.48051],[24.07901,16.45482],[24.15843,16.45949],[24.24721,16.52257],[24.32897,16.59499],[24.52754,16.73048],[24.79853,16.90803],[24.93403,17.01082],[25.01112,17.12762],[25.09989,17.13697],[25.17465,17.12295],[25.20035,17.07856],[25.16297,16.9968],[25.10457,16.98745],[25.02981,16.92204],[24.99477,16.86364],[24.85694,16.75151],[24.69341,16.64404],[24.52521,16.52257],[24.4598,16.45248],[24.46447,16.36838],[24.4084,16.27026],[24.29159,16.20485],[24.14208,16.18616],[24.02528,16.14411],[23.97855,16.05534],[23.94585,15.90115],[23.8197,15.81238],[23.70756,15.78201],[23.48797,15.77267],[23.3805,15.72361],[23.26136,15.68389],[23.11418,15.67221],[22.94832,15.66754],[22.78012,15.64184],[22.6236,15.59746],[22.53015,15.53438],[22.42736,15.42458],[22.31756,15.31011],[22.20777,15.19097],[22.1517,15.1022],[22.12133,15.00875],[21.97649,14.84055],[21.95313,14.75879],[22.03723,14.75645],[22.1517,14.77748],[22.2358,14.80317],[22.39466,14.81485],[22.45072,14.88494],[22.49511,14.93633],[22.57921,14.9924],[22.70303,15.03445],[22.81049,15.12322],[22.87824,15.19331],[22.91795,15.24003],[22.99037,15.24237],[23.04644,15.17462],[23.20552,15.16016],[23.30575,15.19798],[23.46928,15.31011],[23.58375,15.34983],[23.70523,15.31011],[23.86408,15.32179],[24.05097,15.33815],[24.24487,15.3802],[24.45045,15.49934],[24.50885,15.5484],[24.64435,15.59045],[24.80554,15.60213],[24.87095,15.64885],[24.98075,15.71193],[25.0742,15.73295],[25.16063,15.768],[25.23539,15.86144],[25.33818,15.94087],[25.40359,15.93386],[25.47368,15.88947],[25.47835,15.83107],[25.45031,15.77734],[25.32884,15.69324],[25.3008,15.64184],[25.28912,15.58811],[25.35921,15.497],[25.37789,15.44327],[25.37322,15.38721],[25.33584,15.38487],[25.27978,15.36384],[25.26109,15.30778],[25.22137,15.27274],[25.11508,15.27974],[25.08588,15.22718],[25.02163,15.15827],[24.89548,15.14542],[24.87095,15.10687],[24.8838,15.06832],[24.87583,15.06078],[24.88848,14.98072],[24.85803,14.95979],[24.85811,14.95969],[24.8254,14.91531],[24.83241,14.84289],[24.79036,14.78682],[24.74954,14.78536],[24.69691,14.77047],[24.54506,14.78682],[24.46096,14.77047],[24.44461,14.73543],[24.49133,14.70973],[24.61048,14.73075],[24.68523,14.7144],[24.76466,14.73543],[24.80269,14.75701],[24.82835,14.74846],[24.83241,14.69571],[24.76232,14.62563],[24.69691,14.51349],[24.70626,14.43874],[24.74364,14.38267],[24.84642,14.38734],[24.91651,14.39669],[24.97258,14.47612],[25.00061,14.56022],[25.09405,14.64432],[25.2716,14.74243],[25.35103,14.7985],[25.40242,14.80785],[25.46784,14.77047],[25.48652,14.70038],[25.47718,14.61628],[25.29496,14.49948],[25.28094,14.43874],[25.31832,14.41538],[25.45849,14.42939],[25.5753,14.36398],[25.62669,14.25652],[25.60529,14.20983],[25.60216,14.18877],[25.60158,14.00772],[25.58114,13.89734],[25.53617,13.7928],[25.50712,13.79532],[25.50711,13.79531],[25.43046,13.79864],[25.27627,13.76126],[25.06135,13.64445],[24.92118,13.63044],[24.90249,13.59773],[25.02397,13.56035],[25.14545,13.53232],[25.17816,13.49494],[25.12676,13.43887],[25.00528,13.34543],[24.8511,13.21928],[24.65953,13.13518],[24.5474,13.08846],[24.34649,12.98567],[24.22501,12.98567],[24.02878,13.02772],[23.89328,12.98099],[23.86525,12.84083],[23.85591,12.72402],[23.79984,12.53246],[23.67836,12.35491],[23.43073,12.24745],[23.13171,12.19455],[23.01846,12.1432],[22.90062,12.07061],[22.56209,11.92282],[22.86508,12.01932],[23.08966,12.07925],[23.29523,12.04654],[23.40737,12.04654],[23.52885,12.05121],[23.84189,12.14933],[23.94468,12.21007],[24.10354,12.21007],[24.27641,12.21007],[24.44928,12.29884],[24.61281,12.44368],[24.72495,12.44368],[24.90716,12.42967],[25.1034,12.44368],[25.25758,12.39696],[25.51923,12.46704],[26.00047,12.42499],[26.18269,12.43434],[26.29015,12.36426],[26.27146,12.2054],[26.21072,12.05589],[26.10326,11.9531],[26.0799,11.87834],[26.05654,11.80358],[25.97244,11.71948],[25.86965,11.67276],[25.73415,11.66809],[25.67341,11.64473],[25.65473,11.54194],[25.57997,11.47185],[25.43046,11.42046],[25.28562,11.32234],[25.12676,11.21488],[24.9679,11.13078],[24.80905,11.07471],[24.73429,11.07938],[24.73896,11.14012],[24.73896,11.32701],[24.72027,11.40644],[24.66421,11.43448],[24.53338,11.3457],[24.43059,11.24759],[24.33248,11.15881],[24.2951,11.05135],[24.2437,10.99996],[24.14559,11.00463],[24.11755,11.0934],[24.0755,11.20553],[23.97271,11.30365],[23.89328,11.40644],[23.82787,11.40644],[23.54754,11.40644],[23.38401,11.38775],[23.16441,11.30832],[23.06162,11.28964],[23.0149,11.23824],[23.02892,11.18685],[23.10834,11.1775],[23.22048,11.13545],[23.33261,11.07004],[23.40737,11.05602],[23.56155,10.91585],[23.61762,10.80839],[23.56623,10.73831],[23.4354,10.62617],[23.34663,10.5047],[23.32327,10.3692],[23.4027,10.31781],[23.61762,10.2851],[23.74844,10.28977],[23.83254,10.21969],[23.84656,10.08887],[23.77181,9.9814],[23.55221,9.97206],[23.36065,9.97206],[23.19245,9.92066],[23.11302,9.78517],[23.01957,9.60762],[22.94014,9.54688],[22.81399,9.35999],[22.58972,9.16843],[22.30472,9.02826],[22.10381,8.9722],[21.92626,9.0049],[21.74405,8.94416],[21.58519,8.82268],[21.42633,8.78531],[21.26747,8.78531],[21.12731,8.84604],[21.04321,8.86941],[20.95443,8.81801],[20.83763,8.73858],[20.57598,8.69653],[20.32368,8.68252],[20.23958,8.71055],[20.0667,8.74325],[19.88449,8.78531],[19.72096,8.86473],[19.5621,8.91146],[19.35652,8.95351],[19.23037,8.94883],[19.13692,8.87408],[19.31447,8.78998],[19.46866,8.68719],[19.62751,8.52833],[19.79571,8.5003],[19.93121,8.36947],[20.2022,8.3648],[20.35638,8.28537],[20.43114,8.23398],[20.54795,8.27136],[20.68344,8.36947],[20.80492,8.39751],[20.90771,8.43489],[21.05722,8.45825],[21.22075,8.47226],[21.35625,8.49563],[21.57117,8.48628],[21.74872,8.40685],[21.94028,8.37415],[21.987,8.30873],[22.16455,8.23398],[22.48693,8.248],[22.61776,8.36947],[22.85604,8.57038],[23.099,8.65915],[23.32327,8.86006],[23.45409,8.88342],[23.65967,8.94416],[23.81853,9.02826],[23.94935,9.1731],[24.0755,9.29458],[24.34182,9.38803],[24.40256,9.4768],[24.4633,9.57024],[24.55207,9.70574],[24.62216,9.77115],[24.76232,9.79451],[24.86044,9.93001],[24.93987,9.96271],[25.06135,10.12157],[25.10807,10.14493],[25.19217,10.1169],[25.20152,10.00476],[25.11274,9.88329],[24.97725,9.70574],[24.97258,9.50483],[24.89782,9.35532],[24.89315,9.09835],[24.8511,9.05162],[24.76232,8.95351],[24.70626,8.87875],[24.56142,8.7526],[24.43527,8.68252],[24.40256,8.61243],[24.52404,8.60776],[24.64552,8.60309],[24.72495,8.51431],[24.73896,8.4489],[24.67822,8.38349],[24.55207,8.34144],[24.36051,8.21529],[24.23436,8.07045],[24.11755,7.88356],[24.01476,7.81348],[23.74844,7.79011],[23.66434,7.82282],[23.52885,7.82749],[23.47745,7.78077],[23.50081,7.68732],[23.48213,7.60322],[23.38401,7.51912],[22.87473,7.52847],[22.76727,7.50043],[22.75793,7.44437],[22.84203,7.3883],[22.83735,7.26215],[22.71587,7.14534],[22.35144,7.14534],[22.26267,7.19674],[22.15988,7.18739],[21.86552,7.04722],[21.68798,6.92575],[21.66929,6.83697],[21.68331,6.69213],[21.62724,6.50524],[21.52445,6.44918],[21.41231,6.35106],[21.32354,6.26229],[21.15534,6.13146],[21.16936,5.99597],[21.08058,5.85113],[20.96845,5.71096],[20.97312,5.68293],[21.0946,5.73432],[21.17403,5.79506],[21.29084,5.91654],[21.40297,5.9399],[21.58052,6.02867],[21.65994,6.0754],[21.70199,6.04269],[21.70667,5.90719],[21.58986,5.81842],[21.47773,5.76235],[21.3469,5.61751],[21.29551,5.54276],[21.29551,5.39325],[21.35625,5.2998],[21.3469,5.16898],[21.2628,5.08488],[21.16936,5.02881],[21.05255,4.94471],[20.95911,4.84192],[20.88669,4.66437],[20.87033,4.47982],[20.85865,4.43076],[20.81894,4.41674],[20.73017,4.35834],[20.68578,4.23453],[20.61569,4.14575],[20.52926,4.14575],[20.41946,4.13174],[20.34938,4.071],[20.26294,4.078],[20.21622,4.12473],[20.24191,4.19248],[20.29097,4.23219],[20.3704,4.29994],[20.39376,4.3817],[20.38675,4.42842],[20.32134,4.44945],[20.29097,4.37937],[20.19286,4.32563],[20.12978,4.23219],[20.02933,4.17846],[19.92654,4.15977],[19.79338,4.13174],[19.68124,4.11772],[19.63452,4.15743],[19.62284,4.23453],[19.56677,4.24621],[19.52823,4.2228],[19.51021,4.13274],[19.44372,4.00391],[19.38969,3.9291],[19.52684,3.84598],[19.65567,3.74208],[19.66398,3.63403],[19.51853,3.55922],[19.51853,3.49273],[19.41463,3.36805],[19.38138,3.36805],[19.40216,3.31402],[19.5019,3.25168],[19.60996,3.25584],[19.73463,3.34311],[19.82607,3.40545],[19.91334,3.33895],[20.0588,3.34311],[20.20426,3.42623],[20.34556,3.45117],[20.38296,3.48441],[20.42868,3.48026],[20.49102,3.53428],[20.72375,3.53013],[20.79025,3.58416],[20.98558,3.59662],[21.04792,3.62987],[21.26403,3.63403],[21.36792,3.65896],[21.39702,3.70468],[21.57988,3.72546],[21.62144,3.76286],[21.66715,3.76286],[21.77521,3.8626],[21.79183,3.91248],[21.86248,3.96235],[21.95391,3.9665],[21.99132,3.9291],[21.95807,3.87092],[21.96638,3.77949],[21.87911,3.67143],[21.85417,3.58416],[21.86755,3.52179],[21.94762,3.51975],[22.0206,3.5695],[22.20826,3.5702],[22.23815,3.5165],[22.33035,3.52403],[22.39308,3.60334],[22.46571,3.60492],[22.49608,3.69603],[22.55682,3.78013],[22.5712,3.75761],[22.62223,3.76611],[22.68764,3.72874],[22.74604,3.7521],[22.80211,3.77546],[22.83949,3.80816],[22.85351,3.90394],[22.88388,3.94833],[22.95863,3.93899],[22.97966,4.02776],[23.0404,4.07682],[23.30905,4.08383],[23.35344,4.16793],[23.44922,4.20998],[23.5158,4.31744],[23.70269,4.509],[23.71671,4.67253],[23.8195,4.77999],[23.8522,4.94352],[23.78679,5.05098],[23.77277,5.12574],[23.69802,5.21919],[23.71203,5.28927],[23.75408,5.343],[23.75408,5.41542],[23.7097,5.47382],[23.67232,5.58129],[23.61859,5.66772],[23.62326,5.80322],[23.65597,5.83125],[23.7424,5.82191],[23.83585,5.72613],[23.85454,5.67473],[24.01106,5.47616],[24.03442,5.38505],[23.99938,5.33366],[24.0204,5.26824],[24.09516,5.17947],[24.1559,5.13275],[24.16758,5.09771],[24.30307,4.97156],[24.31709,4.83606],[24.27037,4.71458],[24.21897,4.6702],[24.14422,4.57208],[24.07881,4.53236],[24.03676,4.43191],[23.99704,4.3665],[24.01807,4.24035],[23.95032,4.14924],[23.83351,4.03243],[23.77511,4.00206],[23.71671,3.89694],[23.68634,3.80583],[23.64662,3.7264],[23.5999,3.5909],[23.63961,3.51381],[23.64429,3.40869],[23.64662,3.22647],[23.56018,3.12601],[23.46207,3.11433],[23.43403,3.07462],[23.28219,3.0606],[23.27751,2.99986],[23.31723,2.98351],[23.33124,2.79428],[23.37797,2.56301],[23.51346,2.65178],[23.54414,2.67939],[23.58462,2.78262],[23.83459,2.81766],[23.83692,2.62376],[23.9584,2.50929],[24.06587,2.52565],[24.21538,2.62844],[24.29013,2.62376],[24.38825,2.54901],[24.50973,2.53266],[24.55178,2.47659],[24.6242,2.46958],[24.70129,2.35277],[24.62887,2.2897],[24.50739,2.28736],[24.45133,2.24298],[24.33218,2.22195],[24.29013,2.18924],[24.36022,2.12617],[24.43264,1.986],[24.43731,1.89956],[24.36255,1.82948],[24.2621,1.78276],[24.22939,1.71735],[24.27144,1.66128],[24.39059,1.57484],[24.41862,1.56316],[24.43731,1.46504],[24.41161,1.43],[24.38124,1.35525],[24.32284,1.32254],[24.21304,1.35758],[24.14296,1.35057],[24.08222,1.31787],[24.0425,1.27348],[24.0425,1.19873],[23.93504,1.08659],[23.76918,1.07958],[23.69909,1.07024],[23.66046,1.06151],[23.65482,1.06024],[23.62667,1.05389],[23.43978,1.07024],[23.30896,1.13098],[23.15244,1.15668],[23.07067,1.13098],[23.06367,1.05856],[23.21084,0.90905],[23.36035,0.73384],[23.40007,0.68711],[23.40007,0.62404],[23.38138,0.57498],[23.4024,0.50022],[23.4538,0.4278],[23.49585,0.37641],[23.50286,0.2339],[23.40007,0.16148],[23.30195,0.07738],[23.29962,0.02132],[23.32998,-0.13287],[23.30662,-0.26836],[23.25289,-0.39919],[23.24355,-0.49964],[23.19449,-0.60243],[23.13141,-0.68419],[23.066,-0.77063],[23.00059,-0.8267],[22.82304,-0.82203],[22.74128,-0.80567],[22.6455,-0.7426],[22.58009,-0.74727],[22.55673,-0.82203],[22.49365,-0.85473],[22.41569,-0.84853],[22.21945,-0.88627],[22.07227,-0.84889],[21.97182,-0.85123],[21.8737,-0.90029],[21.79427,-1.03578],[21.76157,-1.08951],[21.79427,-1.14324],[21.92276,-1.1596],[22.03256,-1.27874],[21.99284,-1.35116],[21.92042,-1.4446],[21.83399,-1.48899],[21.79427,-1.56842],[21.77792,-1.64318],[21.86202,-1.69223],[22.01153,-1.69691],[22.15871,-1.67588],[22.25215,-1.62449],[22.36429,-1.58477],[22.47175,-1.60113],[22.55118,-1.65252],[22.68901,-1.6385],[22.7404,-1.67588],[22.79881,-1.76232],[22.87356,-1.83007],[22.92963,-1.93753],[22.91795,-2.01462],[22.92496,-2.14077],[22.97869,-2.20385],[23.04176,-2.2459],[23.23099,-2.25758],[23.27304,-2.21553],[23.25435,-2.1688],[23.15857,-2.02396],[23.14222,-1.92585],[23.17726,-1.8581],[23.27304,-1.81371],[23.3735,-1.74129],[23.47862,-1.68289],[23.56506,-1.63383],[23.64449,-1.62682],[23.66084,-1.74129],[23.63514,-1.82072],[23.68186,-1.8581],[23.8197,-1.86044],[23.96454,-1.97724],[24.11405,-2.06835],[24.2145,-2.15245],[24.31729,-2.20618],[24.41775,-2.23889],[24.54156,-2.22254],[24.63033,-2.14311],[24.67706,-2.02396],[24.70976,-1.99827],[24.76116,-2.02163],[24.80554,-2.10807],[24.90132,-2.06835],[24.96206,-2.00761],[25.05784,-1.89781],[25.16998,-1.86978],[25.24473,-1.80203],[25.2751,-1.81371],[25.38957,-1.93286],[25.58581,-1.9679],[25.62786,-2.01228],[25.72131,-2.00995],[25.75401,-2.04966],[25.75868,-2.13376],[25.71196,-2.20852],[25.67458,-2.28328],[25.67225,-2.32065],[25.53675,-2.37906],[25.42695,-2.44914],[25.22371,-2.60099],[25.20736,-2.63136],[25.12793,-2.66173],[25.0485,-2.76919],[25.01579,-2.86731],[24.98075,-2.98178],[24.86628,-3.04018],[24.74013,-3.08924],[24.66304,-3.14297],[24.46213,-3.11961],[24.35467,-3.14063],[24.28926,-3.22707],[24.24954,-3.35322],[24.17245,-3.50974],[24.14208,-3.59852],[24.05798,-3.71299],[23.97154,-3.78774],[23.93884,-3.85082],[23.99958,-3.94426],[24.0206,-4.01435],[24.09302,-4.11714],[24.08601,-4.24562],[24.06265,-4.29001],[24.01827,-4.33907],[24.04864,-4.4512],[23.99724,-4.49559],[23.91314,-4.51895],[23.82437,-4.55633],[23.69822,-4.55633],[23.59309,-4.60305],[23.4646,-4.61006],[23.3478,-4.6708],[23.21697,-4.64277],[23.09316,-4.66145],[23.02308,-4.67781],[22.99271,-4.70818],[22.89225,-4.70818],[22.81516,-4.68014],[22.79881,-4.60072],[22.88758,-4.50026],[22.93664,-4.43485],[22.96,-4.33907],[22.91795,-4.283],[22.77311,-4.33673],[22.68434,-4.29468],[22.61192,-4.24329],[22.47876,-4.26898],[22.3783,-4.22226],[22.35027,-4.13816],[22.27785,-4.05172],[22.20309,-3.99566],[21.95079,-4.18488],[21.82464,-4.18488],[21.70083,-4.07976],[21.57935,-4.07041],[21.49758,-4.09378],[21.40414,-4.0307],[21.34807,-3.99566],[21.1495,-4.03304],[21.01167,-4.16853],[20.94626,-4.16386],[20.79441,-4.07742],[20.64256,-4.12648],[20.52809,-4.06107],[20.40661,-3.99566],[20.3155,-3.88119],[20.30382,-3.77139],[20.26177,-3.71766],[20.30616,-3.61487],[20.31083,-3.52142],[20.22673,-3.43966],[20.11226,-3.43499],[19.99545,-3.39527],[19.895,-3.40462],[19.86697,-3.52376],[19.78286,-3.64524],[19.73147,-3.71065],[19.72213,-3.82979],[19.7595,-3.93725],[19.68241,-3.99332],[19.50019,-4.07509],[19.33666,-4.1732],[19.24555,-4.13349],[19.14977,-4.06341],[19.04932,-3.95828],[18.95587,-3.95127],[18.82739,-4.04238],[18.74562,-4.1405],[18.65919,-4.15919],[18.54705,-4.14984],[18.45361,-4.07742],[18.37885,-4.04472],[18.30643,-3.99099],[18.24803,-3.95594],[18.13823,-4.00967],[17.98872,-4.08209],[17.85789,-4.15685],[17.83453,-4.22927],[17.84621,-4.31104],[17.97236,-4.38346],[17.98405,-4.57268],[17.93966,-4.7292],[17.94199,-4.87871],[17.88126,-4.93011],[17.78172,-4.94526],[17.7259,-5.04341],[17.69086,-5.09247],[17.62545,-5.11583],[17.59508,-5.16723],[17.50631,-5.17891],[17.43622,-5.20694],[17.43856,-5.27936],[17.51565,-5.37981],[17.50397,-5.46625],[17.45725,-5.52699],[17.36848,-5.55502],[17.25868,-5.55035],[17.21429,-5.59941],[17.20261,-5.74659],[17.20495,-5.84938],[17.23064,-5.9288],[17.07646,-6.02926],[16.96432,-6.15307],[16.89891,-6.24652],[16.85686,-6.31894],[16.80313,-6.37734],[16.74006,-6.46144],[16.73305,-6.55255],[16.82416,-6.59927],[16.95498,-6.59227],[17.02506,-6.55956],[17.1699,-6.48013],[17.27503,-6.44275],[17.35679,-6.47079],[17.38483,-6.54087],[17.46659,-6.55722],[17.52733,-6.6203],[17.78664,-6.646],[17.96185,-6.60862],[18.09968,-6.60395],[18.25387,-6.65067],[18.33563,-6.68571],[18.45945,-6.66235],[18.59261,-6.66702],[18.73511,-6.73711],[18.8122,-6.73944],[18.97106,-6.646],[19.10188,-6.5946],[19.17664,-6.59227],[19.23271,-6.646],[19.23504,-6.65067],[19.29578,-6.75346],[19.41726,-6.80719],[19.51304,-6.89363],[19.80039,-6.91232],[19.93822,-6.95904],[20.05502,-6.96605],[20.15314,-6.95203],[20.20687,-6.91465],[20.28396,-6.91465],[20.34003,-6.93568],[20.3961,-6.90998],[20.44049,-6.94969],[20.4218,-7.03847],[20.47553,-7.10154],[20.45917,-7.23236],[20.5386,-7.29778],[20.75586,-7.3445],[20.94042,-7.32347],[21.08993,-7.35852],[21.22542,-7.29077],[21.33522,-7.2604],[21.46605,-7.09921],[21.5408,-7.07117],[21.62023,-7.07584],[21.72769,-7.11556],[21.80478,-7.08752],[21.88421,-7.1249],[21.94262,-7.19265],[22.00803,-7.24872],[22.08512,-7.28376],[22.16922,-7.34216],[22.28603,-7.40057],[22.38648,-7.44028],[22.49394,-7.46131],[22.63878,-7.45663],[22.73223,-7.50569],[22.81633,-7.50569],[22.98219,-7.38188],[23.11535,-7.35151],[23.19712,-7.35384],[23.29523,-7.28843],[23.45643,-7.26974],[23.5452,-7.22769],[23.67602,-7.14359],[23.75312,-7.05015],[23.85824,-6.95904],[23.9657,-6.93568],[24.10821,-6.85158],[24.2437,-6.73711],[24.29276,-6.57825],[24.4049,-6.55255],[24.50769,-6.55022],[24.65019,-6.43341],[24.75532,-6.368],[24.81839,-6.4007],[24.83708,-6.4778],[24.82774,-6.57358],[24.75298,-6.63198],[24.65019,-6.70674],[24.61281,-6.77682],[24.61281,-6.90063],[24.6315,-6.95203],[24.7156,-6.87026],[24.80204,-6.86793],[24.88147,-6.80252],[24.89081,-6.65534],[24.9609,-6.60628],[24.99126,-6.55956],[25.08237,-6.46378],[25.12209,-6.35865],[25.21086,-6.31193],[25.29029,-6.26988],[25.33234,-6.19746],[25.40943,-6.19279],[25.40009,-6.36099],[25.38373,-6.46378],[25.35804,-6.58058],[25.34168,-6.69506],[25.23422,-6.80719],[25.23656,-6.91699],[25.22021,-7.03379],[25.19217,-7.14126],[25.21553,-7.18564],[25.25058,-7.17396],[25.28795,-7.08752],[25.40476,-7.00109],[25.45849,-6.88895],[25.53325,-6.80018],[25.61968,-6.77682],[25.66407,-6.76748],[25.67341,-6.82354],[25.64071,-6.90297],[25.59866,-6.94268],[25.56829,-7.0081],[25.53325,-7.08052],[25.48886,-7.14826],[25.51923,-7.1763],[25.58698,-7.14826],[25.67575,-7.13191],[25.7692,-7.08052],[25.79022,-7.04781],[25.8533,-7.0408],[25.90236,-6.98941],[25.97244,-6.96838],[26.00047,-6.97539],[25.99814,-7.18097],[25.9701,-7.27442],[25.91404,-7.35852],[25.83227,-7.41225],[25.78088,-7.47065],[25.72715,-7.58278],[25.72481,-7.70894],[25.71313,-7.82574],[25.70612,-7.91218],[25.60567,-7.98927],[25.57296,-8.05001],[25.52157,-8.15514],[25.43513,-8.22522],[25.31832,-8.29998],[25.1618,-8.34203],[25.04266,-8.36772],[24.91417,-8.46818],[24.84175,-8.55461],[24.77868,-8.62003],[24.75999,-8.72982],[24.79036,-8.83028],[24.78569,-8.95409],[24.73429,-9.01717],[24.64085,-9.0966],[24.58011,-9.12463],[24.45629,-9.10127],[24.38621,-9.07557],[24.30912,-9.08959],[24.2437,-9.18771],[24.17596,-9.27648],[24.12923,-9.23209],[24.04513,-9.2648],[24.02411,-9.31619],[24.14325,-9.46337],[24.14792,-9.61522],[24.09653,-9.63157],[24.0171,-9.69698],[23.93066,-9.78575],[23.83021,-9.82547],[23.7391,-9.83248],[23.64565,-9.81145],[23.56623,-9.83949],[23.4611,-9.84182],[23.41671,-9.97031],[23.41438,-10.09412],[23.35831,-10.15019],[23.28823,-10.20159],[23.29523,-10.32073],[23.21814,-10.3511],[23.09666,-10.33007],[23.07564,-10.27167],[22.93313,-10.27167],[22.70419,-10.20392],[22.67149,-10.28569],[22.59206,-10.34409],[22.47525,-10.34409],[22.39583,-10.33241],[22.33742,-10.28569],[22.26267,-10.29503],[22.1809,-10.32774],[21.8445,-10.33241],[21.67396,-10.32306],[21.48707,-10.32306],[21.36326,-10.28335],[21.23243,-10.23429],[21.10628,-10.20859],[21.02452,-10.15953],[20.91939,-10.14318],[20.84931,-10.16187],[20.80025,-10.23663],[20.75353,-10.28569],[20.65775,-10.26933],[20.52459,-10.22027],[20.41012,-10.18757],[20.34704,-10.20626],[20.28864,-10.29036],[20.18585,-10.29737],[20.08306,-10.31606],[20.00129,-10.34175],[19.89383,-10.39548],[19.74899,-10.40716],[19.60882,-10.39782],[19.50837,-10.39081],[19.42894,-10.32774],[19.34718,-10.30204],[19.33316,-10.17355],[19.25607,-10.15253],[19.12291,-10.14085],[18.93135,-10.06142],[18.83089,-10.03338],[18.74913,-10.01002],[18.70941,-10.01002],[18.67437,-10.08244],[18.65568,-10.16888],[18.64867,-10.41651],[18.61363,-10.42819],[18.52953,-10.48893],[18.43375,-10.56135],[18.39404,-10.61508],[18.29125,-10.63377],[18.16977,-10.64311],[18.07165,-10.67115],[17.93382,-10.74824],[17.86373,-10.81365],[17.80066,-10.90009],[17.71189,-10.84636],[17.63947,-10.80431],[17.64414,-10.66414],[17.59041,-10.61742],[17.49229,-10.51229],[17.32876,-10.46323],[17.13486,-10.47725],[16.89891,-10.46557],[16.72838,-10.43987],[16.6396,-10.45155],[16.61858,-10.545],[16.58587,-10.67115],[16.50177,-10.74123],[16.4457,-10.7459],[16.38263,-10.72488],[16.30787,-10.76693],[16.20041,-10.81131],[15.98081,-10.78562],[15.89204,-10.74357],[15.71683,-10.74357],[15.58601,-10.76459],[15.47387,-10.78095],[15.33838,-10.79496],[15.22157,-10.8557],[15.1328,-10.89542],[15.023,-10.88373],[14.92021,-10.84402],[14.85947,-10.81131],[14.84312,-10.73889],[14.70062,-10.67816],[14.60717,-10.63377],[14.52541,-10.59639],[14.41561,-10.53332],[14.29179,-10.61041],[14.10957,-10.72254],[14.02547,-10.77394],[13.90166,-10.88841],[13.7942,-10.95849],[13.6587,-10.99587],[13.5162,-11.03558],[13.42509,-11.08698],[13.32697,-11.09866],[13.14943,-11.09866],[12.98356,-11.09866],[12.84573,-11.08464],[12.75228,-11.03792],[12.66585,-11.04026],[12.59576,-11.09866],[12.48597,-11.1594],[12.41822,-11.15005],[12.34346,-11.09399],[12.21965,-11.03792],[12.15657,-11.03091],[12.03743,-11.05194],[11.89025,-11.16407],[11.8155,-11.22247],[11.75943,-11.1921],[11.6543,-11.13136],[11.58188,-11.07997],[11.42303,-11.04259],[11.36696,-10.97017],[11.26183,-10.9071],[11.17072,-10.85804],[11.124,-10.78095],[11.06326,-10.71553],[11.02121,-10.65246],[11.05859,-10.50295],[10.98851,-10.41651],[11.00953,-10.2997],[10.99318,-10.17822],[11.03056,-10.07777],[11.01654,-9.95162],[11.03289,-9.83715],[11.07962,-9.7437],[11.13568,-9.64792],[11.11466,-9.52878],[11.02355,-9.42132],[10.90441,-9.3489],[10.86236,-9.30918],[10.86936,-9.22742],[10.94879,-9.19705],[10.97683,-9.14332],[10.96982,-9.05688],[11.05625,-9.00782],[11.18708,-8.98213],[11.22913,-8.92372],[11.21277,-8.80692],[11.28987,-8.72282],[11.29921,-8.53359],[11.36229,-8.47285],[11.38565,-8.38174],[11.40901,-8.2883],[11.39032,-8.26026],[11.36649,-8.26026],[11.32724,-8.30932],[11.27585,-8.40277],[11.18941,-8.4892],[11.07494,-8.59433],[10.83666,-8.72515],[10.8133,-8.77888],[10.82498,-8.88868],[10.79227,-8.99147],[10.7292,-9.03352],[10.57735,-9.03118],[10.47689,-9.06155],[10.39513,-9.14565],[10.32271,-9.19705],[10.28066,-9.27181],[10.20357,-9.33488],[10.15217,-9.37693],[10.07742,-9.37693],[10.03069,-9.47739],[9.94893,-9.52878],[9.92557,-9.58017],[9.83679,-9.66895],[9.71064,-9.66428],[9.57048,-9.60354],[9.46301,-9.61755],[9.34621,-9.65026],[9.33686,-9.77641],[9.26211,-9.83248],[9.17801,-9.83715],[9.16399,-9.93527],[9.11727,-9.94461],[8.98177,-9.92125],[8.74816,-9.82313],[8.64537,-9.84649],[8.54725,-9.9633],[8.43512,-9.97732],[8.35569,-10.02871],[8.26692,-10.08011],[8.19216,-10.08945],[8.13609,-10.0474],[8.07068,-9.90256],[8.07535,-9.77641],[8.08003,-9.64091],[8.01461,-9.51476],[7.96789,-9.42599],[7.90715,-9.33255],[7.72961,-9.28115],[7.57542,-9.2391],[7.51935,-9.1036],[7.40255,-9.01483],[7.33246,-8.88401],[7.2507,-8.79991],[7.1923,-8.66675],[7.07549,-8.58498],[7.04045,-8.46818],[7.00307,-8.37473],[6.88393,-8.26961],[6.84889,-8.14112],[6.84889,-8.02198],[6.90729,-7.94021],[6.98438,-7.89349],[7.09651,-7.87714],[7.17127,-7.78836],[7.24135,-7.71361],[7.3348,-7.66455],[7.35816,-7.55709],[7.41656,-7.48233],[7.48898,-7.43327],[7.54972,-7.43327],[7.57542,-7.33515],[7.60813,-7.26507],[7.63616,-7.21601],[7.63616,-7.1249],[7.67821,-7.07818],[7.66887,-6.96371],[7.67821,-6.89363],[7.70391,-6.86326],[7.6969,-6.76047],[7.60813,-6.79551],[7.52636,-6.8726],[7.40255,-6.91699],[7.2764,-6.94736],[7.1409,-7.06416],[6.96336,-7.20433],[6.76712,-7.33983],[6.62695,-7.3772],[6.53351,-7.43794],[6.39334,-7.44729],[6.13403,-7.37954],[5.91677,-7.27675],[5.83968,-7.18798],[5.88406,-7.06884],[5.87939,-6.97072],[5.88406,-6.87494],[5.87472,-6.82588],[5.82566,-6.78383],[5.88173,-6.66469],[5.88173,-6.60628],[5.76259,-6.41472],[5.53832,-6.03159],[5.50327,-5.89376],[5.51262,-5.78163],[5.60139,-5.72323],[5.68316,-5.65548],[5.72988,-5.56203],[5.73455,-5.47326],[5.63176,-5.34711],[5.64811,-5.29104],[5.72287,-5.25834],[5.80464,-5.15321],[5.87939,-4.99202],[5.93312,-4.90091],[5.98919,-4.71635],[6.0289,-4.66029],[6.04759,-4.52245],[6.09899,-4.49442],[6.21813,-4.50844],[6.26018,-4.46405],[6.27887,-4.3122],[6.33727,-4.26782],[6.46109,-4.2281],[6.54752,-4.25614],[6.77179,-4.35659],[6.83253,-4.36126],[7.02176,-4.17204],[7.06147,-4.11597],[7.06381,-3.98047],[7.05213,-3.8917],[7.01942,-3.85199],[7.06147,-3.78657],[7.1152,-3.7492],[7.15258,-3.70948],[7.13389,-3.64874],[7.11053,-3.62538],[7.15258,-3.54829],[7.18529,-3.45952],[7.25304,-3.40579],[7.27873,-3.31234],[7.32078,-3.23291],[7.43292,-3.17451],[7.47263,-3.13713],[7.4703,-3.032],[7.53337,-2.97827],[7.62448,-2.90352],[7.70858,-2.80774],[7.73895,-2.73999],[7.76231,-2.6956],[7.79969,-2.67925],[7.85576,-2.67925],[7.89781,-2.70495],[7.91182,-2.80073],[7.98892,-2.88716],[7.97724,-3.00163],[8.1104,-3.06237],[8.1688,-3.07405],[8.27392,-3.04369],[8.37671,-3.03901],[8.49586,-3.04135],[8.59631,-3.06237],[8.68976,-3.08106],[8.73414,-3.04836],[8.7575,-2.9409],[8.73881,-2.84278],[8.615,-2.77269],[8.49118,-2.69794],[8.29729,-2.59048],[8.18282,-2.49703],[8.1174,-2.38022],[8.08236,-2.29612],[8.07535,-2.26342],[8.11507,-2.20268],[8.18749,-2.16764],[8.31831,-2.2167],[8.38139,-2.18165],[8.46081,-2.09989],[8.5309,-2.01112],[8.615,-2.02981],[8.75049,-2.11157],[8.82291,-2.09989],[8.94907,-2.05784],[9.02616,-2.09755],[9.10559,-1.98308],[9.15932,-1.94103],[9.14296,-1.8546],[9.10325,-1.77517],[8.98177,-1.69107],[8.85796,-1.62799],[8.77152,-1.56725],[8.68976,-1.57426],[8.63369,-1.54856],[8.59397,-1.44811],[8.55192,-1.37569],[8.62434,-1.29159],[8.5893,-1.22851],[8.5309,-1.13974],[8.45614,-1.15142],[8.42577,-1.19814],[8.29729,-1.20749],[8.15945,-1.10003],[8.11507,-1.06732],[8.00527,-1.08835],[7.90248,-1.05097],[7.84408,-1.01125],[7.8067,-0.89445],[7.7483,-0.84539],[7.70157,-0.77297],[7.6969,-0.71924],[7.503,-0.69821],[7.36517,-0.67018],[7.08951,-0.68653],[7.00541,-0.60477],[6.947,-0.4646],[6.87225,-0.38283],[6.87692,-0.31509],[6.90495,-0.27537],[6.90729,-0.15857],[6.90028,-0.1025],[6.71573,0.11243],[6.60593,0.26895],[6.41203,0.43715],[6.36531,0.48153],[6.36297,0.55162],[6.2742,0.65207],[6.30457,0.72683],[6.31158,0.7899],[6.36764,0.81794],[6.43072,0.80859],[6.54519,0.90905],[6.64798,1.03052],[6.63163,1.09126],[6.57322,1.21274],[6.51949,1.31553],[6.47277,1.34824],[6.391,1.36459],[6.24383,1.47672],[6.24383,1.53279],[6.39334,1.6753],[6.40268,1.72202],[6.35129,1.84817],[6.34195,1.92526],[6.42137,1.98834],[6.42371,2.10514],[6.32793,2.18924],[6.30223,2.27802],[6.30457,2.39482],[6.39801,2.46024],[6.4681,2.46024],[6.5265,2.51397],[6.62695,2.51397],[6.66667,2.57003],[6.65732,2.67282],[6.71573,2.7102],[6.80683,2.91111],[6.84421,2.98586],[6.81151,3.11202],[6.84188,3.21714],[6.84188,3.29657],[6.90476,3.40464],[6.91897,3.52901],[6.81618,3.67385],[6.75077,3.77197],[6.76946,3.84206],[6.90028,3.9355],[7.06848,4.00091],[7.10119,4.11772],[7.03578,4.26256],[6.97971,4.4915],[7.07783,4.60363],[7.22267,4.69708],[7.26004,4.84192],[7.31611,4.94938],[7.30209,5.15496],[7.33013,5.26709],[7.27873,5.36054],[7.26939,5.49136],[7.12455,5.37456],[6.91897,5.40259],[6.73675,5.43062],[6.53117,5.36988],[6.37231,5.24841],[6.37231,5.15963],[6.26018,5.11291],[6.08263,5.02881],[6.01255,4.99143],[5.86304,4.99143],[5.7509,4.95405],[5.67148,4.89331],[5.57336,4.89331],[5.52664,4.95873],[5.48459,5.01012],[5.50795,5.15496],[5.82566,5.39792],[5.86304,5.49136],[5.78828,5.63153],[5.85837,5.76703],[5.91911,5.87916],[5.95181,5.97261],[6.04058,6.00998],[6.13403,6.01933],[6.33494,6.00998],[6.47978,6.15482],[6.55453,6.26229],[6.60593,6.40713],[6.70405,6.4445],[6.85823,6.47254],[6.99373,6.54729],[6.98438,6.54729],[7.09651,6.67344],[7.20398,6.76222],[7.40488,6.7482],[7.49833,6.7482],[7.57776,6.77156],[7.64784,6.86968],[7.74129,6.9678],[7.75998,7.06124],[7.84875,7.136],[8.02629,7.2528],[8.06834,7.29953],[8.03564,7.34625],[7.96088,7.33223],[7.88145,7.43502],[7.87211,7.57052],[7.86277,7.73405],[7.95154,7.93028],[8.07769,8.12184],[8.10572,8.20127],[8.13843,8.43021],[8.16179,8.57038],[8.20851,8.64514],[8.20851,8.74325],[8.2786,8.85072],[8.28327,8.93015],[8.35335,8.96752],[8.4795,8.96752],[8.50286,9.14974],[8.60565,9.28524],[8.67574,9.41606],[8.74115,9.53287],[8.71779,9.60762],[8.60565,9.79919],[8.54024,9.87394],[8.37671,9.9487],[8.30196,10.02813],[8.28794,10.12157],[8.35802,10.25239],[8.41409,10.36453],[8.40475,10.48133],[8.46081,10.49068],[8.62434,10.48133],[8.75517,10.6215],[8.9514,10.60281],[9.0355,10.64954],[9.13362,10.64486],[9.24575,10.55142],[9.38592,10.52806],[9.4233,10.47199],[9.5915,10.40658],[9.65691,10.43928],[9.69429,10.53273],[9.86716,10.52806],[10.03537,10.54675],[10.18488,10.51871],[10.27365,10.5374],[10.41382,10.63085],[10.59136,10.73831],[10.74088,10.72896],[10.89506,10.72429],[10.97916,10.63552],[11.05859,10.64486],[11.2081,10.55609],[11.2595,10.59814],[11.36229,10.72429],[11.47442,10.74765],[11.62393,10.86446],[11.70803,10.9252],[11.85755,10.95791],[11.89025,11.04668],[11.96501,11.16816],[12.02108,11.3457],[12.10985,11.46251],[12.17059,11.47653],[12.19395,11.43448],[12.33412,11.4298],[12.39486,11.40644],[12.45092,11.44382],[12.45092,11.53727],[12.58642,11.61669],[12.67052,11.64473],[12.75929,11.62137],[12.84807,11.63538],[12.94618,11.69145],[12.99758,11.71014],[13.02561,11.82695],[13.10971,11.91105],[13.10971,12.00916],[13.1798,12.07458],[13.21717,12.19138],[13.1798,12.28483],[13.14709,12.42499],[13.10971,12.52778],[13.10971,12.62123],[13.16111,12.72402],[13.19381,12.86419],[13.20316,12.96698],[13.14709,13.02772],[13.11438,13.05575],[12.9602,13.24264],[12.85741,13.30338],[12.63781,13.35477],[12.34813,13.35477],[12.28272,13.37346],[12.22198,13.3501],[12.1846,13.28936],[12.11919,13.17723],[12.03976,13.13518],[11.89025,13.09313],[11.75476,13.0978],[11.68,13.06977],[11.65664,13.02772],[11.65664,12.92025],[11.53983,12.89222],[11.48844,12.86419],[11.35761,12.88288],[11.28753,12.82214],[11.2595,12.75205],[11.16605,12.74271],[11.01187,12.77541],[10.89039,12.78943],[10.77825,12.88755],[10.75489,12.97632],[10.71284,13.07444],[10.67546,13.16321],[10.7035,13.2333],[10.67079,13.32207],[10.68948,13.42486],[10.78293,13.57437],[10.83899,13.57437],[10.89506,13.56035],[11.03523,13.56035],[11.22679,13.69118],[11.39499,13.81733],[11.50713,13.85938],[11.69402,13.88274],[11.70336,13.91544],[11.69869,14.00889],[11.87156,14.16775],[11.8996,14.26586],[11.89025,14.39669],[11.83419,14.49013],[11.74541,14.52751],[11.61926,14.54153],[11.56319,14.62096],[11.53983,14.72375],[11.49311,14.80785],[11.39966,14.98072],[11.39966,15.03211],[11.27351,15.12089],[11.23146,15.25638],[11.23146,15.31245],[11.2595,15.4059],[11.20343,15.48532],[11.08195,15.6068],[10.9558,15.62082],[10.89506,15.64418],[10.83432,15.61615],[10.73153,15.61147],[10.67079,15.63016],[10.66145,15.70492],[10.66612,15.7423],[10.62407,15.775],[10.5353,15.76099],[10.47923,15.76566],[10.3998,15.87312],[10.29701,16.03665],[10.25496,16.12075],[10.20357,16.11608],[10.08676,16.26559],[9.93725,16.40576],[9.75503,16.52724],[9.58683,16.64872],[9.40461,16.74216],[9.23174,16.83561],[9.0869,16.87298],[8.97476,16.87298],[8.90468,16.80757],[8.77853,16.81225],[8.68041,16.8029],[8.54959,16.72347],[8.45147,16.66741],[8.3113,16.65339],[8.2272,16.62535],[8.14777,16.56462],[8.059,16.57863],[7.75998,16.59732],[7.61046,16.59265],[7.38152,16.54125],[7.23201,16.50855],[7.14324,16.40109],[7.09651,16.30764],[6.98438,16.32166],[6.88159,16.36371],[6.79749,16.3824],[6.74142,16.4151],[6.64798,16.38707],[6.52183,16.34969],[6.44707,16.30764],[6.36764,16.36838],[6.29756,16.40109],[6.26018,16.46183],[6.1901,16.48051],[6.0219,16.43379],[5.76025,16.40109],[5.6341,16.39174],[5.53131,16.45715],[5.39114,16.52724],[5.28368,16.64404],[5.20892,16.70946],[5.18089,16.80757],[5.10146,16.95241],[5.04539,17.05053],[5.04539,17.18603],[5.14818,17.41497],[5.25565,17.51308],[5.32573,17.58317],[5.38647,17.72801],[5.45655,17.85883],[5.47991,18.01769],[5.58738,18.07843],[5.69951,18.1672],[5.7509,18.25597],[5.78361,18.33073],[5.92845,18.45688],[5.97517,18.57836],[6.02657,18.72787],[6.10132,18.80263],[6.23682,18.86804],[6.34428,18.82599],[6.41437,18.77927],[6.47978,18.74189],[6.50314,18.61574],[6.63863,18.48959],[6.76478,18.47557],[6.82552,18.53164],[6.92831,18.55033],[7.01241,18.50827],[7.09184,18.39147],[7.12922,18.28401],[7.1993,18.21392],[7.33947,18.18122],[7.49366,18.16253],[7.56374,18.25597],[7.75998,18.34475],[7.83006,18.45221],[7.85809,18.51762],[7.77866,18.61574],[7.69924,18.6391],[7.48898,18.69517],[7.39554,18.73254],[7.44226,18.77459],[7.54505,18.77927],[7.67588,18.84001],[7.88613,18.91943],[8.03097,18.94747],[8.21786,19.03157],[8.42344,19.1437],[8.57762,19.32592],[8.62434,19.46142],[8.61033,19.56888],[8.75517,19.6997],[8.89533,19.72306],[9.06821,19.72773],[9.14296,19.72306],[9.20838,19.65298],[9.32051,19.59691],[9.39527,19.6156],[9.5074,19.63429],[9.68495,19.69503],[9.77839,19.7838],[9.8438,19.71839],[9.90454,19.68568],[9.93725,19.62494],[9.93725,19.55019],[10.04471,19.53617],[10.283,19.59691],[10.38111,19.6156],[10.48857,19.72773],[10.67079,19.75577],[10.75022,19.77913],[11.01654,19.78847],[11.27351,19.80716],[11.4277,19.92397],[11.55852,19.952],[11.69869,20.0361],[11.76877,20.03143],[11.84353,19.97536],[11.91829,19.97536],[12.04444,20.05012],[12.1519,20.09217],[12.24067,20.1716],[12.24067,20.21832],[12.19395,20.27906],[12.11919,20.36783],[11.88558,20.3912],[11.53516,20.48931],[11.39966,20.45193],[11.24081,20.32111],[11.18474,20.2557],[11.07261,20.22767],[10.98851,20.26504],[10.88104,20.2557],[10.6194,20.13422],[10.49792,20.10152],[10.39513,20.02676],[10.18955,20.0361],[10.11012,19.98004],[10.0634,20.01274],[9.94192,20.02676],[9.73634,20.00807],[9.47469,20.0361],[9.30182,20.09684],[9.23641,20.19963],[9.11493,20.28841],[9.03083,20.34447],[8.97476,20.2557],[8.90935,20.18562],[8.79254,20.18562],[8.61967,20.21832],[8.52623,20.15758],[8.52623,20.0875],[8.44213,20.05946],[8.40475,20.01274],[8.3113,19.92864],[8.1104,19.85389],[7.87678,19.87257],[7.52636,19.84454],[7.36751,19.84454],[7.30209,19.90528],[7.28808,20.0034],[7.24603,20.10619],[7.2507,20.21832],[7.10119,20.24168],[7.02643,20.31644],[6.84421,20.42857],[6.81151,20.71825],[6.68536,20.75563],[6.53117,20.82104],[6.42838,20.90982],[6.40035,21.00326],[6.40035,21.15745],[6.43773,21.21351],[6.48912,21.31163],[6.49847,21.40975],[6.45642,21.51721],[6.33961,21.59664],[6.26953,21.70877],[6.08263,21.88632],[6.07329,22.19469],[6.03591,22.32084],[6.0546,22.49838],[6.04993,22.64322],[6.04993,22.72732],[6.08263,22.79741],[6.0546,22.83011],[5.97985,22.80675],[5.81632,22.80208],[5.72287,22.79274],[5.61541,22.72265],[5.56401,22.63388],[5.44721,22.6479],[5.36311,22.53109],[5.36311,22.45633],[5.26032,22.39559],[5.13417,22.33953],[5.04539,22.39092],[4.97998,22.43297],[5.00334,22.52174],[5.06408,22.68995],[5.10146,22.81142],[5.17622,22.9002],[5.22761,22.9843],[5.11081,23.01233],[5.02203,23.09643],[4.93793,23.14783],[4.91457,23.22258],[4.86785,23.3207],[4.96129,23.36742],[4.96129,23.44685],[4.92859,23.50292],[4.96597,23.6244],[4.96129,23.69915],[4.88186,23.76924],[4.88186,23.85801],[4.91924,23.90473],[4.93326,24.07293],[4.98933,24.14302],[5.07343,24.22245],[5.11081,24.33925],[5.11548,24.47008],[5.17154,24.57754],[5.14351,24.7691],[5.1622,24.87189],[5.31638,25.01673],[5.33975,25.1569],[5.44721,25.27371],[5.44721,25.36248],[5.45655,25.46527],[5.50327,25.62412],[5.54533,25.67552],[5.56401,25.84372],[5.67148,25.89512],[5.69017,25.95118],[5.82566,26.07733],[5.93312,26.14275],[6.0546,26.14275],[6.16206,26.14742],[6.22747,26.09135],[6.42371,26.10537],[6.58257,25.9138],[6.74142,25.90913],[6.8629,25.82503],[7.06381,25.81569],[7.18529,25.75028],[7.28341,25.78298],[7.34882,25.83905],[7.37685,25.99323],[7.30209,26.05864],[7.19463,26.08201],[7.15725,26.20816],[7.21332,26.29226],[7.33013,26.34365],[7.42357,26.34832],[7.43759,26.52587],[7.41423,26.66137],[7.2507,26.75948],[7.1152,26.85293],[7.0825,26.93236],[7.13389,26.98375],[7.1666,27.04916],[7.32078,27.06785],[7.44226,27.00711],[7.61981,26.96039],[7.80203,26.97441],[7.87678,26.9931],[7.8394,27.11925],[7.75063,27.29212],[7.52636,27.3622],[7.43292,27.43229],[7.30209,27.48368],[7.19463,27.46967],[7.11053,27.51639],[7.14324,27.61451],[7.18062,27.69393],[7.20398,27.74066],[7.35816,27.77804],[7.48431,27.75],[7.61981,27.8014],[7.68989,27.8855],[7.70391,27.99763],[7.69456,28.06772],[7.82072,28.14247],[7.87979,28.11318],[7.92818,28.25461],[7.91416,28.39477],[7.84408,28.46953],[7.87211,28.58634],[7.78801,28.67978],[7.8067,28.7779],[7.68055,28.89003],[7.7226,29.0302],[7.79735,29.13299],[7.83006,29.24512],[7.90949,29.34324],[7.8394,29.47874],[7.74596,29.60956],[7.6385,29.69366],[7.54038,29.74506],[7.48898,29.83383],[7.29742,29.88522],[7.03578,29.91793],[6.94233,29.95064],[6.83954,29.95998],[6.76946,30.04875],[6.81618,30.0908],[6.82085,30.15154],[6.92364,30.29638],[6.97971,30.36179],[7.18996,30.34311],[7.32546,30.38983],[7.46562,30.37114],[7.56841,30.52065],[7.65251,30.60475],[7.67588,30.71689],[7.7553,30.70754],[7.83006,30.62811],[7.87678,30.45057],[7.9749,30.35245],[8.15245,30.21695],[8.30663,30.11884],[8.3627,30.13285],[8.35802,30.03941],[8.43745,29.92727],[8.46549,29.8385],[8.49352,29.71702],[8.68041,29.57686],[8.7832,29.49275],[8.93738,29.48341],[9.06821,29.39931],[9.15231,29.2825],[9.1196,29.1984],[9.03083,29.09094],[9.02616,28.9975],[9.16165,28.96946],[9.32518,28.96012],[9.45601,28.94143],[9.50273,28.85733],[9.74569,28.87602],[9.8111,28.99282],[9.80175,29.07225],[9.77372,29.15635],[9.93258,29.25447],[10.04938,29.30119],[10.16619,29.32455],[10.20357,29.38062],[10.41382,29.40398],[10.56333,29.49743],[10.54931,29.63759],[10.66612,29.74038],[10.57268,29.88055],[10.53062,29.99736],[10.51661,30.09548],[10.43251,30.19359],[10.46521,30.2263],[10.45587,30.29638],[10.41382,30.40852],[10.45587,30.49729],[10.43251,30.60475],[10.44652,30.75426],[10.47923,30.83836],[10.48857,30.93181],[10.54931,30.94115],[10.59604,30.87107],[10.568,30.82435],[10.57268,30.74959],[10.63341,30.70754],[10.59136,30.64213],[10.58202,30.57205],[10.62407,30.52532],[10.6521,30.45057],[10.64743,30.34778],[10.68014,30.28704],[10.72219,30.2263],[10.68948,30.15622],[10.76424,30.12818],[10.84834,30.10949],[10.92309,30.12818],[10.96047,30.08613],[10.97916,30.0067],[11.01654,29.94129],[11.11933,29.85719],[11.14736,29.85719],[11.1754,29.7217],[11.23614,29.72637],[11.29688,29.83383],[11.36696,29.85719],[11.43704,29.89924],[11.50713,30.01605],[11.5959,30.04408],[11.62861,30.0067],[11.70803,29.90859],[11.81082,29.81981],[11.87156,29.77776],[11.94165,29.79178],[11.99771,29.82448],[12.04911,29.86654],[12.05378,29.91793],[12.16124,30.03474],[12.25936,30.0908],[12.31543,30.11884],[12.42756,30.04408],[12.49297,29.96465],[12.55371,29.96932],[12.61445,30.01138],[12.6565,30.02539],[12.70323,30.16089],[12.73126,30.24966],[12.80601,30.23097],[12.86675,30.23564],[12.91815,30.18425],[12.97422,30.18892],[12.97422,30.33843],[13.02561,30.41319],[13.10504,30.49262],[13.22185,30.57205],[13.31062,30.72623],[13.37603,30.815],[13.40406,30.89443],[13.36669,30.99722],[13.31529,31.12337],[13.25455,31.18878],[13.18914,31.27756],[13.18914,31.33362],[13.32931,31.43174],[13.36669,31.52986],[13.40406,31.61396],[13.49284,31.67003],[13.5489,31.7074],[13.56292,31.79618],[13.62833,31.8429],[13.633,31.927],[13.57694,31.9784],[13.59095,32.08586],[13.58628,32.17463],[13.52554,32.25873],[13.45546,32.34283],[13.34332,32.43628],[13.25922,32.48767],[13.16578,32.51103],[13.11906,32.54374],[13.11906,32.6512],[13.18447,32.7026],[13.30595,32.71194],[13.42743,32.7353],[13.49284,32.83342],[13.49284,32.9035],[13.58628,32.96424],[13.74047,32.95023],[13.83858,32.97359],[14.01613,33.09039],[14.15163,33.17449],[14.23573,33.30065],[14.26376,33.43614],[14.35253,33.45016],[14.53008,33.4268],[14.5768,33.41745],[14.75435,33.43614],[14.82443,33.4268],[14.85714,33.52024],[14.8291,33.63238],[14.82443,33.74918],[14.8291,33.82394],[14.92255,33.87066],[14.98796,33.98279],[15.03935,34.0669],[15.12813,34.14165],[15.19354,34.21174],[15.17952,34.2678],[15.10009,34.27247],[14.97861,34.22108],[14.7964,34.20239],[14.66557,34.1837],[14.54409,34.23977],[14.36655,34.24444],[14.11892,34.36592],[14.06752,34.41264],[13.88998,34.42666],[13.79186,34.4033],[13.64235,34.33789],[13.54423,34.33321],[13.41808,34.30518],[13.33398,34.30518],[13.26857,34.37526],[13.2639,34.436],[13.27324,34.52478],[13.11438,34.71167],[13.01627,34.78175],[12.93217,34.8752],[12.7406,34.93594],[12.60511,34.98266],[12.65183,35.05274],[12.73126,35.08078],[12.89479,35.08078],[12.95553,35.14151],[12.95085,35.33775],[13.03028,35.32841],[13.10504,35.32373],[13.23586,35.3798],[13.34332,35.44988],[13.41341,35.51062],[13.51153,35.54333],[13.60497,35.52464],[13.6844,35.47792],[13.77784,35.42185],[13.91801,35.42652],[13.97408,35.44521],[13.98342,35.57603],[13.93203,35.65546],[13.82457,35.67415],[13.69374,35.7162],[13.58161,35.80965],[13.49751,35.90777],[13.38537,35.95449],[13.2966,35.94514],[13.24053,35.90777],[13.15176,35.9358],[13.11438,35.98719],[13.02561,36.01055],[12.84807,36.00588],[12.792,35.97318],[12.6565,36.02457],[12.5724,36.01523],[12.54437,35.97318],[12.50232,35.97318],[12.40887,36.01523],[12.31076,35.99187],[12.16592,35.9685],[12.10518,35.85637],[12.10985,35.72087],[12.16124,35.61341],[12.11452,35.57603],[11.93697,35.58071],[11.83886,35.51062],[11.72672,35.49193],[11.66131,35.44054],[11.71271,35.37046],[11.69869,35.31439],[11.57254,35.26299],[11.57721,35.18824],[11.60057,35.15086],[11.55385,35.08545],[11.47442,34.9593],[11.4604,34.82847],[11.43237,34.75839],[11.30622,34.76306],[10.94646,34.50142],[10.85768,34.42199],[10.79227,34.31453],[10.72219,34.22108],[10.65678,34.10427],[10.59136,34.10895],[10.42784,34.16969],[10.31103,34.16501],[10.20824,34.02485],[10.15217,33.87066],[10.05873,33.78189],[9.98864,33.74918],[9.87651,33.71648],[9.81577,33.77722],[9.77372,33.83795],[9.66158,33.73049],[9.54478,33.80058],[9.42797,33.95943],[9.26444,34.12296],[9.10091,34.12763],[8.99812,34.14165],[9.00747,34.28182],[8.97944,34.37994],[8.84394,34.48273],[8.66172,34.58552],[8.54959,34.69298],[8.47016,34.67896],[8.21786,34.83782],[8.18515,34.98266],[8.12441,35.15086],[8.07302,35.22562],[7.97023,35.11815],[7.83006,35.05741],[7.69924,35.1275],[7.63382,35.23029],[7.56374,35.25365],[7.53103,35.57136],[7.48431,35.67882],[7.39554,35.75358],[7.1152,35.87039],[6.90962,35.88908],[6.68068,35.83768],[6.52183,35.76293],[6.35363,35.78161],[6.34428,35.79563],[6.28821,35.74424],[6.1901,35.7676],[6.09198,35.84235],[6.06395,35.90777],[6.00321,36.08998],[6.0219,36.29089],[5.97517,36.37966],[5.86771,36.49647],[5.78361,36.54786],[5.63877,36.55254],[5.48459,36.49647],[5.36778,36.45909],[5.31171,36.49647],[5.25097,36.58524],[5.28835,36.72541],[5.26499,36.86558],[5.28835,36.93566],[5.43786,37.06649],[5.46122,37.17862],[5.48926,37.28141],[5.42852,37.36084],[5.42385,37.50568],[5.36311,37.65052],[5.40983,37.75331],[5.47991,37.81872],[5.60606,37.8888],[5.71353,37.91684],[5.84902,37.98225],[5.89107,38.11774],[5.99853,38.23455],[5.9705,38.31398],[5.90976,38.49152],[5.82566,38.65973],[5.83968,38.75784],[5.73222,38.89801],[5.54065,39.1363],[5.54065,39.27179],[5.61074,39.41663],[5.62943,39.53344],[5.58738,39.63156],[5.57803,39.76705],[5.50795,39.83246],[5.42385,39.83246],[5.29302,39.90722],[5.11548,39.93525],[4.90523,40.10813],[4.7744,40.24829],[4.55948,40.47723],[4.32119,40.62207],[4.08291,40.69216],[3.97545,40.74355],[3.48019,41.07996],[3.26526,41.40701],[3.05034,41.6453],[2.9055,41.97236],[2.75599,42.22466],[2.62049,42.32745],[2.37286,42.38352],[2.214,42.36015],[2.04113,42.29941],[1.83555,42.45827],[1.38234,42.72459],[1.13939,42.93017],[0.9011,43.14042],[0.94315,49.07886],[18.37535,49.10222],[18.37067,48.90132],[18.34264,48.81254],[18.27723,48.71443],[18.2819,48.32196],[18.23051,48.22851],[18.1651,48.06965],[18.06698,47.98088],[18.0296,47.87342],[18.02026,47.7426],[18.03427,47.56972],[18.12304,47.44357],[18.09501,47.27537],[17.95017,46.95766],[17.87074,46.81749],[17.8614,46.64929],[17.86607,46.44371],[17.94083,46.32223],[17.91279,46.24747],[17.83336,46.12132],[17.68852,46.0232],[17.64647,45.84566],[17.55303,45.64475],[17.5577,45.57],[17.62779,45.41581],[17.63246,45.13548],[17.37081,44.72432],[17.24466,44.21037],[17.23064,43.85528],[17.1699,43.71044],[17.1699,43.61699],[17.06244,43.4815],[16.93629,43.3974],[16.7494,43.36469],[16.7167,43.29928],[16.67464,43.07501],[16.57186,43.03296],[16.44103,42.93017],[16.31955,42.86943],[16.15602,42.82271],[16.13734,42.71525],[16.18406,42.59844],[16.17471,42.44425],[16.13734,42.3695],[16.13266,42.20597],[16.06258,42.00506],[15.97381,41.84153],[15.86167,41.678],[15.84298,41.54251],[15.82429,41.43037],[15.67478,41.29021],[15.64675,41.18742],[15.69347,41.07061],[15.74487,40.97249],[15.8056,40.68281],[15.83364,40.59404],[15.81495,40.48658],[15.79159,40.37912],[15.84766,40.26698],[15.91774,40.18755],[15.92708,40.04739],[15.95512,39.92124],[16.09528,39.79976],[16.21209,39.73902],[16.27283,39.73902],[16.35226,39.62221],[16.45505,39.49139],[16.40672,39.47535]]]}},{"type":"Feature","properties":{"name":"Essos"},"geometry":{"type":"Polygon","coordinates":[[[66.37511,-11.04801],[66.53436,-10.94185],[66.60911,-10.78299],[66.66518,-10.6802],[66.63715,-10.52134],[66.69322,-10.44659],[66.82404,-10.32511],[66.88945,-10.22232],[66.92683,-10.05412],[66.96421,-9.97002],[66.97355,-9.9046],[67.18847,-9.75509],[67.27258,-9.69903],[67.24454,-9.55886],[66.92683,-9.5682],[66.6278,-9.61492],[66.41288,-9.54017],[66.0391,-9.55886],[65.82418,-9.63361],[65.62794,-9.78313],[65.32892,-9.8205],[65.20744,-9.8205],[65.00186,-9.93264],[64.82431,-9.94198],[64.68414,-10.00739],[64.52062,-10.04477],[64.36176,-10.11018],[64.21925,-10.24334],[63.91789,-10.27371],[63.75436,-10.36716],[63.63756,-10.41855],[63.3619,-10.58675],[63.25443,-10.58675],[63.13763,-10.70823],[63.03016,-10.86709],[62.9227,-10.86709],[62.77786,-10.88578],[62.70778,-10.94185],[62.60499,-11.00726],[62.46015,-10.98857],[62.39474,-10.8998],[62.34802,-10.73627],[62.37138,-10.50265],[62.39941,-10.36716],[62.31998,-10.22232],[62.23121,-10.26437],[62.08637,-10.33912],[61.97423,-10.44191],[61.7266,-10.54003],[61.57242,-10.61946],[61.4743,-10.7643],[61.3902,-10.89045],[61.17528,-11.01193],[61.0538,-11.14275],[60.74543,-11.43711],[60.75477,-11.65437],[60.50247,-11.81089],[60.18476,-12.00712],[60.08664,-12.18934],[59.86705,-12.37156],[59.72434,-12.51219],[59.58671,-12.57714],[59.53064,-12.72665],[59.41851,-12.85981],[59.26199,-12.99297],[59.15686,-13.10977],[59.12182,-13.26863],[59.07276,-13.43683],[58.95128,-13.51159],[58.83214,-13.52093],[58.77374,-13.43216],[58.713,-13.30834],[58.77374,-13.20322],[58.83915,-13.10977],[58.84616,-12.92756],[58.76439,-12.8528],[58.6616,-12.78272],[58.59619,-12.71263],[58.55881,-12.5491],[58.39996,-12.43697],[58.29717,-12.42762],[58.11028,-12.47435],[57.98413,-12.53976],[57.80191,-12.59816],[57.59633,-12.6332],[57.39075,-12.67993],[57.28796,-12.77337],[57.23189,-12.85747],[57.26226,-13.03268],[57.20386,-13.13781],[57.11976,-13.20322],[57.02631,-13.3247],[56.97025,-13.43683],[56.99963,-13.49401],[56.99828,-13.65409],[56.89549,-13.70782],[56.88728,-13.78498],[56.89783,-13.89004],[56.7927,-14.00918],[56.78102,-14.15636],[56.87603,-14.25127],[56.89082,-14.3269],[56.8768,-14.39932],[56.83709,-14.49977],[56.83709,-14.61891],[56.91418,-14.76375],[56.85811,-14.97401],[56.81606,-15.19827],[56.83709,-15.35713],[56.93988,-15.48562],[57.11041,-15.65148],[57.2646,-15.69353],[57.41411,-15.5814],[57.53092,-15.51599],[57.65556,-15.50053],[57.77855,-15.42721],[57.83929,-15.45992],[57.99347,-15.52533],[58.08224,-15.58607],[58.18503,-15.70755],[58.28315,-15.76362],[58.37192,-15.79632],[58.50742,-15.79632],[58.68964,-15.81501],[58.75038,-15.85239],[58.8298,-15.91313],[58.92325,-16.0019],[59.00268,-16.19814],[59.04006,-16.28691],[59.01669,-16.33363],[58.97464,-16.39904],[59.04006,-16.43642],[59.03538,-16.55556],[59.02604,-16.67938],[59.01202,-16.79852],[58.93259,-16.9457],[58.85784,-17.00177],[58.71767,-17.02513],[58.59386,-17.12091],[58.44668,-17.05783],[58.42332,-16.99242],[58.39528,-16.87094],[58.29717,-16.76815],[58.25044,-16.66069],[58.11729,-16.60229],[57.97945,-16.50183],[57.87433,-16.44109],[57.79023,-16.45978],[57.67809,-16.45745],[57.58231,-16.39437],[57.47018,-16.44577],[57.41878,-16.55323],[57.46083,-16.65135],[57.46083,-16.76348],[57.5169,-16.81955],[57.58698,-16.88029],[57.6851,-16.93168],[57.72715,-17.08119],[57.77855,-17.17931],[57.91404,-17.30546],[57.99814,-17.43629],[58.1056,-17.5858],[58.24577,-17.69793],[58.36725,-17.77736],[58.4607,-17.90818],[58.45836,-18.1745],[58.36258,-18.26795],[58.38127,-18.45484],[58.39996,-18.62304],[58.31586,-18.80058],[58.25512,-18.95944],[58.29249,-19.20707],[58.25979,-19.32855],[58.26446,-19.47806],[58.25979,-19.66962],[58.19905,-19.7841],[58.06589,-19.81213],[57.85496,-19.82116],[57.80892,-19.85184],[57.64539,-19.83082],[57.50756,-19.73971],[57.48419,-19.60655],[57.43981,-19.47105],[57.38841,-19.31453],[57.3814,-19.21174],[57.4655,-19.10195],[57.53793,-18.96879],[57.59633,-18.87067],[57.57297,-18.77722],[57.49354,-18.67911],[57.37206,-18.63238],[57.21087,-18.69546],[57.10107,-18.80759],[56.99828,-18.94075],[56.97258,-19.04354],[56.86746,-19.10428],[56.80204,-19.19773],[56.57544,-19.26781],[56.40957,-19.18371],[56.40724,-19.05756],[56.36519,-18.88936],[56.26941,-18.72116],[56.11188,-18.71486],[55.93067,-18.73284],[55.89095,-18.62304],[55.89095,-18.55296],[55.82087,-18.46885],[55.71341,-18.44549],[55.57791,-18.5109],[55.47045,-18.60902],[55.3443,-18.68378],[55.22749,-18.63238],[55.08733,-18.54828],[55.0406,-18.48287],[54.91445,-18.43148],[54.76494,-18.42213],[54.61076,-18.46418],[54.4519,-18.53894],[54.33509,-18.55996],[54.14587,-18.47119],[54.01811,-18.37625],[53.88188,-18.33336],[53.66229,-18.18852],[53.44736,-18.08106],[53.23711,-17.98528],[53.1203,-17.85679],[53.02219,-17.73064],[52.91473,-17.62785],[52.93341,-17.55309],[52.87267,-17.49002],[52.92641,-17.38022],[52.9194,-17.2237],[52.79792,-17.05783],[52.69513,-16.99943],[52.56197,-16.98308],[52.47553,-17.09988],[52.38442,-17.29612],[52.23725,-17.29145],[52.12511,-17.35218],[51.98495,-17.4176],[51.86347,-17.53674],[51.81674,-17.7026],[51.77236,-17.84044],[51.70928,-18.02966],[51.63453,-18.16049],[51.56678,-18.21655],[51.46165,-18.15114],[51.36354,-18.04835],[51.3612,-17.91519],[51.44063,-17.55543],[51.52706,-17.36153],[51.58313,-17.19333],[51.66957,-16.96906],[51.80273,-16.69573],[51.95691,-16.45277],[52.12979,-16.24953],[52.23725,-16.16076],[52.41479,-16.0533],[52.54562,-15.92247],[52.56898,-15.82903],[52.58299,-15.68419],[52.62972,-15.54869],[52.71382,-15.44123],[52.9194,-15.17491],[52.94743,-14.88056],[52.9521,-14.71703],[52.91005,-14.59555],[52.80259,-14.45071],[52.67177,-14.37128],[52.58299,-14.31989],[52.49422,-14.15636],[52.39143,-13.78024],[52.2279,-13.64241],[52.16249,-13.54897],[52.11577,-13.48355],[52.027,-13.3574],[51.99663,-13.16818],[52.04335,-13.01399],[52.12511,-12.91821],[52.16483,-12.80841],[52.14847,-12.66591],[52.06437,-12.57246],[51.91486,-12.54209],[51.72797,-12.47902],[51.60649,-12.46967],[51.54108,-12.53041],[51.4453,-12.59349],[51.41657,-12.6832],[51.35419,-12.70329],[51.34485,-12.88083],[51.2514,-13.00231],[51.09254,-13.00231],[50.9477,-12.93223],[50.83791,-12.88784],[50.66737,-12.89485],[50.5786,-13.00231],[50.4431,-13.04436],[50.25154,-13.08641],[50.11604,-13.17051],[49.9712,-13.25461],[49.86841,-13.21957],[49.82403,-13.12846],[49.83103,-12.91354],[49.95251,-12.8528],[49.96186,-12.72665],[50.16277,-12.75468],[50.17678,-12.69862],[50.28424,-12.68927],[50.37535,-12.63087],[50.42908,-12.50705],[50.41974,-12.32483],[50.37302,-12.15196],[50.29359,-11.98843],[50.20482,-11.88097],[50.19547,-11.7151],[50.21416,-11.53522],[50.22584,-11.43243],[50.12772,-11.31563],[50.00858,-11.11005],[49.87309,-11.068],[49.68152,-11.06332],[49.55304,-11.1264],[49.38951,-11.04931],[49.25635,-10.89045],[49.25635,-10.82971],[49.22364,-10.68954],[49.06011,-10.66618],[49.01806,-10.56807],[49.02273,-10.48864],[49.08815,-10.4606],[49.1629,-10.41855],[49.18159,-10.37183],[49.1302,-10.24101],[49.01339,-10.18027],[48.83117,-10.16625],[48.69568,-10.10084],[48.55084,-10.0401],[48.54149,-9.956],[48.61391,-9.89292],[48.62559,-9.84153],[48.49944,-9.71771],[48.3546,-9.66165],[48.20042,-9.59624],[48.12099,-9.4841],[48.07427,-9.22713],[47.97615,-9.122],[47.80795,-9.05425],[47.572,-9.06593],[47.44117,-9.02622],[47.33838,-8.95146],[47.35007,-8.85335],[47.41314,-8.79728],[47.57901,-8.80662],[47.73319,-8.82765],[47.75655,-8.77859],[47.73786,-8.71785],[47.61171,-8.60805],[47.49724,-8.54264],[47.3267,-8.45387],[47.23431,-8.41955],[47.03936,-8.43284],[46.89919,-8.5076],[46.72165,-8.68515],[46.68193,-8.8954],[46.56045,-9.00286],[46.30582,-9.15938],[46.17032,-9.15938],[46.05585,-9.0379],[45.86195,-9.00753],[45.63067,-9.00286],[45.54424,-9.10098],[45.35735,-9.23881],[45.17279,-9.31123],[45.04898,-9.41402],[44.83172,-9.54718],[44.51167,-9.57287],[44.1192,-9.54951],[44.01641,-9.51213],[43.81083,-9.45607],[43.74542,-9.39066],[43.59123,-9.37664],[43.49312,-9.40935],[43.37164,-9.54951],[43.24081,-9.79247],[43.24081,-9.93264],[43.22213,-10.03076],[43.2268,-10.11018],[43.32725,-10.22232],[43.37865,-10.35781],[43.35295,-10.45126],[43.26418,-10.52835],[43.09597,-10.50733],[42.99318,-10.47929],[42.91843,-10.49798],[42.87171,-10.5447],[42.78761,-10.57741],[42.72687,-10.56339],[42.60071,-10.55872],[42.43251,-10.67553],[42.3671,-10.71758],[42.29935,-10.76196],[42.17554,-10.79701],[42.02369,-10.80168],[41.94193,-10.74094],[41.78073,-10.64282],[41.61487,-10.49798],[41.50273,-10.47929],[41.30183,-10.47929],[41.20371,-10.40454],[41.11494,-10.33912],[40.99112,-10.34613],[40.91403,-10.25736],[40.82058,-10.07281],[40.75984,-10.01207],[40.65706,-9.98871],[40.60099,-9.94666],[40.56361,-9.81583],[40.46549,-9.74341],[40.27159,-9.72472],[40.2459,-9.54484],[40.13843,-9.45607],[39.98425,-9.37664],[39.75765,-9.28553],[39.61981,-9.24582],[39.52717,-9.24271],[39.44227,-9.20844],[39.3862,-9.12434],[39.23669,-9.03556],[39.10119,-8.97483],[38.97037,-8.98884],[38.85824,-9.01921],[38.69704,-9.0379],[38.75077,-8.93978],[38.85356,-8.86269],[38.94469,-8.80592],[38.99607,-8.70851],[38.94,-8.64309],[38.9143,-8.55432],[38.76946,-8.50293],[38.57323,-8.52395],[38.42739,-8.50331],[38.2999,-8.54031],[38.11067,-8.54031],[37.89341,-8.53563],[37.70419,-8.59637],[37.57336,-8.71318],[37.45189,-8.70851],[37.2687,-8.69851],[37.21827,-8.72019],[37.06175,-8.71551],[36.92392,-8.67113],[36.78375,-8.69916],[36.61088,-8.83933],[36.40063,-8.90708],[36.21374,-8.93745],[35.97261,-8.9288],[35.8493,-8.88138],[35.65307,-8.90474],[35.5129,-9.03089],[35.43581,-9.03323],[35.36806,-8.97015],[35.24658,-8.91409],[35.16195,-8.89345],[35.11342,-8.79261],[35.11809,-8.61506],[35.04567,-8.3721],[34.92419,-8.24128],[34.68825,-8.11513],[34.49201,-8.03804],[34.33082,-8.02168],[34.17906,-8.04419],[34.04114,-8.1198],[33.82621,-8.23194],[33.7351,-8.19222],[33.66035,-8.10579],[33.644,-7.98898],[33.47346,-7.94226],[33.37067,-7.83713],[33.2562,-7.75537],[33.11136,-7.75537],[32.97586,-7.79041],[32.86606,-7.76237],[32.69553,-7.64323],[32.57872,-7.55913],[32.50396,-7.5638],[32.45724,-7.54511],[32.3638,-7.38626],[32.23998,-7.26478],[32.23765,-7.1433],[32.17457,-7.0849],[32.03674,-7.01949],[31.94329,-6.90034],[31.88022,-6.891],[31.68398,-6.90969],[31.57175,-6.84934],[31.49943,-6.73448],[31.3943,-6.69944],[31.24479,-6.53357],[31.08916,-6.52128],[30.98352,-6.48292],[30.73551,-6.47049],[30.62572,-6.52656],[30.51031,-6.5305],[30.37809,-6.50787],[30.34071,-6.42377],[30.33604,-6.22754],[30.25194,-6.17381],[30.2239,-6.09204],[30.22857,-5.9472],[30.15849,-5.84908],[30.05214,-5.71903],[29.86414,-5.68088],[29.73332,-5.63416],[29.49503,-5.68322],[29.30459,-5.70964],[29.24974,-5.75564],[29.21703,-5.85843],[29.12359,-5.94253],[28.93903,-5.9986],[28.84955,-6.0798],[28.77317,-6.10606],[28.70075,-6.05934],[28.70075,-5.98925],[28.7498,-5.95655],[28.82469,-5.88516],[28.83624,-5.80703],[28.85026,-5.71359],[28.96239,-5.70191],[29.00444,-5.62482],[29.18432,-5.46362],[29.30814,-5.31645],[29.40158,-5.15292],[29.34552,-5.02209],[29.32683,-4.83988],[29.28945,-4.68102],[29.14461,-4.62495],[29.08154,-4.53852],[29.0792,-4.3306],[29.04182,-4.22781],[28.93436,-4.12969],[28.92735,-4.0269],[29.02313,-3.93813],[29.20535,-3.77927],[29.20227,-3.56729],[29.2217,-3.51529],[29.3058,-3.46857],[29.34613,-3.35718],[29.42495,-3.28635],[29.51606,-3.25131],[29.59782,-3.14385],[29.68192,-3.12983],[29.81742,-3.1859],[29.94357,-3.26065],[30.07906,-3.31205],[30.1398,-3.44754],[30.29165,-3.51062],[30.41603,-3.53967],[30.53227,-3.44754],[30.69113,-3.36344],[30.84064,-3.34008],[30.89204,-3.3027],[30.95277,-3.1859],[31.1163,-3.15786],[31.24245,-3.08311],[31.35459,-3.09245],[31.51812,-3.05507],[31.66296,-3.00835],[31.73771,-2.91958],[31.79378,-2.89154],[31.9176,-2.91257],[32.03236,-2.94265],[32.25663,-3.08282],[32.25663,-3.237],[32.294,-3.41455],[32.35007,-3.49865],[32.41548,-3.55471],[32.55565,-3.5734],[32.77525,-3.46127],[32.85935,-3.47061],[32.96681,-3.43323],[33.00886,-3.37717],[33.00886,-3.3211],[33.03689,-3.26503],[33.10231,-3.22766],[33.19575,-3.19028],[33.23546,-3.11085],[33.30321,-3.04077],[33.39899,-2.92162],[33.48777,-2.84219],[33.55318,-2.73006],[33.57187,-2.58288],[33.68167,-2.46608],[33.75175,-2.3446],[33.80314,-2.28853],[33.87089,-2.18107],[33.88257,-2.08762],[33.80782,-2.0082],[33.76109,-1.93811],[33.69568,-1.88204],[33.68634,-1.83999],[33.72839,-1.80262],[33.7097,-1.74188],[33.63494,-1.68114],[33.63027,-1.59704],[33.52281,-1.56667],[33.46441,-1.52228],[33.36862,-1.50359],[33.27051,-1.4522],[33.27985,-1.34941],[33.35928,-1.26998],[33.41535,-1.20223],[33.36862,-1.10178],[33.48076,-0.99198],[33.61158,-0.91022],[33.7097,-0.75603],[33.78679,-0.67894],[33.84052,-0.58783],[33.78446,-0.52709],[33.70035,-0.44766],[33.70503,-0.39159],[33.72839,-0.27712],[33.73773,-0.13462],[33.62093,-0.12528],[33.52748,-0.172],[33.31256,-0.32385],[33.25182,-0.44766],[33.25182,-0.54578],[33.19575,-0.63922],[33.22145,-0.7607],[33.15136,-0.80743],[33.11399,-0.89853],[33.10063,-1.03384],[33.05792,-1.06674],[32.9271,-1.16719],[32.69582,-1.28867],[32.54631,-1.41482],[32.46688,-1.42416],[32.32204,-1.45687],[32.18187,-1.46154],[32.08843,-1.43818],[31.97629,-1.32605],[31.8735,-1.26998],[31.7053,-1.26063],[31.60251,-1.11579],[31.51374,-0.94759],[31.34554,-0.83079],[31.28947,-0.80743],[31.08623,-0.87985],[30.96942,-0.77939],[30.74749,-0.7607],[30.47182,-0.68595],[30.4251,-0.72099],[30.35735,-0.72099],[30.21018,-0.65324],[30.07468,-0.66025],[30.02405,-0.62782],[30.02767,-0.56342],[29.97189,-0.53643],[29.90648,-0.39627],[29.96722,-0.36356],[29.99525,-0.41028],[30.06534,-0.44766],[30.26157,-0.46168],[30.31297,-0.38225],[30.30362,-0.2888],[30.1471,-0.19069],[30.05132,-0.0365],[29.87377,0.15506],[29.79902,0.30457],[29.76631,0.37933],[29.81771,0.38867],[29.85041,0.31392],[29.94386,0.15506],[30.01394,0.07563],[30.14009,0.00555],[30.23821,-0.0038],[30.32514,0.03111],[30.38772,0.11301],[30.38305,0.2158],[30.44846,0.29056],[30.43912,0.39802],[30.38305,0.45876],[30.42043,0.53351],[30.50453,0.58958],[30.58863,0.54286],[30.70076,0.54286],[30.81056,0.67835],[30.95307,0.8559],[31.02315,0.90729],[31.14463,1.03812],[31.27312,1.12923],[31.45767,1.21099],[31.59317,1.32546],[31.68194,1.44928],[31.71932,1.59412],[31.80809,1.69223],[31.84547,1.78568],[31.82211,1.8838],[31.8151,1.98425],[31.82911,2.08237],[31.85963,2.18683],[31.82444,2.30196],[31.77071,2.41176],[31.73801,2.56127],[31.71464,2.65472],[31.63522,2.67808],[31.43898,2.77152],[31.35021,2.77152],[31.17266,2.8089],[31.03249,2.87431],[30.97176,2.85095],[30.81757,2.85095],[30.64937,2.90235],[30.54191,2.9771],[30.46248,3.04719],[30.36436,3.05653],[30.26157,3.09858],[30.17747,3.21072],[30.10272,3.38826],[29.95788,3.51441],[29.90079,3.58435],[29.88312,3.68028],[29.94853,3.80877],[29.94386,3.97697],[29.98124,4.08443],[30.01861,4.14984],[30.07468,4.19656],[30.07468,4.14984],[30.04665,4.07976],[30.05132,3.99098],[30.09337,3.93959],[30.10739,3.86951],[30.06067,3.78073],[30.06534,3.6686],[30.14477,3.5845],[30.28961,3.49572],[30.40174,3.49572],[30.61199,3.48171],[30.74281,3.42564],[30.89233,3.37425],[30.96942,3.47937],[31.11192,3.60319],[31.18201,3.73868],[31.20303,3.84147],[31.17967,3.97463],[31.20537,4.19189],[31.18201,4.36944],[31.18201,4.49559],[31.13996,4.62641],[31.02782,4.67781],[30.78487,4.66846],[30.64003,4.71986],[30.53724,4.69182],[30.37371,4.70117],[30.22419,4.69649],[30.04665,4.63576],[29.9532,4.6451],[29.82705,4.69182],[29.71025,4.67313],[29.58877,4.63108],[29.56541,4.68715],[29.49999,4.73855],[29.54204,4.78994],[29.5327,4.87404],[29.50233,5.01654],[29.50467,5.1497],[29.47897,5.27819],[29.40655,5.43004],[29.31778,5.50947],[29.28974,5.64496],[29.25937,5.75943],[29.26638,5.84587],[29.26638,5.92063],[29.15425,5.98604],[29.0608,6.10284],[28.951,6.28039],[28.86924,6.41121],[28.74542,6.48363],[28.61694,6.57007],[28.56554,6.65884],[28.5562,6.80836],[28.59591,6.90881],[28.64497,7.02795],[28.70571,7.1798],[28.69403,7.31763],[28.66833,7.43911],[28.72907,7.57461],[28.81784,7.68674],[28.92531,7.73814],[28.97203,7.83625],[28.93932,7.9297],[28.96035,8.06052],[29.0281,8.15864],[29.10285,8.2661],[29.09117,8.34086],[29.10986,8.45065],[29.21031,8.55578],[29.30142,8.72632],[29.40655,8.86882],[29.50233,8.9903],[29.60278,9.06038],[29.72893,9.13047],[29.79668,9.23326],[29.89013,9.31502],[29.99292,9.43183],[30.02796,9.55564],[30.09337,9.6304],[30.0887,9.70983],[30.0046,9.89205],[29.99292,10.03455],[30.0373,10.20509],[30.11206,10.31255],[30.29194,10.34292],[30.41576,10.50878],[30.45781,10.61625],[30.43445,10.7424],[30.4765,10.9433],[30.54191,11.05544],[30.6447,11.22831],[30.75683,11.38717],[30.80823,11.55537],[30.81757,11.6675],[30.77552,11.75628],[30.71245,11.9385],[30.66273,12.0818],[30.64703,12.14407],[30.73347,12.15342],[30.79421,12.29826],[30.84327,12.45478],[30.86897,12.6627],[30.92503,12.78417],[31.01848,12.88229],[31.00913,13.00377],[30.97876,13.13693],[30.92036,13.24206],[30.8456,13.34017],[30.83159,13.46165],[30.89934,13.53407],[30.9811,13.69994],[30.95774,13.80273],[30.87831,13.87748],[30.82692,13.88683],[30.74749,13.88916],[30.71945,13.96392],[30.71945,14.04568],[30.67273,14.06905],[30.60732,14.14614],[30.56046,14.25922],[30.55125,14.32602],[30.58396,14.38209],[30.58396,14.55963],[30.50687,14.70447],[30.51855,14.76988],[30.63535,14.76521],[30.68208,14.66943],[30.76618,14.57832],[30.87831,14.5316],[30.97643,14.57599],[30.99044,14.68578],[30.97643,14.77456],[30.92971,14.89604],[30.89233,15.04555],[30.92503,15.16235],[30.92034,15.28366],[30.88065,15.33056],[30.85495,15.39129],[30.85495,15.48941],[30.82224,15.56183],[30.76618,15.62491],[30.76618,15.77909],[30.71478,15.93328],[30.68675,16.01738],[30.71945,16.18558],[30.74749,16.30706],[30.79421,16.32575],[30.80823,16.25099],[30.79421,16.13886],[30.80355,16.04541],[30.86429,16.00336],[30.93905,15.95197],[30.99044,15.8959],[31.10258,15.90524],[31.21471,15.93328],[31.28947,15.98],[31.26611,16.11082],[31.2007,16.19025],[31.23807,16.20894],[31.32217,16.17623],[31.35021,16.21361],[31.38291,16.31173],[31.36423,16.38181],[31.3175,16.46591],[31.25175,16.465],[31.24508,16.50796],[31.33152,16.50329],[31.35488,16.57338],[31.41095,16.61075],[31.43431,16.33976],[31.43898,16.20894],[31.43898,16.13418],[31.54644,16.12951],[31.60718,16.17623],[31.71464,16.25566],[31.82678,16.30706],[31.90153,16.40985],[31.98096,16.52198],[32.01367,16.60608],[32.0931,16.59674],[32.06974,16.55936],[32.07908,16.34444],[32.13048,16.27902],[32.21925,16.24165],[32.23093,16.07344],[32.18187,15.92393],[32.1772,15.8118],[32.23794,15.7604],[32.41548,15.71835],[32.49725,15.66462],[32.55565,15.54081],[32.67479,15.53613],[32.78459,15.50343],[33.13968,15.55015],[33.2378,15.65761],[33.53215,15.69499],[33.77044,15.69966],[33.83118,15.66696],[33.95266,15.66696],[34.15824,15.69032],[34.31242,15.67163],[34.23766,15.56884],[34.22832,15.42867],[34.11151,15.37261],[34.11151,15.14366],[33.962,14.93809],[34.01807,14.84931],[34.0134,14.76521],[34.16291,14.76988],[34.34045,14.73251],[34.39185,14.57365],[34.55071,14.47553],[34.67218,14.44283],[34.7376,14.38676],[34.6862,14.26995],[34.6862,14.17651],[34.6862,14.07372],[34.68153,14.06437],[34.6535,13.96158],[34.70956,13.85412],[34.81235,13.80273],[34.84506,13.68592],[34.81235,13.57379],[34.85907,13.45698],[34.83104,13.34017],[34.8217,13.23738],[34.87309,13.17664],[34.94084,13.13459],[34.94951,13.07998],[34.92682,13.03764],[34.96186,12.95705],[34.97121,12.83557],[34.91981,12.68138],[34.9058,12.48982],[34.94318,12.32162],[34.96186,12.1908],[34.89645,12.06932],[34.8217,11.91981],[34.80301,11.82636],[34.86375,11.73759],[34.94785,11.65816],[35.08334,11.61611],[35.12072,11.53668],[35.19548,11.44791],[35.37302,11.4666],[35.44778,11.52734],[35.5459,11.57406],[35.61131,11.66283],[35.70475,11.6675],[35.70475,11.73292],[35.82156,11.85907],[35.93837,11.87308],[35.93837,11.91046],[36.03181,12.0226],[36.19067,11.97587],[36.26542,12.01325],[36.33551,12.03661],[36.48969,12.00391],[36.58314,12.1067],[36.70929,12.25621],[36.75134,12.34498],[36.84011,12.45712],[36.96626,12.54589],[37.03635,12.58327],[37.22791,12.55991],[37.40546,12.61597],[37.50825,12.61597],[37.53628,12.65802],[37.40078,12.6627],[37.2466,12.64401],[37.10176,12.62999],[36.97561,12.61597],[36.90085,12.56925],[36.77003,12.45712],[36.68126,12.42441],[36.5551,12.43375],[36.46166,12.44777],[36.44764,12.48515],[36.47568,12.5272],[36.57379,12.58327],[36.68126,12.65335],[36.73732,12.75614],[36.72798,12.86827],[36.8261,12.915],[36.95692,13.00377],[37.01766,13.14394],[37.01299,13.28411],[37.01299,13.37288],[36.93823,13.34952],[36.85413,13.51305],[36.78405,13.67658],[36.71863,13.66723],[36.67191,13.75133],[36.64388,13.85412],[36.57379,13.92421],[36.54109,14.01298],[36.87749,14.03167],[37.03635,13.99896],[37.08307,13.95691],[37.18119,13.94523],[37.26062,13.96626],[37.30734,13.87281],[37.34939,13.77937],[37.44751,13.65789],[37.5503,13.54108],[37.68112,13.46632],[37.78391,13.40558],[37.90071,13.30279],[38.12966,13.32148],[38.24646,13.39624],[38.41466,13.5037],[38.56885,13.471],[38.71369,13.57379],[38.81181,13.65789],[38.96132,13.66723],[39.04075,13.72797],[39.05943,13.79805],[39.09214,13.86347],[39.19026,13.93355],[39.30239,14.01298],[39.38649,14.07839],[39.47994,14.08306],[39.50797,14.13913],[39.66683,14.1952],[39.82101,14.22323],[39.90044,14.24192],[40.08733,14.18585],[40.17143,14.10175],[40.27422,13.99896],[40.43775,13.90552],[40.49849,13.756],[40.66669,13.54108],[40.67136,13.32148],[40.69005,13.20468],[40.82555,13.06918],[40.9517,12.85426],[41.16662,12.60663],[41.18998,12.44777],[41.27876,12.34498],[41.40491,12.23752],[41.40491,12.08334],[41.44229,11.97587],[41.52172,11.89645],[41.61049,11.78431],[41.77402,11.77497],[41.89082,11.61144],[41.97025,11.56471],[42.04034,11.56939],[42.16649,11.6348],[42.26928,11.72357],[42.4001,11.83103],[42.49354,11.99923],[42.53092,12.16276],[42.50756,12.2749],[42.39543,12.28891],[42.30198,12.31228],[42.28329,12.37769],[42.36739,12.50384],[42.49822,12.57392],[42.55428,12.71409],[42.53092,12.82622],[42.63838,12.89164],[42.54961,13.04582],[42.54961,13.16263],[42.68044,13.05517],[42.7879,12.98975],[42.90003,13.01311],[42.97946,13.12525],[43.01684,13.26074],[42.99348,13.43362],[43.01684,13.54575],[42.90938,13.67658],[42.92806,13.71863],[43.03085,13.65321],[43.17569,13.59247],[43.18037,13.5037],[43.28783,13.41026],[43.27848,13.27943],[43.2925,13.16263],[43.36726,13.11123],[43.45136,13.0318],[43.5448,12.96639],[43.64759,12.90098],[43.713,12.91033],[43.88121,12.89164],[43.90924,12.83557],[43.81579,12.74212],[43.87186,12.66737],[43.82514,12.55523],[43.82981,12.48048],[43.78776,12.27957],[43.77842,12.12539],[43.71768,12.03661],[43.68964,11.90579],[43.53546,12.04129],[43.50275,12.17678],[43.39996,12.16276],[43.31119,12.11604],[43.18504,11.88243],[43.19438,11.74226],[43.14299,11.5507],[43.18037,11.42455],[43.14766,11.23766],[43.28316,11.10683],[43.43734,10.99937],[43.55415,10.86388],[43.54013,10.61625],[43.5121,10.50411],[43.60087,10.40599],[43.91391,10.2191],[44.29704,9.99016],[44.39983,9.81262],[44.68951,9.69581],[44.92312,9.52761],[45.10534,9.53228],[45.25952,9.68647],[45.35764,9.81262],[45.35297,9.9341],[45.34362,10.13033],[45.4651,10.28452],[45.57256,10.43403],[45.8015,10.47608],[45.91364,10.57887],[46.04913,10.7751],[46.31545,10.76576],[46.43226,10.84519],[46.54907,10.96667],[46.55374,10.96667],[46.65653,11.01806],[46.76866,11.12085],[46.85743,11.14888],[46.9649,11.1629],[47.01629,11.10216],[47.08637,10.96199],[47.12843,10.80781],[47.52557,10.46673],[47.66106,10.41067],[47.91336,10.35927],[48.00681,10.2705],[48.39928,10.04156],[48.70298,10.23312],[49.002,10.16771],[49.28701,10.16304],[49.39447,10.03689],[49.29168,9.84532],[49.28701,9.74253],[49.46923,9.53228],[49.60939,9.44818],[49.9458,9.44818],[50.24949,9.50892],[50.5018,9.54163],[50.62327,9.65376],[50.74475,9.66311],[51.02509,9.42949],[51.29608,9.21457],[51.64183,9.12112],[51.88478,9.14916],[52.07167,9.20522],[52.10905,9.39211],[52.09971,9.4949],[51.96888,9.56966],[51.84741,9.67245],[51.78199,9.73786],[51.84741,9.82196],[51.99692,9.80327],[52.08102,9.67245],[52.19315,9.59769],[52.32398,9.49958],[52.52956,9.38277],[52.56693,9.13981],[52.72579,8.97161],[52.99678,8.9062],[53.21171,8.97161],[53.30339,9.06531],[53.37523,9.2099],[53.56213,9.30334],[53.84713,9.31736],[54.08542,9.20055],[54.23493,9.0417],[54.21157,8.78939],[54.09943,8.57914],[54.36108,8.22405],[54.60404,8.11192],[55.06192,7.97175],[55.34226,7.88765],[55.53849,7.90634],[55.7394,7.86896],[56.15056,7.46714],[56.42622,7.35034],[56.62245,7.1541],[56.81402,7.09336],[56.95418,6.9532],[57.1364,6.91115],[57.16444,6.94385],[56.99156,7.29894],[56.97755,7.48116],[57.07099,7.64936],[57.17845,7.7942],[57.55691,7.65403],[57.75314,7.64936],[57.89331,7.62133],[58.12692,7.48583],[58.38158,7.26513],[58.63036,7.15702],[58.87799,7.17104],[59.14898,7.17104],[59.6162,7.01218],[59.9713,6.75988],[60.24696,6.53561],[60.43852,6.47487],[60.7282,6.4702],[61.17207,6.56365],[61.17207,6.4375],[60.93378,6.29266],[60.59271,6.24593],[60.09277,5.89551],[60.06007,5.69461],[60.20491,5.39091],[60.52262,5.24607],[60.93845,5.2741],[61.13469,5.45165],[61.46642,5.48435],[61.7561,5.35353],[61.96635,5.45165],[62.19062,5.71797],[62.25136,5.98896],[62.55038,6.50291],[62.72793,6.50758],[62.91482,6.61971],[63.19515,6.66176],[63.4568,6.65709],[63.70443,6.54496],[64.05485,6.38143],[64.37724,6.40946],[64.63421,6.51225],[64.83979,6.36274],[65.1248,6.36274],[65.45653,6.34405],[65.7976,6.26462],[66.0499,6.14782],[66.1854,5.89551],[66.36295,5.72264],[66.61525,5.61518],[66.90025,5.57313],[67.15723,5.68526],[67.35346,5.87215],[67.45625,6.17585],[67.33945,6.4375],[67.18526,6.62439],[67.08247,6.858],[67.11051,7.05423],[67.04042,7.24112],[67.06378,7.56818],[67.01706,7.80179],[66.94231,8.07279],[66.72738,8.20361],[66.40032,8.33443],[66.07327,8.3905],[65.78359,8.26902],[65.55932,8.18492],[65.4098,8.01672],[65.293,7.86253],[65.04537,7.86253],[65.0734,8.08213],[65.3257,8.27837],[65.41915,8.52132],[65.57801,8.70821],[65.74621,8.61477],[66.05458,8.60542],[66.23212,8.78297],[66.49377,8.9792],[66.82083,9.08199],[67.14788,8.93248],[67.39551,8.80166],[68.25988,8.79231],[68.68039,8.3905],[68.93269,8.29705],[69.21302,8.25968],[69.37188,8.27837],[69.53074,8.39984],[69.65222,8.36247],[69.92321,8.34378],[70.04468,8.19426],[70.21289,8.0541],[70.33436,7.83917],[70.54929,7.77376],[70.80159,7.59622],[71.08193,7.40932],[71.46505,7.18506],[71.8108,7.18973],[72.01638,7.29719],[72.18925,7.29252],[72.35745,7.1617],[72.4836,6.94677],[72.68918,6.75988],[73.09567,6.76923],[73.24051,6.65242],[73.56757,6.33471],[73.74979,6.25995],[74.25439,6.302],[74.52071,6.24126],[74.85711,6.29733],[74.86178,6.33471],[74.49735,6.5543],[74.52071,6.61971],[74.65153,6.71783],[74.91785,6.64307],[75.18884,6.51225],[75.37106,6.43282],[75.8523,6.39544],[75.86165,6.33471],[75.95042,6.28798],[76.03919,6.18987],[76.31018,6.00765],[76.50175,5.8815],[76.712,5.88617],[76.89889,5.98429],[77.11848,5.97027],[77.51095,5.74133],[77.75202,5.84834],[78.0249,5.92355],[78.12769,5.87682],[78.26786,5.76469],[78.37065,5.56846],[78.37065,5.26943],[78.2772,4.99844],[78.37065,4.75548],[78.46409,4.75548],[78.51082,4.91434],[78.48278,5.18533],[78.52016,5.42829],[78.66967,5.5778],[78.83788,5.68059],[78.99673,5.68993],[79.09018,5.746],[79.28641,5.69928],[79.66019,5.78338],[79.71626,5.89551],[79.81905,6.05437],[80.00127,6.08708],[80.34701,6.07773],[80.52222,5.85113],[80.62501,5.62686],[80.99853,5.52217],[81.26979,5.53809],[81.43331,5.44464],[81.5875,5.29513],[81.8071,5.22037],[81.90054,5.20636],[81.95194,5.25308],[82.06407,5.22504],[82.29301,5.18299],[82.45187,4.88864],[82.51261,4.84659],[82.65745,4.71577],[82.97983,4.69241],[83.07795,4.61298],[83.14803,4.58027],[83.30689,4.356],[83.32558,4.19715],[83.38632,4.19715],[83.47042,4.2719],[83.5919,4.18313],[84.32077,4.26723],[84.84874,4.13641],[85.33932,4.29059],[85.44678,4.45879],[85.72245,4.47748],[85.97475,4.38871],[86.36255,4.45412],[86.5214,4.5756],[87.25495,4.58962],[87.39512,4.55224],[87.59135,4.38871],[88.12399,4.36068],[88.30153,4.39805],[88.66597,4.47748],[88.71737,4.56158],[88.86688,4.67839],[89.07713,4.68773],[89.49296,4.5756],[89.64247,4.45412],[89.88543,4.31863],[90.07232,4.25789],[90.46479,4.27658],[90.67504,4.32797],[91.0021,4.17846],[91.28244,4.19715],[91.52072,4.05698],[91.74032,3.88878],[91.89105,3.85211],[91.91883,3.87942],[91.89547,-29.00861],[91.85496,-28.89346],[91.59635,-29.01414],[91.34405,-29.18234],[91.22257,-29.12628],[91.00765,-29.19169],[90.47501,-29.33186],[90.14795,-29.47202],[89.89565,-29.55612],[89.5499,-29.69629],[89.31629,-29.93925],[89.14809,-30.31303],[89.07333,-30.83632],[88.92382,-31.18207],[88.7089,-31.53716],[88.73693,-32.02308],[88.44725,-32.6585],[88.4052,-32.99491],[88.51733,-33.27057],[88.55471,-33.49017],[88.60144,-33.71911],[88.71824,-33.88263],[88.77898,-34.06953],[88.95185,-34.29379],[89.01727,-34.3265],[89.03596,-34.45732],[88.9098,-34.57413],[88.80234,-34.53675],[88.67152,-34.40593],[88.55938,-34.3265],[88.42856,-34.29379],[88.28839,-34.35453],[88.1856,-34.4106],[88.11085,-34.58815],[87.94265,-34.62552],[87.79781,-34.61151],[87.61092,-34.43863],[87.48009,-34.31716],[87.39599,-34.11625],[87.31656,-34.01346],[87.07828,-33.96674],[86.96147,-34.03215],[86.93811,-34.16764],[86.80729,-34.29847],[86.61573,-34.33117],[86.21391,-34.17699],[86.22793,-34.09289],[86.16252,-33.94805],[86.12047,-33.79853],[85.99899,-33.59763],[85.91489,-33.63033],[85.91489,-33.82657],[85.94759,-33.84526],[86.02702,-34.03682],[86.02235,-34.17232],[85.8448,-34.20502],[85.74201,-34.02747],[85.58316,-34.05551],[85.55979,-33.94337],[85.58783,-33.8546],[85.57381,-33.73779],[85.41495,-33.70042],[85.29348,-33.79386],[85.27479,-33.96206],[85.14396,-33.97141],[85.10659,-33.87796],[85.02249,-33.72845],[84.9197,-33.75648],[84.79822,-33.84993],[84.88232,-34.17699],[84.70944,-34.16764],[84.65338,-33.97608],[84.51788,-33.81255],[84.32632,-33.78452],[83.9759,-33.81255],[83.74229,-33.69107],[83.56474,-33.52287],[83.5554,-33.31262],[83.43392,-33.14909],[82.97136,-32.89212],[82.6116,-32.89679],[82.25651,-33.00425],[81.92478,-32.95753],[81.73322,-32.81736],[81.63977,-32.50432],[81.60239,-32.27071],[81.49026,-32.03709],[81.37812,-31.99037],[81.26599,-32.12119],[81.02303,-31.97168],[80.88286,-31.85955],[80.55581,-31.40167],[80.3035,-31.39232],[79.94841,-31.01854],[79.90169,-31.11199],[79.7148,-31.11199],[79.55594,-30.78493],[79.26626,-30.93444],[78.88314,-30.94378],[78.71494,-30.80829],[78.63551,-30.85501],[78.46731,-31.14936],[78.21968,-31.21478],[78.0141,-31.14936],[77.8459,-31.07461],[77.62163,-31.03723],[77.35998,-31.11199],[77.1544,-30.98583],[77.00489,-30.72886],[76.9021,-30.42984],[76.78997,-30.27098],[76.60308,-29.97195],[76.40684,-29.91589],[76.24798,-29.71031],[76.23864,-29.50473],[76.03306,-29.43932],[75.84617,-29.4767],[75.68264,-29.34587],[75.6733,-29.2057],[75.76207,-29.08423],[75.97699,-29.0048],[76.11716,-28.85061],[75.77141,-28.79455],[75.55649,-28.89734],[75.35091,-28.90668],[75.13599,-28.98144],[74.88368,-28.94406],[74.65942,-28.7852],[74.39777,-28.64503],[74.28564,-28.4488],[74.1735,-28.37871],[74.04268,-28.27592],[74.05202,-28.03297],[74.1735,-27.74329],[74.12211,-27.39287],[74.14547,-27.29942],[74.13612,-27.11253],[74.03801,-27.01442],[73.93989,-26.86958],[73.75767,-26.63129],[73.58947,-26.38366],[73.6175,-26.12669],[73.5334,-26.05193],[73.31381,-25.92578],[73.18765,-25.69684],[73.13626,-25.54265],[73.03581,-25.36744],[72.93769,-25.13617],[72.82555,-25.06375],[72.74145,-24.99133],[72.71576,-24.87218],[72.7835,-24.78575],[72.87929,-24.75771],[72.96339,-24.75771],[72.96339,-24.70165],[72.93535,-24.59419],[72.84658,-24.47738],[72.74846,-24.37926],[72.65034,-24.29983],[72.60829,-24.19237],[72.49616,-24.00081],[72.40272,-23.94474],[72.23451,-23.89335],[72.09902,-23.79523],[72.09435,-23.63637],[72.0523,-23.48686],[71.99623,-23.33735],[71.87008,-23.2439],[71.75794,-23.19718],[71.66917,-23.15046],[71.57573,-23.02431],[71.54769,-22.84209],[71.45425,-22.71127],[71.33744,-22.67389],[71.21596,-22.65053],[71.03374,-22.67856],[70.87956,-22.6552],[70.75341,-22.62249],[70.66931,-22.54306],[70.54783,-22.44027],[70.43102,-22.37486],[70.20675,-22.31412],[70.05257,-22.29543],[69.83765,-22.29543],[69.78158,-22.31412],[69.66944,-22.34216],[69.4662,-22.32347],[69.37509,-22.25338],[69.29566,-22.20666],[69.23492,-22.20199],[69.12746,-22.15059],[69.05738,-21.97305],[69.01533,-21.78149],[68.88918,-21.66935],[68.72098,-21.52918],[68.71163,-21.24885],[68.66958,-21.13671],[68.56679,-21.11802],[68.44531,-21.0713],[68.37056,-21.01524],[68.36121,-20.92179],[68.30514,-20.84236],[68.24441,-20.80966],[68.04817,-20.73023],[67.70242,-20.74892],[67.64168,-20.7933],[67.52488,-20.73957],[67.52955,-20.63211],[67.36135,-20.44989],[67.16979,-20.44989],[66.93617,-20.44055],[66.73994,-20.4312],[66.57174,-20.44055],[66.41755,-20.4312],[66.2587,-20.36579],[66.09984,-20.35645],[65.92229,-20.3144],[65.77745,-20.15087],[65.69102,-20.01771],[65.72372,-19.85652],[65.677,-19.73737],[65.67934,-19.62757],[65.75876,-19.52011],[65.86155,-19.43134],[65.92697,-19.33789],[65.93397,-19.23744],[65.88959,-19.12297],[65.82885,-19.06223],[65.77278,-18.96879],[65.7027,-18.88469],[65.66999,-18.81927],[65.49712,-18.68845],[65.35228,-18.55763],[65.1467,-18.46418],[65.07194,-18.38475],[65.01354,-18.27963],[64.89673,-18.16049],[64.70283,-18.08573],[64.56734,-18.01097],[64.48324,-17.85212],[64.16552,-17.82408],[63.99966,-17.76101],[63.84314,-17.65121],[63.82445,-17.58113],[63.74502,-17.48768],[63.63289,-17.43629],[63.54879,-17.39891],[63.49739,-17.28677],[63.44132,-17.18866],[63.38526,-17.13025],[63.28948,-17.05082],[63.18201,-16.91066],[63.15164,-16.79385],[63.16566,-16.67003],[63.13295,-16.58126],[63.06754,-16.50651],[62.93205,-16.46913],[62.77786,-16.45978],[62.7218,-16.37101],[62.64237,-16.24019],[62.60499,-16.11404],[62.57696,-16.03461],[62.48818,-16.00657],[62.38072,-15.85706],[62.21252,-15.76829],[62.12884,-15.66795],[61.98825,-15.62812],[61.9976,-15.53935],[62.04432,-15.45992],[62.10973,-15.28237],[62.02563,-15.13753],[62.02096,-14.95999],[62.02563,-14.85253],[62.01628,-14.70769],[62.07235,-14.65162],[62.17047,-14.60022],[62.37138,-14.60022],[62.51622,-14.6049],[62.69843,-14.62359],[62.82926,-14.66096],[62.93672,-14.74974],[63.06754,-14.81515],[63.27779,-14.88056],[63.55346,-14.87589],[63.731,-14.87589],[63.87584,-14.97401],[64.11413,-15.11885],[64.36176,-15.1609],[64.60004,-15.15622],[64.91776,-15.25901],[65.06727,-15.1095],[65.2635,-15.03474],[65.44105,-14.96933],[65.56253,-14.90392],[65.59991,-14.75441],[65.49712,-14.6049],[65.47843,-14.46473],[65.59056,-14.31522],[65.69559,-14.27212],[65.74007,-14.19374],[65.64196,-14.07226],[65.77075,-13.91577],[65.83352,-13.76389],[65.88959,-13.48355],[65.89893,-13.26863],[65.96434,-13.06305],[65.98303,-12.88551],[65.86155,-12.75468],[65.72139,-12.53976],[65.62794,-12.35287],[65.64429,-12.18934],[65.70971,-12.03983],[65.6186,-11.90433],[65.45273,-11.74547],[65.43404,-11.54924],[65.48777,-11.38104],[65.66065,-11.29694],[65.94565,-11.17546],[66.15123,-11.11939],[66.37511,-11.04801]]]}},{"type":"Feature","properties":{"name":"Sothoryos"},"geometry":{"type":"Polygon","coordinates":[[[53.52212,-41.81379],[53.57351,-41.65961],[53.72303,-41.58485],[54.0314,-41.47272],[54.16689,-41.27181],[54.29771,-41.09427],[54.61543,-40.99615],[54.7556,-40.86533],[54.85371,-40.76721],[54.91445,-40.58499],[55.1761,-40.39343],[55.39102,-40.25793],[55.5125,-40.08506],[55.52185,-39.94956],[55.60595,-39.82341],[55.85825,-39.68324],[55.92366,-39.58045],[55.97038,-39.37487],[56.08719,-39.15995],[56.4049,-38.96372],[56.64319,-38.75814],[56.80204,-38.57592],[56.87213,-38.34231],[56.94221,-38.18812],[57.31132,-37.9732],[57.601,-37.78631],[57.66174,-37.69753],[57.79256,-37.56671],[57.80658,-37.42187],[57.82527,-37.249],[57.87199,-37.15088],[57.87199,-37.03407],[58.04019,-36.92194],[58.23176,-36.73972],[58.30184,-36.58086],[58.24577,-36.48742],[58.07757,-36.23044],[58.09159,-36.11364],[57.98413,-35.95011],[57.90003,-35.7492],[57.84396,-35.52026],[57.87199,-35.39411],[57.81125,-35.25862],[57.83929,-35.13246],[58.00749,-34.8568],[58.13831,-34.74934],[58.32987,-34.45499],[58.49807,-34.20268],[58.68964,-34.00645],[58.82513,-33.84292],[58.91858,-33.70743],[58.94194,-33.58595],[58.89989,-33.42242],[58.94661,-33.29627],[59.08211,-33.12339],[59.23162,-33.14208],[59.31572,-33.10003],[59.45121,-33.10938],[59.57737,-33.16544],[59.73155,-33.30561],[59.76893,-33.47381],[59.80163,-33.71677],[59.81098,-33.88964],[59.67081,-34.09989],[59.63343,-34.2681],[59.74557,-34.4363],[59.80163,-34.58114],[59.86705,-34.78204],[60.00254,-34.91287],[60.15205,-35.025],[60.37165,-35.15115],[60.5492,-35.16984],[60.79683,-35.12312],[60.99773,-35.13246],[61.27807,-35.13714],[61.54439,-35.03902],[61.85276,-34.91287],[62.09571,-34.84746],[62.23588,-34.66524],[62.29195,-34.5531],[62.48351,-34.50638],[62.64237,-34.38023],[62.81524,-34.20268],[62.90401,-34.00178],[62.92738,-33.81489],[62.95074,-33.45045],[62.90869,-33.2402],[62.96008,-33.04396],[63.04418,-32.88044],[63.16099,-32.78699],[63.17033,-32.65149],[63.24976,-32.516],[63.3105,-32.43657],[63.3946,-32.36181],[63.41796,-32.22165],[63.49739,-32.15624],[63.57215,-32.03008],[63.52542,-31.84319],[63.64223,-31.68901],[63.74035,-31.56286],[63.8992,-31.47876],[64.01601,-31.36195],[64.08142,-31.20777],[64.19356,-31.0676],[64.34307,-31.0676],[64.5066,-31.0676],[64.67947,-31.03957],[64.85702,-31.11899],[64.99719,-31.21244],[65.18408,-31.21244],[65.42703,-31.18908],[65.52515,-31.28252],[65.67466,-31.35728],[65.9036,-31.43671],[66.07181,-31.5722],[66.27738,-31.7077],[66.55305,-31.82451],[66.75863,-31.89459],[67.01093,-31.92729],[67.3193,-32.16091],[67.54357,-32.16091],[67.81456,-32.29173],[68.14162,-32.32911],[68.50605,-32.48797],[68.68827,-32.44124],[69.01533,-32.55338],[69.44518,-32.62813],[69.94044,-32.67018],[70.28151,-32.70756],[70.56185,-32.77297],[70.82816,-33.00191],[71.1926,-33.21217],[71.46826,-33.52053],[71.64581,-33.7448],[71.73749,-33.95916],[71.88877,-34.05784],[72.07098,-34.184],[72.32329,-34.30547],[72.63633,-34.54843],[72.84191,-34.69327],[73.01011,-34.78204],[73.22036,-34.78672],[73.45397,-34.80073],[73.69693,-34.90352],[73.8698,-35.09041],[74.01464,-35.16984],[74.24359,-35.15583],[74.54261,-35.2773],[74.93441,-35.32549],[75.29017,-35.42682],[75.62657,-35.50624],[75.96298,-35.51092],[76.16856,-35.56231],[76.35381,-35.73279],[76.5657,-35.82396],[76.92546,-36.01085],[77.29924,-36.10429],[77.59827,-36.0015],[77.85524,-36.16503],[78.35984,-36.23044],[78.59346,-36.36594],[78.8551,-36.52947],[79.26626,-36.57152],[79.49988,-36.74907],[79.64939,-36.78177],[80.09325,-36.93128],[80.31285,-36.90325],[80.60253,-37.04809],[81.14451,-37.22096],[81.70985,-37.23031],[81.9715,-37.23965],[82.10232,-37.13219],[82.3079,-37.06211],[82.57889,-37.00137],[82.68636,-36.88923],[82.71906,-36.66964],[82.78915,-36.51545],[82.97136,-36.39397],[83.06481,-36.30053],[83.19096,-36.14634],[83.34514,-36.02954],[83.52269,-35.99683],[83.61614,-35.92675],[83.73761,-35.76322],[83.73761,-35.59502],[83.91049,-35.3287],[84.01795,-35.30067],[84.06467,-35.19788],[84.23287,-35.16984],[84.40107,-35.19788],[84.48518,-35.38477],[84.5646,-35.49223],[84.62534,-35.53895],[84.73748,-35.52026],[84.76551,-35.47354],[84.7842,-35.29599],[84.74682,-35.13714],[84.75149,-34.9923],[84.89166,-34.9409],[84.91502,-35.09041],[84.98043,-35.25862],[85.09724,-35.31001],[85.21405,-35.25862],[85.23741,-35.10443],[85.32151,-34.9923],[85.45233,-34.88016],[85.51774,-34.8568],[85.60652,-34.91754],[85.58783,-34.97828],[85.55045,-35.07172],[85.52242,-35.22124],[85.55045,-35.33337],[85.71865,-35.3614],[85.82144,-35.45485],[86.01512,-35.44736],[86.05505,-35.37075],[86.08309,-35.23993],[86.01768,-35.00631],[85.94292,-34.78204],[86.01768,-34.63253],[86.17653,-34.95025],[86.16719,-35.12779],[86.20457,-35.35206],[86.29557,-35.4697],[86.67646,-35.51559],[86.87737,-35.36608],[86.90541,-35.1091],[87.19976,-35.09976],[87.38358,-35.21582],[87.48477,-35.38944],[87.74174,-35.44083],[87.96134,-35.52026],[88.19495,-35.46419],[88.39118,-35.29599],[88.56584,-35.23224],[88.75095,-35.22124],[88.84903,-35.1601],[88.89579,-34.95959],[88.93317,-34.7727],[88.99858,-34.70729],[89.11071,-34.71196],[89.1808,-34.84746],[89.09202,-35.00164],[89.10137,-35.09976],[89.22285,-35.21189],[89.25555,-35.38944],[89.11071,-35.55764],[89.00792,-35.69314],[89.01414,-35.89243],[89.15276,-36.08093],[89.25088,-36.29586],[89.1294,-36.46406],[89.18547,-36.77243],[89.19481,-36.95464],[89.04063,-37.04809],[88.93784,-37.20695],[88.98923,-37.4172],[89.14809,-37.61343],[89.40039,-37.70688],[89.63452,-37.89476],[89.79286,-38.11804],[89.9891,-38.44042],[90.05889,-38.63499],[90.1573,-38.73478],[90.54509,-38.97773],[90.70227,-39.10161],[90.76002,-39.26274],[90.93295,-39.41586],[90.96523,-39.53669],[91.06372,-39.62718],[91.11071,-39.92884],[91.26929,-40.21121],[91.4375,-40.49154],[91.56924,-40.69913],[91.67111,-40.91205],[91.70849,-41.09894],[91.96449,-41.31833],[91.99359,-42.00216],[53.51637,-41.91573],[53.52212,-41.81379]]]}}]}