{"type":"FeatureCollection","features":[{"type":"Feature","properties":{"name":"Bear Island"},"geometry":{"type":"Polygon","coordinates":[[[10.6842,31.52314],[10.55847,31.61394],[10.57244,31.69776],[10.48862,31.79555],[10.49561,31.85143],[10.60038,31.85842],[10.64928,31.90033],[10.5934,31.96319],[10.58641,32.06098],[10.50259,32.04003],[10.4048,31.95621],[10.30701,31.90731],[10.30701,31.71872],[10.20224,31.66284],[10.19525,31.57203],[10.10445,31.52314],[10.04158,31.53711],[9.92284,31.56505],[9.78314,31.66982],[9.7552,31.7746],[9.81806,31.85143],[9.81806,31.87239],[9.72726,31.96319],[9.76218,32.02606],[9.76917,32.1448],[9.81806,32.17973],[9.90188,32.21465],[10.06254,32.26355],[10.13239,32.36832],[10.16033,32.51501],[10.22319,32.6128],[10.34892,32.64074],[10.49561,32.57787],[10.60737,32.57787],[10.67023,32.50802],[10.80993,32.4731],[10.98456,32.50802],[11.13124,32.40325],[11.08933,32.30546],[11.09632,32.06797],[11.18014,32.02606],[11.30587,31.94922],[11.243,31.82349],[10.99853,31.80952],[10.83089,31.73967],[10.77501,31.59997],[10.6842,31.52314]]]}},{"type":"Feature","properties":{"name":"Skagos"},"geometry":{"type":"Polygon","coordinates":[[[24.04649,32.85727],[23.89282,33.05285],[23.89282,33.2624],[23.87885,33.58371],[23.62739,33.91899],[23.36196,33.93296],[23.33402,34.05869],[23.19432,34.15648],[23.12447,34.29618],[23.1105,34.44985],[23.08256,34.70131],[23.06859,34.9388],[23.16638,35.14835],[23.12447,35.24614],[23.19432,35.23217],[23.37593,35.32996],[23.51563,35.32996],[23.65533,35.13438],[23.72518,34.95277],[23.85091,34.71528],[23.96267,34.71528],[24.04649,34.9388],[24.01855,35.10644],[23.90679,35.31599],[23.85091,35.55348],[24.01855,35.777],[24.10237,35.97258],[23.99061,36.15419],[24.10237,36.43359],[24.21413,36.41962],[24.32589,36.37771],[24.45162,36.1961],[24.56338,35.98655],[24.61926,35.74906],[24.68911,35.70715],[24.75896,35.58142],[24.80087,35.20423],[24.81484,34.96674],[24.73102,34.81307],[24.74499,34.6594],[24.87072,34.56161],[25.05233,34.47779],[25.02439,34.17045],[25.0663,34.00281],[25.24791,33.90502],[25.09424,33.55577],[25.08027,33.37416],[25.02439,33.2624],[24.63323,33.23446],[24.53544,33.03888],[24.2281,33.03888],[24.04649,32.85727]]]}},{"type":"Feature","properties":{"name":null},"geometry":{"type":"Polygon","coordinates":[[[25.41555,34.26126],[25.47143,34.21935],[25.52731,34.12156],[25.54128,34.0098],[25.5343,33.94693],[25.43651,33.93296],[25.36666,33.9609],[25.33872,34.05171],[25.32475,34.18442],[25.41555,34.26126]]]}},{"type":"Feature","properties":{"name":null},"geometry":{"type":"Polygon","coordinates":[[[25.74035,34.59304],[25.59716,34.63844],[25.48191,34.72226],[25.50636,34.88641],[25.43651,35.00865],[25.4854,35.08548],[25.55176,35.14136],[25.44349,35.19724],[25.38761,35.27408],[25.50636,35.38584],[25.52033,35.51157],[25.47842,35.58142],[25.42254,35.75604],[25.32475,35.83288],[25.33872,35.90273],[25.44349,35.9167],[25.44349,36.0075],[25.43651,36.09132],[25.36666,36.22404],[25.37364,36.35675],[25.45048,36.34278],[25.5343,36.16117],[25.66003,35.95162],[25.73686,35.68619],[25.75083,35.42076],[25.80671,35.31599],[25.9534,35.19724],[26.00928,35.0785],[25.97435,35.00166],[25.86259,34.75719],[25.74035,34.59304]]]}},{"type":"Feature","properties":{"name":"Skane"},"geometry":{"type":"Polygon","coordinates":[[[23.00573,36.62568],[23.12447,36.4301],[23.18035,36.37422],[23.1594,36.24849],[23.25719,36.17165],[23.25719,36.03894],[23.20829,35.94813],[23.12447,35.92718],[23.03367,35.98306],[22.96382,36.05291],[22.98477,36.28341],[22.96382,36.4301],[22.94985,36.54884],[23.00573,36.62568]]]}},{"type":"Feature","properties":{"name":null},"geometry":{"type":"Polygon","coordinates":[[[23.78805,37.16352],[23.7182,37.24035],[23.63438,37.29623],[23.62041,37.42196],[23.62041,37.50578],[23.69026,37.58262],[23.74614,37.54769],[23.82996,37.45689],[23.77408,37.3591],[23.80202,37.27528],[23.78805,37.16352]]]}},{"type":"Feature","properties":{"name":"Ibben"},"geometry":{"type":"Polygon","coordinates":[[[49.10166,35.10993],[49.01784,35.04707],[49.03181,34.99119],[48.96196,34.86546],[48.94101,34.74671],[48.8502,34.60701],[48.76638,34.55812],[48.61271,34.53018],[48.50095,34.38349],[48.33681,34.25427],[48.21806,34.10759],[48.06439,33.96789],[47.88628,33.8666],[47.63482,33.8701],[47.46368,33.83168],[47.26461,33.90153],[47.11094,33.8666],[46.89091,33.6815],[46.65692,33.60816],[46.46832,33.66055],[46.25877,33.7758],[46.00731,33.88057],[45.8746,34.01678],[45.95842,34.15648],[45.90254,34.2857],[45.80475,34.35555],[45.6406,34.44286],[45.52535,34.56161],[45.34723,34.64892],[45.23547,34.82355],[45.11323,35.05405],[44.95956,35.19375],[44.76657,35.43258],[44.62778,35.47315],[44.54396,35.54649],[44.46363,35.72461],[44.47061,36.011],[44.51951,36.10529],[44.45664,36.19959],[44.49157,36.28341],[44.65222,36.31135],[44.7116,36.39866],[44.68366,36.51741],[44.63127,36.5663],[44.64873,36.69902],[44.757,36.76538],[44.84092,36.72686],[44.87574,36.63266],[44.89321,36.51392],[44.94896,36.44579],[45.0141,36.42951],[45.05386,36.34278],[45.21801,36.35326],[45.38565,36.47899],[45.46248,36.49296],[45.53458,36.55081],[45.5725,36.62742],[45.65108,36.65362],[45.70696,36.74093],[45.87111,36.8457],[46.07367,36.90857],[46.27973,36.98191],[46.42641,36.94698],[46.65692,36.84221],[46.91536,36.82126],[47.05157,36.91905],[47.19476,36.98191],[47.36939,36.94698],[47.48813,36.86317],[47.71165,36.77236],[47.80944,36.78633],[47.9701,36.86317],[48.05392,36.95397],[48.17266,36.93302],[48.47302,36.98191],[48.80131,37.00985],[49.01086,36.8492],[49.18548,36.82824],[49.3182,36.72347],[49.66745,36.71648],[49.79318,36.84221],[49.7827,37.00286],[49.71634,37.10764],[49.70936,37.24734],[49.87001,37.26829],[50.11449,37.4499],[50.28213,37.30322],[50.32753,37.2194],[50.37293,37.08668],[50.50565,36.97492],[50.58248,36.96095],[50.58947,36.91905],[50.75711,36.89111],[50.84093,36.85618],[50.95269,36.8003],[51.12033,36.77236],[51.2705,36.64663],[51.33686,36.50693],[51.35782,36.39517],[51.29146,36.33231],[51.29844,36.26944],[51.22161,36.23452],[51.09937,36.12974],[50.9946,36.09482],[50.87935,36.08783],[50.80251,36.19261],[50.67329,36.22753],[50.44977,36.22055],[50.37293,36.26246],[50.2472,36.26944],[50.13544,36.2415],[50.13544,36.14371],[50.21228,36.01798],[50.35896,35.89924],[50.46723,35.78049],[50.43373,35.66134],[50.44278,35.56046],[50.3869,35.4976],[50.2472,35.43823],[50.22625,35.34742],[50.15989,35.26709],[50.14941,35.17978],[50.22625,35.09247],[50.22625,34.9842],[50.12846,34.83053],[50.0167,34.67686],[49.91192,34.55812],[49.74428,34.48827],[49.5976,34.48827],[49.47187,34.5651],[49.5976,34.67686],[49.65348,34.77465],[49.69539,34.88641],[49.70237,34.95626],[49.61855,34.96325],[49.4466,35.1298],[49.10166,35.10993]]]}},{"type":"Feature","properties":{"name":"Blacktyde"},"geometry":{"type":"Polygon","coordinates":[[[8.19405,13.37613],[8.24993,13.31326],[8.24993,13.25738],[8.18008,13.18055],[8.06832,13.19452],[7.96355,13.22246],[7.90767,13.17356],[7.79591,13.17356],[7.66319,13.15959],[7.62827,13.27834],[7.73304,13.32723],[7.83083,13.3901],[7.9845,13.33422],[8.19405,13.37613]]]}},{"type":"Feature","properties":{"name":"Harlaw"},"geometry":{"type":"Polygon","coordinates":[[[9.0113,12.66366],[9.09512,12.49602],[9.21386,12.4122],[9.21386,12.30044],[9.19291,12.11184],[9.27673,11.9931],[9.36055,11.8534],[9.30467,11.76259],[9.16497,11.65083],[8.69697,11.63686],[8.72491,11.54606],[8.68999,11.44827],[8.5922,11.49018],[8.50139,11.49716],[8.42456,11.54606],[8.42456,11.68576],[8.37566,11.74164],[8.39662,11.79752],[8.42456,11.93023],[8.36169,12.02104],[8.41757,12.10486],[8.49441,12.18868],[8.56426,12.21662],[8.7319,12.19566],[8.88557,12.15375],[8.94843,12.20265],[8.99034,12.3633],[8.96939,12.56587],[9.0113,12.66366]]]}},{"type":"Feature","properties":{"name":"Orkmont"},"geometry":{"type":"Polygon","coordinates":[[[7.93561,12.79986],[8.08229,12.60778],[8.24993,12.49602],[8.26739,12.4087],[8.20104,12.29345],[8.10674,12.27599],[8.04737,12.34933],[7.97053,12.34933],[7.92862,12.39124],[7.82385,12.34235],[7.69113,12.24805],[7.60382,12.22011],[7.51651,12.30044],[7.46761,12.38076],[7.43967,12.45061],[7.49206,12.50649],[7.60382,12.49951],[7.68065,12.54491],[7.77146,12.64619],[7.7994,12.737],[7.85179,12.79637],[7.93561,12.79986]]]}},{"type":"Feature","properties":{"name":"Old Wyk"},"geometry":{"type":"Polygon","coordinates":[[[6.89135,12.48903],[6.92628,12.44014],[6.88437,12.34235],[6.92628,12.25503],[6.84944,12.17121],[6.74467,12.05596],[6.66085,12.06993],[6.591,12.20614],[6.59798,12.29694],[6.6818,12.38076],[6.78658,12.42966],[6.80404,12.47506],[6.89135,12.48903]]]}},{"type":"Feature","properties":{"name":"Great Wyk"},"geometry":{"type":"Polygon","coordinates":[[[6.43034,12.67763],[6.43314,12.57774],[6.2228,12.4825],[6.20682,12.32139],[6.24524,12.18169],[6.30461,12.0839],[6.357,11.97913],[6.43733,11.8988],[6.5875,11.86737],[6.73768,11.86387],[6.80055,11.9442],[6.94025,11.95817],[6.98565,12.07342],[7.09042,12.10486],[7.21266,12.11533],[7.23362,12.05596],[7.21965,11.91277],[7.18821,11.87435],[7.07645,11.80799],[7.10789,11.7137],[7.16377,11.64035],[7.12884,11.53907],[7.04502,11.51113],[6.88786,11.48319],[6.79007,11.45525],[6.57353,11.46573],[6.51067,11.48668],[6.44431,11.44477],[6.27667,11.4308],[6.1684,11.46922],[6.04267,11.46922],[5.92044,11.52859],[5.7982,11.62638],[5.75629,11.74862],[5.78772,11.86387],[5.82963,11.96516],[5.82265,12.03151],[5.74232,12.10486],[5.71089,12.26202],[5.83312,12.38775],[5.86805,12.503],[5.8925,12.65667],[6.0287,12.70557],[6.19285,12.66715],[6.29413,12.63572],[6.34303,12.67413],[6.43034,12.67763]]]}},{"type":"Feature","properties":{"name":"Pyke"},"geometry":{"type":"Polygon","coordinates":[[[7.59683,11.52859],[7.65621,11.49716],[7.69113,11.44477],[7.67716,11.30857],[7.61779,11.22475],[7.6108,11.09203],[7.69113,10.99774],[7.76447,10.91042],[7.68764,10.87899],[7.56889,10.92789],[7.4292,10.94535],[7.32442,10.91741],[7.22663,10.8266],[7.1463,10.90693],[7.05201,11.00472],[7.05899,11.07806],[7.00311,11.17585],[7.0555,11.25618],[7.12884,11.23872],[7.22314,11.2492],[7.28251,11.21078],[7.38729,11.19681],[7.47809,11.25269],[7.49905,11.33302],[7.50952,11.44477],[7.59683,11.52859]]]}},{"type":"Feature","properties":{"name":"Saltcliffe"},"geometry":{"type":"Polygon","coordinates":[[[6.71323,11.01869],[6.76213,10.9698],[6.73768,10.91042],[6.67132,10.84756],[6.52813,10.83359],[6.38843,10.85105],[6.39192,10.91042],[6.33255,10.95932],[6.30461,11.0152],[6.37446,11.06759],[6.44082,11.07457],[6.48622,11.02218],[6.56655,11.03615],[6.71323,11.01869]]]}},{"type":"Feature","properties":{"name":"Fair Isle"},"geometry":{"type":"Polygon","coordinates":[[[7.13583,7.8964],[7.18123,7.86497],[7.25108,7.81258],[7.19869,7.75321],[7.21266,7.63795],[7.13583,7.5716],[7.13583,7.43888],[7.12186,7.23632],[7.0913,7.09916],[7.09392,6.94993],[6.96469,6.8696],[6.82499,6.85563],[6.74117,6.81722],[6.71323,6.65307],[6.64688,6.5902],[6.5421,6.54829],[6.45828,6.61116],[6.47924,6.78229],[6.51765,6.84865],[6.54909,7.00581],[6.67482,7.12106],[6.74816,7.18044],[6.81452,7.23981],[6.88437,7.38999],[6.9612,7.49825],[7.0101,7.6624],[7.01359,7.78115],[7.13583,7.8964]]]}},{"type":"Feature","properties":{"name":"Shield Islands"},"geometry":{"type":"MultiPolygon","coordinates":[[[[7.60557,-2.16898],[7.67542,-2.22136],[7.73479,-2.21263],[7.79241,-2.17945],[7.83432,-2.18469],[7.85179,-2.21787],[7.83432,-2.28074],[7.78892,-2.31741],[7.7505,-2.34011],[7.69986,-2.35583],[7.62652,-2.33836],[7.57064,-2.30693],[7.57239,-2.26327],[7.57064,-2.21438],[7.58112,-2.19342],[7.60557,-2.16898]]],[[[8.00895,-1.9961],[7.99847,-2.04849],[7.94085,-2.09214],[7.90068,-2.12532],[7.85703,-2.07119],[7.83258,-2.02753],[7.88497,-1.95943],[7.93735,-1.97689],[8.00895,-1.9961]]],[[[7.60731,-1.80925],[7.67891,-1.8302],[7.76797,-1.90879],[7.76447,-1.96641],[7.70336,-2.00832],[7.59509,-1.95943],[7.52175,-1.88259],[7.54619,-1.81274],[7.60731,-1.80925]]],[[[7.26854,-1.86164],[7.32093,-1.89656],[7.35236,-1.92799],[7.34538,-2.00483],[7.39427,-2.05023],[7.50254,-2.04674],[7.50254,-2.12707],[7.44317,-2.17596],[7.39427,-2.22486],[7.31744,-2.1585],[7.2895,-2.07468],[7.20917,-1.99784],[7.20917,-1.92101],[7.26854,-1.86164]]]]}},{"type":"Feature","properties":{"name":"The Arbor"},"geometry":{"type":"Polygon","coordinates":[[[5.6358,-9.44559],[5.7755,-9.69007],[5.83836,-9.71801],[5.92218,-9.88565],[5.90821,-9.99042],[6.0549,-10.20696],[6.16317,-10.21045],[6.22603,-10.15806],[6.36224,-10.12314],[6.38843,-10.15457],[6.41113,-10.26284],[6.44606,-10.38158],[6.52988,-10.47239],[6.52988,-10.52128],[6.78832,-10.66098],[6.8442,-10.69591],[6.82325,-10.76576],[6.76038,-10.8845],[6.82325,-10.97531],[6.76038,-11.0242],[6.66259,-10.99626],[6.51591,-11.05913],[6.36922,-11.03817],[6.28265,-11.15058],[6.23302,-11.26169],[6.13872,-11.34202],[6.01997,-11.40838],[5.9152,-11.31059],[5.84186,-11.19533],[5.71263,-11.17089],[5.64977,-11.00325],[5.6358,-10.82862],[5.54499,-10.70988],[5.61484,-10.57716],[5.64278,-10.50382],[5.67422,-10.39555],[5.66374,-10.27681],[5.60461,-10.21965],[5.64977,-10.16156],[5.67072,-10.01836],[5.61834,-9.97296],[5.52055,-9.96598],[5.46816,-9.80183],[5.43323,-9.64117],[5.51007,-9.50147],[5.6358,-9.44559]]]}},{"type":"Feature","properties":{"name":"Summer Islands"},"geometry":{"type":"MultiPolygon","coordinates":[[[[13.48868,-22.32068],[13.54106,-22.38355],[13.58647,-22.43943],[13.7087,-22.47435],[13.77855,-22.4534],[13.86936,-22.46038],[13.91825,-22.52325],[13.95318,-22.62802],[13.88333,-22.75026],[13.90079,-22.82011],[13.85539,-22.92488],[13.78554,-23.00172],[13.65632,-23.11348],[13.55853,-23.1519],[13.53408,-23.20778],[13.44327,-23.21127],[13.41184,-23.24969],[13.3839,-23.21476],[13.41533,-23.1519],[13.37692,-23.12046],[13.36644,-23.06808],[13.41184,-23.02617],[13.41184,-22.9633],[13.47471,-22.9179],[13.53408,-22.82709],[13.50963,-22.7328],[13.43978,-22.65247],[13.35945,-22.61754],[13.31405,-22.52325],[13.22325,-22.44641],[13.20578,-22.36608],[13.1045,-22.27179],[13.11149,-22.19146],[13.16387,-22.13907],[13.36993,-22.13209],[13.47121,-22.20892],[13.48868,-22.32068]]],[[[12.22265,-22.91965],[12.23662,-22.97203],[12.13533,-22.98251],[12.01659,-22.91615],[12.00262,-22.83932],[11.92578,-22.80439],[11.93626,-22.7066],[11.99913,-22.65422],[11.99913,-22.57738],[11.96769,-22.53198],[11.83847,-22.50753],[11.76862,-22.42371],[11.71973,-22.42022],[11.594,-22.32243],[11.34952,-22.32243],[11.25523,-22.25956],[11.2657,-22.22464],[11.44731,-22.22115],[11.52415,-22.1967],[11.54859,-22.1478],[11.58003,-22.09542],[11.65337,-22.11637],[11.64638,-22.17225],[11.68131,-22.21067],[11.7791,-22.23512],[11.78958,-22.31894],[11.8245,-22.31195],[11.93975,-22.35386],[12.02008,-22.39228],[12.10041,-22.48658],[12.08295,-22.51801],[12.07945,-22.6158],[12.17724,-22.7066],[12.17724,-22.81487],[12.15978,-22.8498],[12.16327,-22.88821],[12.22265,-22.91965]]],[[[11.71274,-23.25842],[11.70226,-23.36668],[11.66385,-23.41209],[11.59749,-23.47844],[11.52764,-23.46797],[11.48922,-23.40859],[11.50319,-23.36668],[11.58003,-23.30382],[11.6394,-23.30382],[11.66385,-23.27588],[11.71274,-23.25842]]],[[[10.42052,-21.93476],[10.39607,-21.97318],[10.24589,-21.99413],[10.1516,-21.88237],[10.04333,-21.83348],[9.89664,-21.84745],[9.88617,-21.79506],[9.91061,-21.77061],[9.99443,-21.73918],[10.09921,-21.72172],[10.19351,-21.79157],[10.2878,-21.82999],[10.42052,-21.93476]]],[[[10.57419,-22.58437],[10.58816,-22.64025],[10.55323,-22.68914],[10.50085,-22.72057],[10.45894,-22.67517],[10.43798,-22.62977],[10.50085,-22.60532],[10.57419,-22.58437]]],[[[9.79187,-22.49705],[9.8233,-22.53372],[9.84076,-22.61056],[9.81981,-22.68739],[9.729,-22.71883],[9.66614,-22.80614],[9.66265,-22.92488],[9.72202,-23.00172],[9.72202,-23.07157],[9.77091,-23.12396],[9.83378,-23.18682],[9.91061,-23.27064],[9.98745,-23.30906],[10.11318,-23.23921],[10.18652,-23.21476],[10.21105,-23.21903],[10.22145,-23.18857],[10.30527,-23.10824],[10.35416,-23.04887],[10.3594,-22.94235],[10.28431,-22.94235],[10.27907,-22.83932],[10.38909,-22.83932],[10.41353,-22.86377],[10.43798,-22.96854],[10.46243,-23.05585],[10.54276,-23.09427],[10.52529,-23.17111],[10.5707,-23.18508],[10.57768,-23.22698],[10.5218,-23.30382],[10.50085,-23.37716],[10.46592,-23.43304],[10.37861,-23.43304],[10.36115,-23.48892],[10.29828,-23.51337],[10.30177,-23.74387],[10.21446,-23.80674],[10.13763,-23.80674],[10.14461,-23.90104],[10.05031,-23.97089],[9.963,-23.98136],[9.84426,-24.09312],[9.80584,-24.11059],[9.71853,-24.04423],[9.55089,-24.03724],[9.52295,-24.02677],[9.62423,-23.96041],[9.76393,-23.97089],[9.78139,-23.92199],[9.85473,-23.90104],[9.9176,-23.82769],[9.94554,-23.75784],[9.95252,-23.67752],[9.80933,-23.5448],[9.76393,-23.4505],[9.72202,-23.39462],[9.65566,-23.36668],[9.54739,-23.3143],[9.50199,-23.23397],[9.4496,-23.13269],[9.34832,-23.06633],[9.36928,-23.02791],[9.34483,-22.91965],[9.28196,-22.8463],[9.28546,-22.76598],[9.34134,-22.67517],[9.43563,-22.58087],[9.55438,-22.49705],[9.66265,-22.49356],[9.79187,-22.49705]]],[[[10.07127,-24.28521],[10.10619,-24.29569],[10.18652,-24.37252],[10.40655,-24.37951],[10.46941,-24.4284],[10.50434,-24.40745],[10.56371,-24.49127],[10.63705,-24.49476],[10.69293,-24.54366],[10.73135,-24.52969],[10.79771,-24.59954],[10.91296,-24.59255],[11.00027,-24.69383],[11.08759,-24.74622],[11.19236,-24.78115],[11.52764,-24.79861],[11.594,-24.84052],[11.60447,-24.79162],[11.65337,-24.82306],[11.64638,-24.86846],[11.61495,-24.94879],[11.55558,-24.98022],[11.48922,-24.91037],[11.42636,-24.8475],[10.92693,-24.83004],[10.90248,-24.77765],[10.85708,-24.72876],[10.77326,-24.69034],[10.6615,-24.617],[10.58816,-24.58906],[10.52529,-24.52969],[10.37861,-24.52619],[10.31924,-24.52969],[10.29828,-24.5716],[10.22145,-24.57858],[10.13763,-24.56461],[10.07825,-24.54016],[10.01539,-24.46682],[10.01539,-24.38649],[10.05381,-24.35506],[10.07127,-24.28521]]],[[[12.0131,-24.65192],[12.04104,-24.74273],[12.0131,-24.79861],[11.9642,-24.78115],[11.89435,-24.73924],[11.98516,-24.65891],[12.0131,-24.65192]]],[[[11.37048,-25.78698],[11.42286,-25.88827],[11.39143,-25.94415],[11.33206,-26.00701],[11.27618,-25.95812],[11.29714,-25.89525],[11.2657,-25.86731],[11.2657,-25.80794],[11.33206,-25.76952],[11.37048,-25.78698]]],[[[10.79771,-26.00701],[10.82041,-26.03146],[10.79072,-26.05765],[10.64753,-26.03844],[10.58117,-26.08385],[10.58467,-26.19211],[10.67547,-26.26196],[10.68944,-26.36325],[10.65452,-26.39119],[10.57768,-26.46104],[10.58816,-26.56232],[10.50434,-26.59026],[10.45544,-26.66709],[10.37861,-26.6636],[10.28082,-26.57629],[10.12715,-26.5693],[10.06428,-26.50295],[10.16906,-26.50295],[10.17255,-26.52739],[10.33321,-26.51692],[10.39607,-26.4785],[10.46592,-26.46802],[10.5707,-26.39119],[10.56022,-26.32483],[10.5218,-26.23402],[10.34368,-26.24101],[10.30527,-26.2934],[10.26336,-26.31086],[10.24939,-26.26196],[10.50085,-26.02447],[10.50434,-25.93716],[10.45894,-25.9197],[10.39607,-25.84985],[10.24589,-25.84985],[10.19001,-25.90573],[10.13413,-25.98256],[10.08524,-26.00352],[10.01888,-26.07337],[9.96999,-26.10131],[9.8687,-26.06638],[9.8687,-26.014],[9.93506,-25.96859],[9.95602,-25.91271],[10.06778,-25.82191],[10.21795,-25.81842],[10.23542,-25.64379],[10.26336,-25.6403],[10.27034,-25.66824],[10.41004,-25.67872],[10.431,-25.77302],[10.48338,-25.83239],[10.57419,-25.84286],[10.59165,-25.91271],[10.67547,-26.00003],[10.79771,-26.00701]]],[[[10.86232,-26.06289],[10.90598,-26.08559],[10.98456,-26.1502],[10.96884,-26.29864],[10.94439,-26.26546],[10.89375,-26.23577],[10.88502,-26.1991],[10.90772,-26.1764],[10.86057,-26.14322],[10.86232,-26.06289]]],[[[12.9421,-25.99828],[12.97703,-26.00527],[12.96655,-26.14497],[12.93162,-26.19386],[12.84431,-26.19735],[12.83733,-26.2707],[12.80939,-26.34404],[12.69763,-26.36499],[12.60333,-26.43834],[12.60333,-26.48723],[12.41473,-26.63042],[12.41473,-26.77012],[12.44966,-26.80156],[12.44966,-26.89585],[12.54396,-26.96221],[12.84431,-26.99364],[12.64524,-27.09143],[12.63476,-27.14382],[12.41124,-27.18573],[12.30647,-27.08794],[12.34139,-27.07048],[12.4322,-27.02158],[12.41823,-26.91681],[12.36933,-26.83648],[12.36235,-26.77012],[12.31345,-26.67583],[12.32393,-26.52914],[12.43918,-26.46977],[12.51951,-26.41738],[12.63476,-26.28816],[12.70461,-26.28117],[12.77795,-26.18338],[12.83383,-26.17989],[12.86527,-26.14497],[12.9421,-25.99828]]],[[[13.02941,-26.77362],[13.06085,-26.79108],[13.12371,-26.82251],[13.1307,-26.89236],[13.10276,-26.91332],[13.07482,-26.92729],[13.03291,-26.9692],[12.99798,-26.98666],[12.93512,-26.95872],[12.93162,-26.8749],[12.98401,-26.81553],[13.02941,-26.77362]]],[[[14.02827,-25.87604],[14.00557,-25.84461],[14.03176,-25.8027],[14.09637,-25.73111],[14.14352,-25.69618],[14.17321,-25.64379],[14.33561,-25.63332],[14.35831,-25.57394],[14.40895,-25.58093],[14.45959,-25.62808],[14.43165,-25.69443],[14.33386,-25.71714],[14.16971,-25.78873],[14.1313,-25.81492],[14.11558,-25.85858],[14.02827,-25.87604]]],[[[14.33037,-23.93072],[14.53643,-23.96565],[14.63072,-24.16821],[14.69359,-24.17869],[14.74598,-24.25902],[14.73201,-24.32887],[14.78789,-24.32887],[14.78789,-24.5454],[14.82281,-24.5943],[14.78439,-24.64319],[14.7355,-24.61874],[14.73899,-24.52095],[14.66216,-24.42666],[14.63422,-24.36729],[14.56087,-24.29744],[14.55389,-24.1263],[14.51547,-24.03899],[14.46308,-24.00057],[14.34434,-23.9901],[14.30592,-23.96565],[14.33037,-23.93072]]],[[[13.45375,-23.48019],[13.52709,-23.52909],[13.5236,-23.59544],[13.62488,-23.66529],[13.76458,-23.82246],[13.84142,-23.88881],[13.74712,-23.97962],[13.71569,-24.04598],[13.76808,-24.13329],[13.77157,-24.30442],[13.803,-24.34633],[13.88682,-24.41967],[13.96366,-24.45809],[14.07192,-24.5],[14.10336,-24.55239],[14.05097,-24.60827],[14.04398,-24.79686],[14.0824,-24.89814],[14.09986,-24.98546],[14.07192,-25.08674],[14.05097,-25.20199],[13.97064,-25.18453],[13.97064,-25.09722],[13.90079,-24.94355],[13.85539,-24.8248],[13.78903,-24.74797],[13.68426,-24.71653],[13.67029,-24.79686],[13.56202,-24.84925],[13.4782,-24.88417],[13.39787,-24.93307],[13.31056,-25.02387],[13.25119,-25.12166],[13.24769,-25.23342],[13.12196,-25.31724],[13.04862,-25.40805],[12.98925,-25.49187],[12.91591,-25.55473],[12.86352,-25.5722],[12.79716,-25.49885],[12.48982,-25.50235],[12.46188,-25.54076],[12.06723,-25.54076],[12.02881,-25.60014],[11.94499,-25.62458],[11.89959,-25.60712],[11.8507,-25.50235],[11.97293,-25.51981],[12.02881,-25.48488],[12.04278,-25.27883],[12.1301,-25.27883],[12.13359,-25.20548],[12.2663,-25.18802],[12.39203,-25.1531],[12.48982,-25.09023],[12.59111,-24.96101],[12.58412,-24.79337],[12.55618,-24.71304],[12.44442,-24.60477],[12.43744,-24.5],[12.38156,-24.44761],[12.21042,-24.35681],[12.1301,-24.32188],[12.10565,-24.36729],[11.97293,-24.35332],[11.95896,-24.29394],[12.04278,-24.24505],[12.08819,-24.17869],[12.25233,-24.14726],[12.37457,-24.15075],[12.46538,-24.24156],[12.5457,-24.33935],[12.69588,-24.37427],[12.81113,-24.24854],[12.79018,-24.10884],[12.6854,-24.05296],[12.63651,-23.96565],[12.60857,-23.88881],[12.66095,-23.83643],[12.58761,-23.81896],[12.47935,-23.72816],[12.39902,-23.7107],[12.39902,-23.64783],[12.28027,-23.57449],[12.27678,-23.45574],[12.31171,-23.37891],[12.38505,-23.39637],[12.50379,-23.46622],[12.58761,-23.53956],[12.80415,-23.55703],[12.82859,-23.58846],[12.93337,-23.61291],[13.0102,-23.65831],[13.11149,-23.69673],[13.17784,-23.64783],[13.28262,-23.63037],[13.33151,-23.59894],[13.33501,-23.52909],[13.45375,-23.48019]]]]}},{"type":"Feature","properties":{"name":"Longsister"},"geometry":{"type":"Polygon","coordinates":[[[17.87176,17.42393],[17.78794,17.50775],[17.82286,17.68936],[17.90668,17.75222],[17.97653,17.857],[18.09528,17.9478],[18.36071,17.98273],[18.34674,17.70333],[18.28387,17.6684],[18.1791,17.73127],[18.09528,17.64046],[17.97653,17.45885],[17.87176,17.42393]]]}},{"type":"Feature","properties":{"name":"Sweetsister"},"geometry":{"type":"Polygon","coordinates":[[[19.00333,18.18529],[18.94046,18.02464],[18.86363,18.01765],[18.80076,18.09449],[18.61217,18.09449],[18.55629,18.05258],[18.47945,18.07353],[18.50041,18.1364],[18.66106,18.24117],[18.75187,18.31801],[18.91951,18.31801],[19.01031,18.29705],[19.00333,18.18529]]]}},{"type":"Feature","properties":{"name":"Littlesister"},"geometry":{"type":"Polygon","coordinates":[[[19.34559,18.16434],[19.49926,18.11544],[19.65992,18.09449],[19.76469,17.98971],[19.70183,17.85001],[19.59705,17.84303],[19.49228,17.92685],[19.40846,17.93383],[19.28971,17.97574],[19.19891,18.08052],[19.21986,18.12243],[19.34559,18.16434]]]}},{"type":"Feature","properties":{"name":"Pebble"},"geometry":{"type":"Polygon","coordinates":[[[21.89512,17.89891],[21.93703,17.78715],[21.88813,17.68237],[21.80431,17.64046],[21.68557,17.64046],[21.62969,17.59157],[21.5319,17.61252],[21.48999,17.67539],[21.43411,17.77318],[21.49697,17.82207],[21.60175,17.76619],[21.65763,17.86398],[21.75542,17.84303],[21.84622,17.89891],[21.89512,17.89891]]]}},{"type":"Feature","properties":{"name":"The Paps"},"geometry":{"type":"Polygon","coordinates":[[[24.53195,18.09449],[24.64371,18.04559],[24.75198,18.05607],[24.84977,18.03512],[24.84628,17.98971],[24.77293,17.93733],[24.71356,17.87097],[24.64371,17.84303],[24.63323,17.79413],[24.53894,17.80112],[24.47607,17.83954],[24.39225,17.86398],[24.30494,17.87446],[24.24557,17.94082],[24.24207,18.00718],[24.26303,18.07004],[24.44115,18.04909],[24.53195,18.09449]]]}},{"type":"Feature","properties":{"name":"Claw Isle"},"geometry":{"type":"Polygon","coordinates":[[[25.21997,9.02447],[25.23394,8.90922],[25.27236,8.87779],[25.32126,8.81492],[25.29332,8.73809],[25.2095,8.67872],[25.1152,8.62982],[25.03487,8.62633],[24.96851,8.69269],[24.94407,8.81143],[25.02439,8.86033],[25.09774,8.93716],[25.11171,9.00352],[25.18156,9.04194],[25.21997,9.02447]]]}},{"type":"Feature","properties":{"name":"Dragonstone"},"geometry":{"type":"Polygon","coordinates":[[[24.62625,7.22933],[24.74499,7.22235],[24.76246,7.1525],[24.75547,7.08265],[24.65419,7.06868],[24.61228,7.01978],[24.58783,6.96041],[24.50401,6.94295],[24.3678,6.97089],[24.277,6.95342],[24.19318,6.97089],[24.17222,7.0128],[24.16175,7.08265],[24.22112,7.12456],[24.38876,7.11059],[24.52147,7.12456],[24.58085,7.17345],[24.62625,7.22933]]]}},{"type":"Feature","properties":{"name":"Driftmark"},"geometry":{"type":"Polygon","coordinates":[[[23.87885,6.79975],[23.93823,6.76134],[24.00808,6.69149],[24.02903,6.63561],[23.9522,6.56226],[23.86139,6.55179],[23.8125,6.60417],[23.75662,6.58322],[23.70423,6.52734],[23.66581,6.47844],[23.58898,6.48194],[23.55056,6.52385],[23.45626,6.50289],[23.36546,6.53432],[23.30259,6.54131],[23.29211,6.47844],[23.22226,6.41907],[23.16988,6.46797],[23.18385,6.5448],[23.22226,6.66704],[23.26068,6.75435],[23.37244,6.74387],[23.49119,6.69847],[23.68327,6.71593],[23.8125,6.7788],[23.87885,6.79975]]]}},{"type":"Feature","properties":{"name":"Tarth"},"geometry":{"type":"MultiPolygon","coordinates":[[[[24.85326,1.41432],[25.00693,1.31653],[25.13965,1.21874],[25.27935,1.14889],[25.39111,1.03714],[25.35618,0.89045],[25.40508,0.83457],[25.48191,0.8695],[25.52382,0.81362],[25.56573,0.85553],[25.64256,0.8206],[25.62161,0.50628],[25.50286,0.35261],[25.52382,0.22688],[25.53779,0.12909],[25.59367,0.05225],[25.53779,-0.08046],[25.40508,-0.13634],[25.30729,-0.21318],[25.35618,-0.28303],[25.43302,-0.30398],[25.49588,-0.41574],[25.48191,-0.48559],[25.32824,-0.52052],[25.23045,-0.4367],[25.10472,-0.44368],[24.96502,-0.4367],[24.92311,-0.31097],[24.87422,-0.21318],[24.86025,-0.06649],[24.7904,0.02431],[24.71356,0.07321],[24.6507,0.14306],[24.62974,0.35959],[24.62974,0.52025],[24.58085,0.57613],[24.55291,0.61804],[24.63673,0.69487],[24.69261,0.76472],[24.72753,0.87648],[24.77643,0.95332],[24.74849,1.02317],[24.69959,1.04412],[24.74849,1.21176],[24.71356,1.2397],[24.76246,1.31653],[24.85326,1.41432]]],[[[25.79973,0.37705],[25.84513,0.37007],[25.89053,0.30371],[25.88005,0.20592],[25.82767,0.1221],[25.76131,0.12559],[25.69844,0.20243],[25.71591,0.28276],[25.79973,0.37705]]]]}},{"type":"Feature","properties":{"name":"Estermont"},"geometry":{"type":"MultiPolygon","coordinates":[[[[25.27935,-3.32849],[25.28284,-3.43326],[25.24791,-3.54153],[25.17806,-3.62884],[25.18156,-3.71266],[25.22347,-3.80696],[25.18854,-3.90126],[25.09075,-3.93269],[25.02789,-4.01651],[24.95454,-4.1143],[24.87072,-4.17367],[24.6961,-4.15621],[24.68562,-4.03048],[24.73452,-3.93618],[24.73801,-3.83839],[24.72753,-3.75457],[24.76246,-3.6952],[24.87771,-3.63233],[24.99645,-3.62884],[25.05932,-3.56598],[25.08726,-3.45771],[25.18854,-3.32849],[25.22347,-3.30055],[25.27935,-3.32849]]],[[[25.49937,-2.93383],[25.57621,-2.96876],[25.57621,-3.03861],[25.49239,-3.09449],[25.45746,-3.2272],[25.37364,-3.24816],[25.3457,-3.12941],[25.40857,-3.05258],[25.49937,-2.93383]]]]}},{"type":"Feature","properties":{"name":null},"geometry":{"type":"Polygon","coordinates":[[[22.15007,-4.71151],[22.23389,-4.73247],[22.33168,-4.80232],[22.4155,-4.83026],[22.47138,-4.83026],[22.45042,-4.96297],[22.35263,-5.06775],[22.23389,-5.0887],[22.17801,-5.01885],[22.12213,-4.96996],[22.19198,-4.88614],[22.19198,-4.83026],[22.14308,-4.79533],[22.15007,-4.71151]]]}},{"type":"Feature","properties":{"name":null},"geometry":{"type":"Polygon","coordinates":[[[20.6902,-4.4391],[20.78799,-4.39719],[20.84387,-4.42513],[20.86483,-4.47752],[20.82641,-4.53689],[20.76005,-4.55784],[20.71465,-4.62071],[20.67623,-4.63468],[20.63432,-4.58928],[20.60289,-4.53689],[20.54701,-4.49847],[20.53653,-4.4391],[20.61686,-4.42862],[20.6902,-4.4391]]]}},{"type":"Feature","properties":{"name":null},"geometry":{"type":"Polygon","coordinates":[[[20.2746,-4.47752],[20.34445,-4.55784],[20.32698,-4.64166],[20.25015,-4.65913],[20.14538,-4.63817],[20.0895,-4.63468],[20.09997,-4.54038],[20.16982,-4.47402],[20.2746,-4.47752]]]}},{"type":"Feature","properties":{"name":"Bloodstone"},"geometry":{"type":"Polygon","coordinates":[[[25.77877,-5.22491],[25.83814,-5.19697],[25.92546,-5.31572],[26.06166,-5.33318],[26.14548,-5.44494],[26.14199,-5.54273],[26.12104,-5.64052],[26.12104,-5.72783],[26.05468,-5.82911],[25.94292,-5.87452],[25.88704,-5.90595],[25.83814,-6.00374],[25.82417,-6.12248],[25.72289,-6.15741],[25.60764,-6.15042],[25.60415,-6.02819],[25.54128,-5.9304],[25.52382,-5.81514],[25.54128,-5.6964],[25.674,-5.61607],[25.76829,-5.55321],[25.75083,-5.49034],[25.7648,-5.40303],[25.77179,-5.3227],[25.75782,-5.24936],[25.77877,-5.22491]]]}},{"type":"Feature","properties":{"name":"Grey Gallows"},"geometry":{"type":"Polygon","coordinates":[[[28.29337,-6.75812],[28.31432,-6.82447],[28.24098,-6.91528],[28.26892,-7.12483],[28.20256,-7.25405],[28.02445,-7.48456],[27.86729,-7.49154],[27.73806,-7.61378],[27.65774,-7.63823],[27.66821,-7.54044],[27.88475,-7.38327],[28.04889,-7.25754],[28.11525,-7.16674],[28.13271,-7.06196],[27.93364,-7.03053],[27.66123,-7.02005],[27.63678,-6.96068],[27.68568,-6.93623],[27.8603,-6.90829],[27.98603,-6.78256],[28.0943,-6.75462],[28.29337,-6.75812]]]}},{"type":"Feature","properties":{"name":"Stepstones"},"geometry":{"type":"MultiPolygon","coordinates":[[[[26.79509,-7.60679],[26.82303,-7.66966],[26.86494,-7.70458],[26.64142,-7.85127],[26.5576,-7.94207],[26.50172,-7.94207],[26.5087,-7.89318],[26.54363,-7.86524],[26.64142,-7.7884],[26.66237,-7.71157],[26.79509,-7.60679]]],[[[28.87662,-7.55091],[28.94647,-7.56838],[28.96393,-7.58235],[28.92551,-7.65569],[28.87312,-7.67315],[28.84169,-7.63124],[28.84518,-7.57187],[28.87662,-7.55091]]],[[[28.85217,-6.78606],[28.92202,-6.85241],[28.86265,-6.90829],[28.80327,-6.88385],[28.80327,-6.80701],[28.85217,-6.78606]]],[[[29.16999,-6.35997],[29.23634,-6.40887],[29.27825,-6.45427],[29.2573,-6.50666],[29.3027,-6.55206],[29.3481,-6.57651],[29.34112,-6.6254],[29.26778,-6.69874],[29.15951,-6.62889],[29.1176,-6.58],[28.98139,-6.56952],[28.88709,-6.55206],[28.75089,-6.54857],[28.80327,-6.48221],[28.94996,-6.44379],[29.0722,-6.42982],[29.16999,-6.35997]]],[[[28.50467,-5.43446],[28.50117,-5.50082],[28.4872,-5.57416],[28.3964,-5.61956],[28.42783,-5.73132],[28.36497,-5.79768],[28.29949,-5.82058],[28.24797,-5.80292],[28.14843,-5.90246],[28.00604,-5.90416],[27.97468,-5.95048],[27.91531,-5.97842],[27.89697,-6.03517],[27.87252,-6.02819],[27.84808,-5.98977],[27.9284,-5.91293],[27.94237,-5.82562],[28.00524,-5.7907],[28.20082,-5.78022],[28.28115,-5.7418],[28.34052,-5.66846],[28.32655,-5.55321],[28.50467,-5.43446]]],[[[27.28055,-5.83173],[27.38532,-5.83173],[27.42025,-5.8946],[27.37834,-5.96095],[27.26308,-6.05176],[27.21419,-6.10764],[27.17926,-6.0797],[27.1618,-5.98191],[27.14434,-5.90857],[27.16529,-5.89111],[27.2561,-5.92603],[27.27705,-5.8946],[27.28055,-5.83173]]],[[[28.77883,-5.02147],[28.79978,-5.0075],[28.89757,-5.04243],[28.90456,-5.13323],[28.84868,-5.23801],[28.78581,-5.20308],[28.77883,-5.02147]]],[[[28.98139,-4.73509],[28.91154,-4.82589],[28.8382,-4.77001],[28.84169,-4.73858],[28.90106,-4.70366],[28.94996,-4.70016],[28.98139,-4.73509]]],[[[28.67754,-4.39632],[28.59023,-4.57793],[28.53784,-4.70715],[28.57626,-4.80494],[28.50641,-4.9167],[28.44704,-4.92019],[28.45752,-4.84685],[28.46101,-4.80494],[28.34226,-4.70366],[28.30734,-4.64428],[28.29686,-4.50109],[28.25146,-4.46267],[28.18859,-4.4522],[28.28638,-4.36488],[28.34576,-4.38584],[28.39814,-4.40679],[28.50292,-4.35091],[28.56928,-4.40679],[28.67754,-4.39632]]],[[[27.72759,-4.60587],[27.71362,-4.65476],[27.61233,-4.76652],[27.56693,-4.95162],[27.52502,-5.04243],[27.47613,-5.02147],[27.42025,-4.93416],[27.41675,-4.84685],[27.46914,-4.777],[27.48311,-4.70366],[27.58789,-4.66524],[27.64726,-4.64079],[27.66472,-4.60237],[27.72759,-4.60587]]],[[[27.22117,-4.56745],[27.27705,-4.59888],[27.20371,-4.65476],[27.18974,-4.72461],[27.21768,-4.76652],[27.18974,-4.8678],[27.13735,-4.94813],[26.94876,-5.17864],[26.90685,-5.23102],[26.89986,-5.2869],[26.84398,-5.34977],[26.69381,-5.37072],[26.58903,-5.44057],[26.52966,-5.50693],[26.49124,-5.49645],[26.5122,-5.44407],[26.58554,-5.36723],[26.60999,-5.30437],[26.66237,-5.23452],[26.66237,-5.19959],[26.60999,-5.18911],[26.62046,-5.16816],[26.69031,-5.12625],[26.6973,-4.99004],[26.67285,-4.97258],[26.84049,-4.85034],[26.95225,-4.76652],[27.08147,-4.70366],[27.1164,-4.62333],[27.22117,-4.56745]]],[[[27.38881,-3.21585],[27.47962,-3.2403],[27.50407,-3.27872],[27.49708,-3.34508],[27.52851,-3.39397],[27.60535,-3.42191],[27.63329,-3.4254],[27.6298,-3.49874],[27.63329,-3.58955],[27.52153,-3.62098],[27.46914,-3.60352],[27.41326,-3.55462],[27.3504,-3.5197],[27.37135,-3.44985],[27.41675,-3.35905],[27.38881,-3.30317],[27.35738,-3.2857],[27.38881,-3.21585]]],[[[29.07569,-3.01329],[29.14554,-3.06917],[29.06172,-3.12156],[29.05124,-3.18791],[29.00933,-3.24729],[28.929,-3.2892],[28.79629,-3.33809],[28.72295,-3.38],[28.65659,-3.46033],[28.57975,-3.57907],[28.48196,-3.59304],[28.42608,-3.54415],[28.36322,-3.55113],[28.24447,-3.63146],[28.22352,-3.5651],[28.28988,-3.53018],[28.41561,-3.44985],[28.51689,-3.45334],[28.61119,-3.42889],[28.66357,-3.35206],[28.67405,-3.27872],[28.78232,-3.15648],[28.90805,-3.10409],[28.98838,-3.10759],[29.07569,-3.01329]]]]}},{"type":"Feature","properties":{"name":null},"geometry":{"type":"MultiPolygon","coordinates":[[[[31.85565,-9.01816],[31.93604,-9.12865],[31.88715,-9.21247],[31.82428,-9.45694],[31.69157,-9.6176],[31.60775,-9.7573],[31.39121,-9.79222],[31.28644,-9.86906],[31.10483,-9.95288],[31.02799,-10.0367],[30.99307,-10.1275],[30.81844,-10.26022],[30.75558,-10.07861],[30.74161,-9.91795],[30.78352,-9.77825],[30.74161,-9.66649],[30.72065,-9.51981],[30.88829,-9.59664],[31.05593,-9.67348],[31.37026,-9.66649],[31.55885,-9.60363],[31.6287,-9.46393],[31.74046,-9.429],[31.76142,-9.23342],[31.76739,-9.06477],[31.68991,-8.95889],[31.85565,-9.01816]]],[[[31.3982,-10.14147],[31.45408,-10.19037],[31.34232,-10.37198],[31.32835,-10.44881],[31.23754,-10.51866],[31.15372,-10.5955],[31.09784,-10.58153],[31.18865,-10.52565],[31.24453,-10.42087],[31.27247,-10.34404],[31.33533,-10.28816],[31.3982,-10.14147]]],[[[31.14674,-9.11817],[31.24802,-9.20898],[31.17468,-9.27184],[31.09086,-9.2928],[31.01402,-9.27883],[30.99656,-9.24739],[31.05593,-9.1985],[31.11531,-9.19151],[31.14674,-9.11817]]],[[[31.60076,-9.28232],[31.54838,-9.31026],[31.51345,-9.35915],[31.41915,-9.34868],[31.50297,-9.27883],[31.60076,-9.28232]]]]}},{"type":"Feature","properties":{"name":null},"geometry":{"type":"MultiPolygon","coordinates":[[[[38.48797,-9.06578],[38.43558,-9.09722],[38.36573,-9.13214],[38.35525,-9.18802],[38.29588,-9.18453],[38.23651,-9.22644],[38.1457,-9.17405],[38.15618,-9.10769],[38.1946,-9.10769],[38.25397,-9.11468],[38.32033,-9.08325],[38.41113,-9.03086],[38.48797,-9.06578]]],[[[37.98505,-9.34518],[38.03394,-9.40106],[38.03394,-9.47091],[37.97108,-9.50933],[37.94314,-9.5233],[37.90123,-9.46044],[37.94314,-9.39408],[37.98505,-9.34518]]],[[[38.04791,-9.82016],[38.12824,-9.83413],[38.10379,-9.91097],[38.03744,-9.97383],[38.02696,-10.01574],[37.99203,-9.97733],[38.01648,-9.87954],[38.04791,-9.82016]]],[[[39.16202,-9.8027],[39.19694,-9.8027],[39.18647,-9.86207],[39.20393,-9.89351],[39.25981,-9.96685],[39.34363,-9.95986],[39.38205,-10.0367],[39.44491,-10.07512],[39.49381,-10.0821],[39.44142,-10.13449],[39.47984,-10.19037],[39.52873,-10.22879],[39.52175,-10.26022],[39.42745,-10.24974],[39.37506,-10.15544],[39.29473,-10.12052],[39.24235,-10.04019],[39.14456,-9.93542],[39.08169,-9.92494],[39.06074,-9.87255],[39.06772,-9.82366],[39.11312,-9.82366],[39.13757,-9.84461],[39.14456,-9.80619],[39.16202,-9.8027]]]]}},{"type":"Feature","properties":{"name":null},"geometry":{"type":"Polygon","coordinates":[[[44.56142,-10.3161],[44.64175,-10.39293],[44.69413,-10.46977],[44.68715,-10.52565],[44.65572,-10.58153],[44.61031,-10.52565],[44.59285,-10.47326],[44.53697,-10.43484],[44.48808,-10.44881],[44.47061,-10.37198],[44.56142,-10.3161]]]}},{"type":"Feature","properties":{"name":null},"geometry":{"type":"MultiPolygon","coordinates":[[[[51.04698,-13.41744],[51.09239,-13.39648],[51.19716,-13.386],[51.26003,-13.33012],[51.35782,-13.28123],[51.43465,-13.31615],[51.3648,-13.36854],[51.23558,-13.40347],[51.15176,-13.45236],[51.03302,-13.48729],[51.04698,-13.41744]]],[[[51.6442,-13.68286],[51.8293,-13.63746],[51.85724,-13.75271],[51.85724,-13.88543],[51.9236,-13.95528],[52.08076,-13.95877],[52.10521,-14.14387],[52.12966,-14.22071],[52.10521,-14.2696],[51.97948,-14.26262],[51.84677,-14.22071],[51.71405,-14.24166],[51.52895,-14.29754],[51.43814,-14.39533],[51.28797,-14.42677],[51.29844,-14.31151],[51.37179,-14.19626],[51.52196,-14.11593],[51.64071,-14.0391],[51.67913,-13.94131],[51.65817,-13.83304],[51.6442,-13.68286]]]]}},{"type":"Feature","properties":{"name":null},"geometry":{"type":"MultiPolygon","coordinates":[[[[31.31962,16.7036],[31.29168,16.66169],[31.22532,16.63375],[31.15198,16.67915],[31.1869,16.72456],[31.24977,16.73154],[31.31962,16.7036]]],[[[31.05419,16.74202],[30.98434,16.68614],[31.00879,16.63026],[30.97386,16.62327],[30.92846,16.70011],[30.96338,16.74202],[31.05419,16.74202]]],[[[31.01228,16.52199],[31.08562,16.51501],[31.12753,16.48008],[31.1415,16.42769],[31.07514,16.44865],[31.05419,16.48707],[31.01228,16.52199]]]]}},{"type":"Feature","properties":{"name":null},"geometry":{"type":"Polygon","coordinates":[[[35.329,14.10518],[35.40759,14.08947],[35.46347,14.01263],[35.45124,13.95151],[35.36044,13.96898],[35.29932,14.0528],[35.329,14.10518]]]}},{"type":"Feature","properties":{"name":null},"geometry":{"type":"MultiPolygon","coordinates":[[[[37.85059,15.59997],[37.93091,15.59997],[37.95885,15.47424],[38.01124,15.38344],[38.0776,15.32756],[38.02172,15.25771],[37.9833,15.18087],[37.9833,15.12499],[37.93441,15.07959],[37.90996,15.15293],[37.94488,15.24374],[37.92393,15.32057],[37.91345,15.3555],[37.92742,15.40789],[37.90647,15.46377],[37.87853,15.5406],[37.85059,15.59997]]],[[[37.23591,15.12499],[37.31274,15.11801],[37.43149,15.11102],[37.51531,15.04467],[37.58516,14.97831],[37.60262,14.891],[37.67945,14.83861],[37.70041,14.73733],[37.65151,14.61509],[37.70739,14.54175],[37.80868,14.45094],[37.81217,14.32172],[37.60611,14.30426],[37.50832,14.36014],[37.41053,14.36712],[37.35116,14.42649],[37.21495,14.44745],[37.13462,14.45094],[36.96698,14.59413],[36.81681,14.60461],[36.67362,14.66049],[36.60027,14.73733],[36.50947,14.75828],[36.1914,14.78139],[36.16479,14.84642],[36.36278,14.95735],[36.4955,14.94338],[36.61075,14.85258],[36.73299,14.82464],[36.8657,14.75479],[36.98095,14.76177],[37.12065,14.73733],[37.22194,14.67446],[37.34068,14.66049],[37.44546,14.69542],[37.49086,14.75479],[37.53975,14.83861],[37.51181,14.90147],[37.44196,15.00974],[37.38259,14.99926],[37.21495,15.02371],[37.23591,15.12499]]],[[[36.69806,15.22628],[36.76093,15.22977],[36.85173,15.19135],[36.83427,15.12499],[36.75394,15.17389],[36.70854,15.19135],[36.69806,15.22628]]]]}},{"type":"Feature","properties":{"name":"Ax Isle"},"geometry":{"type":"Polygon","coordinates":[[[67.07929,-29.54753],[67.28884,-29.61738],[67.46347,-29.52658],[67.68698,-29.68723],[67.69397,-29.82693],[67.65905,-29.97362],[67.70794,-30.07839],[67.63111,-30.15523],[67.52633,-30.05045],[67.42156,-30.05744],[67.2609,-30.1692],[67.15613,-30.20412],[67.05834,-30.33683],[66.89768,-30.40668],[66.83482,-30.51844],[66.63225,-30.51844],[66.67416,-30.46955],[66.82085,-30.46256],[66.91864,-30.32286],[67.0304,-30.25302],[67.14333,-30.09355],[67.30759,-29.95964],[67.19804,-29.91774],[67.01643,-29.8409],[67.07929,-29.54753]]]}},{"type":"Feature","properties":{"name":"Isle of Toads"},"geometry":{"type":"Polygon","coordinates":[[[62.75209,-31.95735],[62.85686,-32.13198],[62.95465,-32.13896],[62.85686,-32.27168],[62.78701,-32.34153],[62.64731,-32.22977],[62.67525,-32.0761],[62.75209,-31.95735]]]}},{"type":"Feature","properties":{"name":"Isle of Tears"},"geometry":{"type":"Polygon","coordinates":[[[61.93484,-32.78857],[61.99072,-32.99113],[61.98025,-33.10988],[61.91738,-33.16226],[61.79864,-33.17973],[61.68338,-33.23561],[61.55416,-33.33689],[61.4913,-33.38578],[61.46685,-33.4731],[61.52622,-33.57089],[61.45288,-33.69662],[61.28175,-33.71757],[60.94297,-33.71757],[60.84169,-33.65471],[60.8382,-33.55342],[60.94647,-33.43119],[60.91853,-33.36134],[60.77883,-33.3334],[60.72993,-33.24259],[60.84868,-33.12035],[60.97441,-32.99113],[60.98838,-32.86889],[61.01981,-32.74317],[61.12109,-32.64188],[61.26079,-32.61045],[61.57512,-32.6349],[61.78467,-32.7292],[61.93484,-32.78857]]]}},{"type":"Feature","properties":{"name":null},"geometry":{"type":"Polygon","coordinates":[[[55.57326,-34.56625],[55.59771,-34.62213],[55.49293,-34.68499],[55.38467,-34.62213],[55.40213,-34.56974],[55.57326,-34.56625]]]}},{"type":"Feature","properties":{"name":null},"geometry":{"type":"Polygon","coordinates":[[[55.16115,-35.0063],[55.20306,-35.06218],[55.15765,-35.08663],[55.14019,-35.13902],[55.17861,-35.18093],[55.19258,-35.22284],[55.231,-35.24729],[55.20655,-35.34508],[55.15067,-35.42889],[55.10177,-35.38],[55.1367,-35.26126],[55.08431,-35.06568],[55.16115,-35.0063]]]}},{"type":"Feature","properties":{"name":null},"geometry":{"type":"Polygon","coordinates":[[[54.79793,-35.4743],[54.86079,-35.55113],[54.87127,-35.65241],[54.94461,-35.77116],[54.93413,-35.77116],[54.80491,-35.69782],[54.73855,-35.63495],[54.74554,-35.53716],[54.79793,-35.4743]]]}},{"type":"Feature","properties":{"name":null},"geometry":{"type":"Polygon","coordinates":[[[57.40333,-35.76767],[57.52906,-35.77116],[57.54303,-35.84101],[57.45921,-35.85149],[57.42079,-35.80608],[57.40333,-35.76767]]]}},{"type":"Feature","properties":{"name":null},"geometry":{"type":"Polygon","coordinates":[[[57.51509,-35.91784],[57.54652,-35.90387],[57.65828,-35.99119],[57.56049,-36.04357],[57.47667,-35.94578],[57.51509,-35.91784]]]}},{"type":"Feature","properties":{"name":"Naath"},"geometry":{"type":"MultiPolygon","coordinates":[[[[53.71525,-33.20068],[53.83508,-33.0396],[53.80112,-32.85944],[53.51607,-32.60539],[53.33039,-32.63899],[53.16521,-32.56529],[52.99554,-32.66217],[52.99417,-32.88424],[53.13779,-33.05782],[53.16693,-33.20068],[53.12096,-33.26833],[53.21971,-33.3845],[53.25999,-33.46357],[53.20906,-33.56064],[53.02025,-33.71408],[52.84855,-33.82503],[52.49986,-34.17509],[52.28212,-34.19288],[52.18205,-34.32177],[52.08076,-34.46497],[51.96202,-34.50688],[51.98996,-34.24843],[52.12267,-34.15064],[52.05981,-34.05984],[52.20649,-33.80139],[52.3881,-33.8433],[52.64655,-33.76647],[52.92595,-33.46611],[53.00278,-33.31244],[52.84911,-33.17274],[52.83514,-33.08194],[52.74434,-32.96319],[52.55574,-32.80254],[52.55574,-32.64887],[52.75132,-32.43233],[52.96087,-32.32057],[53.2752,-32.34851],[53.52666,-32.29962],[53.63143,-32.3555],[53.84797,-32.64887],[53.94576,-32.69776],[53.9737,-32.99812],[53.71525,-33.20068]]],[[[53.30663,-32.90382],[53.35902,-32.93874],[53.42887,-32.98415],[53.43585,-33.09241],[53.42887,-33.1448],[53.38347,-33.15179],[53.35203,-33.12035],[53.37648,-33.02256],[53.33806,-32.99462],[53.30663,-32.90382]]]]}},{"type":"Feature","properties":{"name":"Basilisk Isles"},"geometry":{"type":"MultiPolygon","coordinates":[[[[65.8185,-30.04347],[65.87438,-30.08538],[65.83945,-30.21111],[65.7696,-30.1692],[65.7696,-30.09236],[65.8185,-30.04347]]],[[[64.91045,-30.14126],[64.91045,-30.27397],[64.81965,-30.34382],[64.80568,-30.46256],[64.74281,-30.58131],[64.72884,-30.49749],[64.75678,-30.34382],[64.82663,-30.26698],[64.91045,-30.14126]]],[[[64.72186,-28.52074],[64.72186,-28.63948],[64.60311,-28.73029],[64.48437,-28.82109],[64.29577,-28.98873],[64.21195,-28.9119],[64.2818,-28.78617],[64.39356,-28.74426],[64.54723,-28.68139],[64.58914,-28.60456],[64.72186,-28.52074]]],[[[62.68224,-30.1203],[62.53555,-30.36477],[62.39585,-30.56035],[62.29806,-30.57432],[62.326,-30.4905],[62.42379,-30.42065],[62.49364,-30.30889],[62.50063,-30.24603],[62.68224,-30.1203]]],[[[63.5833,-30.83975],[63.61823,-30.93056],[63.67411,-30.99342],[63.56933,-31.02136],[63.52044,-30.9096],[63.5833,-30.83975]]],[[[60.53086,-33.53247],[60.56928,-33.59533],[60.52737,-33.64074],[60.48196,-33.59184],[60.53086,-33.53247]]],[[[60.66357,-33.0051],[60.65659,-33.07495],[60.60769,-33.11686],[60.55181,-33.20767],[60.46799,-33.20068],[60.49943,-33.12385],[60.58674,-32.99812],[60.66357,-33.0051]]],[[[60.47498,-32.68379],[60.47498,-32.73269],[60.35973,-32.78508],[60.18859,-32.88985],[60.11874,-32.83048],[60.30035,-32.74317],[60.38417,-32.72221],[60.47498,-32.68379]]],[[[60.02794,-33.57787],[60.06636,-33.59184],[60.08033,-33.71757],[60.03143,-33.77694],[60.00698,-33.76297],[60.03143,-33.67217],[60.02794,-33.57787]]],[[[58.87891,-33.01558],[58.86843,-33.06797],[58.7881,-33.10289],[58.72524,-33.16576],[58.63094,-33.27402],[58.58903,-33.24259],[58.64142,-33.14829],[58.74969,-33.06098],[58.79509,-33.02955],[58.87891,-33.01558]]],[[[58.0931,-34.17858],[58.14898,-34.23446],[58.05119,-34.31828],[57.96038,-34.50338],[57.89402,-34.54529],[57.85561,-34.50338],[57.91847,-34.42655],[57.96737,-34.29034],[58.0931,-34.17858]]],[[[57.97261,-32.59823],[58.00928,-32.66633],[57.9761,-32.70999],[57.89577,-32.75364],[57.82767,-32.76063],[57.77353,-32.71348],[57.85561,-32.64363],[57.97261,-32.59823]]],[[[57.5797,-32.68554],[57.75258,-32.7973],[57.63383,-32.9108],[57.49763,-32.79206],[57.5797,-32.68554]]],[[[58.84049,-31.7478],[58.94929,-31.89384],[59.05877,-31.96085],[59.20371,-31.92417],[59.37675,-31.8517],[59.43771,-31.83162],[59.51903,-31.68165],[59.67446,-31.70928],[59.74854,-31.60112],[59.83935,-31.57318],[59.88475,-31.62207],[59.91269,-31.81416],[59.84109,-31.94513],[59.79045,-32.03419],[59.77997,-32.1669],[59.69965,-32.23675],[59.70314,-32.11452],[59.64726,-32.1215],[59.53899,-32.22977],[59.40278,-32.31359],[59.22117,-32.34502],[59.03956,-32.45329],[58.94527,-32.41487],[59.00813,-32.28565],[59.01512,-32.12499],[58.9278,-31.97132],[58.81255,-31.93989],[58.73572,-31.83512],[58.77064,-31.77225],[58.84049,-31.7478]]],[[[57.30205,-31.70065],[57.37888,-31.68668],[57.59192,-31.73209],[57.68273,-31.69716],[57.72115,-31.69716],[57.89577,-31.66573],[58.02499,-31.68319],[57.98308,-31.73558],[57.86085,-31.774],[57.73512,-31.82988],[57.63383,-31.85432],[57.30903,-31.94513],[57.24966,-31.80892],[57.30205,-31.70065]]],[[[58.80382,-30.02251],[58.90859,-29.99457],[59.06226,-30.06791],[59.22641,-30.08538],[59.30325,-30.08538],[59.48136,-30.19364],[59.60312,-30.29027],[59.67345,-30.40319],[59.71536,-30.53241],[59.72933,-30.66513],[59.61059,-30.76292],[59.5128,-30.92357],[59.41501,-30.99342],[59.40802,-31.09121],[59.44644,-31.16805],[59.3731,-31.14709],[59.34516,-31.05629],[59.37847,-30.94345],[59.45342,-30.8188],[59.56344,-30.61449],[59.56461,-30.57553],[59.51112,-30.50147],[59.29975,-30.39271],[59.24387,-30.29318],[59.15092,-30.22035],[58.89812,-30.2146],[58.80033,-30.10633],[58.80382,-30.02251]]],[[[59.13386,-30.57432],[59.17926,-30.5848],[59.24213,-30.65116],[59.20371,-30.71053],[59.2072,-30.81531],[59.10941,-30.76641],[59.03956,-30.62322],[59.13386,-30.57432]]],[[[60.84518,-29.94218],[60.88709,-29.97362],[60.86265,-30.0749],[60.80327,-29.99457],[60.84518,-29.94218]]],[[[60.85566,-30.16221],[60.89059,-30.16221],[60.92551,-30.27397],[60.92202,-30.3508],[60.83471,-30.50098],[60.82074,-30.33683],[60.86614,-30.26],[60.85566,-30.16221]]],[[[61.17697,-30.28794],[61.2084,-30.3054],[61.17539,-30.50531],[61.13157,-30.65465],[61.10363,-30.78038],[61.08267,-30.9585],[61.06521,-31.06327],[61.10712,-31.09471],[61.0687,-31.21345],[61.13157,-31.29029],[61.20491,-31.24838],[61.26079,-31.17503],[61.25381,-31.04232],[61.32016,-30.9096],[61.36557,-30.92707],[61.36207,-31.03184],[61.28175,-31.1925],[61.2084,-31.45793],[61.10363,-31.59064],[61.00584,-31.69192],[60.95345,-31.68843],[60.90456,-31.7967],[60.92551,-31.88052],[60.88011,-31.88052],[60.8382,-31.66748],[60.79978,-31.56619],[60.58674,-31.4719],[60.47498,-31.44396],[60.37719,-31.34966],[60.38417,-31.19948],[60.52737,-31.26235],[60.61224,-31.27843],[60.79376,-31.30695],[60.91154,-31.19948],[60.80847,-31.076],[60.68573,-30.97529],[60.67223,-30.83363],[60.7605,-30.80086],[60.8336,-30.88681],[60.86508,-30.99098],[60.95295,-31.05029],[61.01443,-30.9883],[61.01339,-30.81809],[61.11471,-30.49545],[61.17697,-30.28794]]]]}},{"type":"Feature","properties":{"name":"Ghaen"},"geometry":{"type":"MultiPolygon","coordinates":[[[[66.00884,-23.58235],[65.99487,-23.73602],[65.82723,-23.75697],[65.86914,-23.62426],[66.00884,-23.58235]]],[[[66.62352,-23.2331],[66.70035,-23.30993],[66.81211,-23.52647],[66.76322,-23.58933],[66.65146,-23.44265],[66.58859,-23.34486],[66.62352,-23.2331]]],[[[67.31503,-23.35883],[67.1893,-23.24707],[67.0496,-23.0934],[67.01468,-22.78606],[66.88895,-22.73018],[66.70035,-22.73716],[66.45588,-22.68827],[66.33015,-22.65334],[65.93201,-22.66731],[65.85517,-22.82098],[65.79231,-23.00259],[65.7504,-22.97465],[65.70849,-22.55555],[65.82025,-22.33902],[65.77834,-22.18535],[65.91105,-22.07359],[66.10663,-22.03866],[66.43492,-22.01771],[66.59558,-21.98278],[66.74925,-21.89198],[67.08453,-21.98278],[67.14041,-22.13645],[67.03563,-22.19233],[67.03563,-22.35299],[67.19629,-22.54857],[67.22423,-22.79304],[67.21724,-22.96767],[67.30805,-23.08641],[67.28709,-23.21214],[67.31503,-23.35883]]]]}},{"type":"Feature","properties":{"name":null},"geometry":{"type":"Polygon","coordinates":[[[50.97714,-18.30169],[51.03302,-18.45536],[50.93523,-18.65094],[51.14477,-19.36341],[51.11683,-19.55899],[50.97714,-19.79648],[50.9492,-20.03397],[50.86538,-19.71266],[50.97714,-19.29356],[50.90729,-19.13989],[50.76759,-19.16783],[50.76759,-19.05607],[50.86538,-18.88843],[50.83744,-18.73476],[50.73965,-18.56712],[50.82347,-18.42742],[50.97714,-18.30169]]]}},{"type":"Feature","properties":{"name":null},"geometry":{"type":"Polygon","coordinates":[[[51.20065,-22.35299],[51.25653,-22.73018],[51.4102,-22.84194],[51.34035,-22.96767],[51.43814,-22.99561],[51.57784,-23.10737],[51.5499,-23.33089],[51.73151,-23.38677],[51.81533,-23.48456],[51.87121,-23.7919],[51.92709,-23.95954],[51.77342,-24.02939],[51.60578,-23.90366],[51.67563,-23.6522],[51.53593,-23.48456],[51.38226,-23.26104],[51.28447,-23.0934],[51.28447,-22.85591],[51.1308,-22.6743],[51.11683,-22.46475],[51.20065,-22.35299]]]}},{"type":"Feature","properties":{"name":null},"geometry":{"type":"Polygon","coordinates":[[[52.28333,-18.93034],[52.72338,-19.09798],[52.78625,-19.37738],[52.68147,-19.73362],[52.47192,-20.02],[52.3881,-20.18764],[52.40207,-20.39719],[52.27634,-20.59277],[52.23443,-20.74644],[52.43001,-20.81629],[52.6675,-20.70453],[52.75132,-20.4391],[52.83514,-20.36925],[53.05866,-20.42513],[53.19836,-20.45307],[52.98881,-20.77438],[53.07263,-20.90011],[53.17042,-21.03981],[53.01675,-21.23539],[52.76529,-21.33318],[52.2484,-21.417],[52.06679,-21.57067],[52.09473,-21.8361],[51.84327,-22.19932],[51.94106,-22.60445],[51.91312,-22.80003],[51.88518,-22.98164],[51.78739,-22.84194],[51.67563,-22.31108],[51.59181,-22.17138],[51.46608,-22.18535],[51.4102,-21.78022],[51.29146,-21.30524],[51.44513,-20.96297],[51.57784,-20.55086],[51.62588,-20.32793],[51.95034,-20.05876],[51.92819,-19.99145],[51.83733,-19.77106],[51.86775,-19.65528],[52.16143,-19.32239],[52.14421,-19.06928],[52.28333,-18.93034]]]}},{"type":"Feature","properties":{"name":null},"geometry":{"type":"Polygon","coordinates":[[[53.28917,-18.9513],[53.40093,-18.94431],[53.42188,-19.06306],[53.30314,-19.20974],[53.31711,-19.35643],[53.26821,-19.50311],[53.18439,-19.5101],[53.12153,-19.41231],[53.12851,-19.30055],[53.24027,-19.19577],[53.28218,-19.07004],[53.28917,-18.9513]]]}},{"type":"Feature","properties":{"name":null},"geometry":{"type":"Polygon","coordinates":[[[54.36486,-19.37738],[54.56742,-19.39135],[54.64426,-19.4612],[54.63029,-19.64281],[54.50456,-19.69869],[54.35787,-19.87332],[54.2531,-19.9292],[54.19722,-19.83141],[54.24611,-19.69869],[54.37883,-19.55899],[54.36486,-19.37738]]]}},{"type":"Feature","properties":{"name":null},"geometry":{"type":"Polygon","coordinates":[[[52.63258,-21.70338],[52.70941,-21.84308],[52.76529,-22.04565],[52.75132,-22.23424],[52.76529,-22.37394],[52.82816,-22.49967],[52.77228,-22.68128],[52.66052,-22.79304],[52.61162,-22.91877],[52.63258,-23.07244],[52.66052,-23.15626],[52.66052,-23.31692],[52.50685,-23.42169],[52.4824,-23.04799],[52.39588,-22.78348],[52.37064,-22.46475],[52.437,-22.29711],[52.53479,-22.17487],[52.46494,-22.05962],[52.40906,-21.84308],[52.50685,-21.80816],[52.63258,-21.70338]]]}},{"type":"Feature","properties":{"name":null},"geometry":{"type":"Polygon","coordinates":[[[54.00862,-20.49149],[54.13435,-20.75692],[54.46963,-20.74993],[54.66521,-20.5334],[54.72109,-20.254],[55.06336,-20.30289],[55.21703,-20.07937],[55.30783,-19.93269],[55.47547,-19.94666],[55.54532,-20.12827],[55.51738,-20.35179],[55.33577,-20.64516],[55.44753,-20.78486],[55.47547,-21.17602],[55.19607,-21.3716],[55.14019,-21.73482],[55.25195,-22.00723],[55.37768,-22.26568],[55.62914,-22.27965],[55.83869,-22.11201],[55.92251,-22.11201],[55.92251,-22.23774],[55.81075,-22.30759],[55.81075,-22.47523],[55.7409,-22.75462],[55.53135,-22.83844],[55.09828,-22.82447],[55.0424,-23.13181],[55.17512,-23.55091],[55.41959,-23.73252],[55.43356,-23.99795],[55.57326,-24.10971],[55.59422,-24.29132],[55.43356,-24.38911],[55.1821,-24.44499],[55.1821,-24.75233],[54.98652,-24.87806],[54.69315,-24.72439],[54.4836,-24.64057],[54.12038,-24.78027],[53.63143,-24.37514],[53.57555,-24.15162],[53.70128,-24.03986],[53.79907,-23.90016],[53.74319,-23.71855],[53.81304,-23.29945],[53.95274,-22.78256],[53.84098,-22.58698],[53.91083,-22.33553],[53.71525,-22.19583],[53.85495,-21.95834],[53.72922,-21.5113],[53.6454,-21.16205],[53.81304,-20.82677],[53.72922,-20.54737],[54.00862,-20.49149]]]}},{"type":"Feature","properties":{"name":null},"geometry":{"type":"Polygon","coordinates":[[[55.55231,-23.11086],[55.76186,-23.23659],[55.83171,-23.32041],[55.78281,-23.40423],[55.6012,-23.34136],[55.55231,-23.11086]]]}},{"type":"Feature","properties":{"name":null},"geometry":{"type":"Polygon","coordinates":[[[56.00633,-24.14464],[56.06221,-24.43102],[56.0203,-24.71042],[56.11809,-24.94791],[56.10412,-25.0946],[56.06221,-24.99681],[56.10412,-24.96188],[56.05523,-24.89203],[55.92251,-24.73138],[55.75487,-24.72439],[55.48944,-24.91299],[55.34276,-25.00379],[55.3707,-24.91299],[55.41959,-24.84314],[55.58723,-24.7663],[55.77583,-24.58469],[55.90156,-24.50087],[55.95744,-24.31926],[56.00633,-24.14464]]]}},{"type":"Feature","properties":{"name":null},"geometry":{"type":"Polygon","coordinates":[[[56.69784,-21.56019],[56.68387,-21.64401],[56.60704,-21.75577],[56.47432,-21.89547],[56.36955,-22.01422],[56.2508,-21.92341],[56.29271,-21.8815],[56.41146,-21.8815],[56.54417,-21.69291],[56.69784,-21.56019]]]}},{"type":"Feature","properties":{"name":null},"geometry":{"type":"Polygon","coordinates":[[[55.51738,-21.43446],[55.65708,-21.50431],[55.71995,-21.44843],[55.82472,-21.28778],[55.86663,-21.16205],[55.85266,-20.94551],[55.86663,-20.80581],[55.83869,-20.6242],[55.84568,-20.50546],[55.89457,-20.51943],[55.94347,-20.59626],[55.90854,-20.73596],[55.90156,-20.92456],[55.96442,-21.06426],[55.97839,-21.21793],[55.9295,-21.3716],[55.83171,-21.56019],[55.67804,-21.72783],[55.58025,-21.67894],[55.57326,-21.57416],[55.51738,-21.43446]]]}},{"type":"Feature","properties":{"name":null},"geometry":{"type":"Polygon","coordinates":[[[56.34161,-20.51244],[56.41844,-20.56134],[56.41844,-20.69405],[56.34859,-20.7639],[56.2997,-20.61722],[56.34161,-20.51244]]]}},{"type":"Feature","properties":{"name":null},"geometry":{"type":"Polygon","coordinates":[[[57.1379,-20.88963],[57.2287,-20.9525],[57.15885,-21.05727],[57.07503,-20.96647],[57.1379,-20.88963]]]}},{"type":"Feature","properties":{"name":null},"geometry":{"type":"Polygon","coordinates":[[[56.96327,-20.56832],[57.03312,-20.63119],[56.96327,-20.72898],[56.92835,-20.66611],[56.96327,-20.56832]]]}},{"type":"Feature","properties":{"name":null},"geometry":{"type":"Polygon","coordinates":[[[57.24966,-20.69405],[57.22172,-20.63119],[57.34046,-20.42862],[57.37539,-20.45656],[57.24966,-20.69405]]]}},{"type":"Feature","properties":{"name":null},"geometry":{"type":"Polygon","coordinates":[[[57.27061,-20.04445],[57.10996,-20.12827],[56.76769,-20.08636],[56.70483,-20.00952],[56.84453,-20.05143],[57.06805,-20.08636],[57.17282,-20.01651],[57.26363,-19.99555],[57.27061,-20.04445]]]}},{"type":"Feature","properties":{"name":null},"geometry":{"type":"Polygon","coordinates":[[[56.64895,-19.45771],[56.72578,-19.53454],[56.69784,-19.63233],[56.62799,-19.59741],[56.62799,-19.54153],[56.64895,-19.45771]]]}},{"type":"Feature","properties":{"name":null},"geometry":{"type":"Polygon","coordinates":[[[57.06805,-19.29705],[57.089,-19.35992],[57.04709,-19.40183],[57.07503,-19.58344],[56.97026,-19.68821],[56.95629,-19.80696],[56.90739,-19.79997],[56.9493,-19.6952],[57.01217,-19.56947],[57.01217,-19.34595],[57.06805,-19.29705]]]}},{"type":"Feature","properties":{"name":null},"geometry":{"type":"Polygon","coordinates":[[[57.59891,-20.00952],[57.64082,-20.03048],[57.65479,-20.10731],[57.59891,-20.14922],[57.56398,-20.05842],[57.59891,-20.00952]]]}},{"type":"Feature","properties":{"name":null},"geometry":{"type":"Polygon","coordinates":[[[58.08786,-20.10033],[58.2066,-20.08636],[58.33932,-20.00952],[58.47203,-19.91872],[58.43012,-19.786],[58.50696,-19.786],[58.5349,-19.91872],[58.41615,-20.05143],[58.36726,-20.2051],[58.26248,-20.27495],[58.13675,-20.23304],[57.96213,-20.26098],[58.03896,-20.19113],[58.08786,-20.10033]]]}},{"type":"Feature","properties":{"name":null},"geometry":{"type":"Polygon","coordinates":[[[58.46505,-20.59626],[58.47203,-20.70104],[58.45806,-20.79184],[58.37424,-20.87566],[58.33233,-20.84772],[58.43711,-20.72199],[58.41615,-20.61023],[58.46505,-20.59626]]]}},{"type":"Feature","properties":{"name":null},"geometry":{"type":"Polygon","coordinates":[[[59.13561,-20.35877],[59.17752,-20.35179],[59.17752,-20.42862],[59.12164,-20.4845],[59.07274,-20.42164],[59.13561,-20.35877]]]}},{"type":"Feature","properties":{"name":null},"geometry":{"type":"Polygon","coordinates":[[[58.45806,-21.19697],[58.46505,-21.29476],[58.3952,-21.28079],[58.41615,-21.21793],[58.45806,-21.19697]]]}},{"type":"Feature","properties":{"name":null},"geometry":{"type":"Polygon","coordinates":[[[58.18565,-20.58229],[58.17866,-20.7639],[58.07389,-20.91757],[58.08087,-21.13411],[58.12977,-21.35763],[57.99705,-21.50431],[57.92022,-21.76276],[57.9761,-22.01422],[57.95514,-22.25171],[57.89228,-22.4892],[57.89926,-22.74764],[57.84338,-22.92925],[57.80846,-23.1388],[57.64082,-23.28548],[57.48715,-23.24357],[57.38936,-23.28548],[57.29157,-23.44614],[57.09599,-23.58584],[57.04011,-23.54393],[57.07503,-23.42518],[57.11694,-23.30644],[57.24267,-23.05498],[57.24966,-22.82447],[57.15187,-22.75462],[57.04011,-22.64286],[57.01217,-22.51714],[57.02614,-22.37045],[57.01217,-22.24472],[57.09599,-22.18884],[57.17282,-22.10502],[57.15187,-21.92341],[57.17282,-21.69989],[57.19378,-21.39255],[57.24966,-21.30873],[57.34745,-21.21094],[57.43127,-21.0433],[57.45222,-20.92456],[57.4173,-20.80581],[57.41031,-20.72898],[57.52906,-20.72898],[57.73861,-20.73596],[57.81544,-20.66611],[57.98308,-20.61023],[58.18565,-20.58229]]]}},{"type":"Feature","properties":{"name":null},"geometry":{"type":"Polygon","coordinates":[[[59.26832,-19.10846],[59.24737,-19.19926],[59.21943,-19.24117],[59.30325,-19.35992],[59.28229,-19.42278],[59.26134,-19.52057],[59.15656,-19.58344],[59.10068,-19.54153],[59.19149,-19.48565],[59.20546,-19.37389],[59.12862,-19.25514],[59.1845,-19.19926],[59.26832,-19.10846]]]}},{"type":"Feature","properties":{"name":"Isle of Cedars"},"geometry":{"type":"MultiPolygon","coordinates":[[[[60.14145,-15.05716],[60.36497,-15.02922],[60.61643,-15.09907],[60.71422,-15.32259],[60.84693,-15.46928],[60.95171,-15.6928],[61.0006,-15.82551],[61.15427,-15.94426],[61.37779,-16.02808],[61.44065,-16.18175],[61.53146,-16.31446],[61.54543,-16.46813],[61.47558,-16.69165],[61.47558,-16.82437],[61.28,-16.97804],[61.21714,-17.18759],[61.02156,-17.21553],[61.00759,-17.06884],[61.09141,-16.99899],[61.14729,-16.80341],[61.17523,-16.58688],[61.17523,-16.46813],[60.99362,-16.23763],[60.97266,-16.09793],[60.79804,-15.93727],[60.69326,-15.76963],[60.59547,-15.58104],[60.41386,-15.46928],[60.15542,-15.49722],[60.08557,-15.3645],[60.0716,-15.21083],[60.14145,-15.05716]]],[[[60.65135,-16.27954],[60.71422,-16.34939],[60.7212,-16.44718],[60.7701,-16.54497],[60.89583,-16.50306],[60.8609,-16.57989],[60.7701,-16.67768],[60.66532,-16.62879],[60.6304,-16.44718],[60.65135,-16.27954]]]]}},{"type":"Feature","properties":{"name":"Yaros"},"geometry":{"type":"Polygon","coordinates":[[[64.79345,-12.74164],[64.87378,-12.73814],[64.90521,-12.78005],[64.97506,-12.77307],[65.0519,-12.72068],[65.13572,-12.72767],[65.12524,-12.76958],[64.97506,-12.86737],[64.94712,-13.00707],[64.9122,-13.12581],[64.84235,-13.15026],[64.80742,-13.08041],[64.88426,-12.98611],[64.88426,-12.88832],[64.83187,-12.83943],[64.78996,-12.78704],[64.79345,-12.74164]]]}},{"type":"Feature","properties":{"name":null},"geometry":{"type":"Polygon","coordinates":[[[55.88759,-19.07703],[55.93997,-19.12592],[55.95394,-19.20276],[55.85266,-19.18529],[55.84218,-19.15386],[55.88759,-19.07703]]]}},{"type":"Feature","properties":{"name":null},"geometry":{"type":"Polygon","coordinates":[[[55.83171,-19.26213],[55.89806,-19.25514],[55.90854,-19.33198],[55.84568,-19.39834],[55.80027,-19.37738],[55.83171,-19.32499],[55.83171,-19.26213]]]}},{"type":"Feature","properties":{"name":"Isle of Faces"},"geometry":{"type":"Polygon","coordinates":[[[16.96345,7.62041],[17.1241,7.60295],[17.24983,7.51564],[17.26031,7.43531],[17.21141,7.35498],[17.19744,7.25719],[17.18697,7.18734],[17.07171,7.12797],[16.95995,7.07558],[16.88661,7.11051],[16.86216,7.28164],[16.8447,7.43531],[16.91106,7.51913],[16.96345,7.62041]]]}},{"type":"Feature","properties":{"name":null},"geometry":{"type":"Polygon","coordinates":[[[30.49798,3.68112],[30.43233,3.66799],[30.38966,3.67455],[30.34452,3.73118],[30.25178,3.75662],[30.23209,3.79273],[30.29118,3.80258],[30.34944,3.75416],[30.42248,3.72707],[30.49798,3.68112]]]}},{"type":"Feature","properties":{"name":null},"geometry":{"type":"Polygon","coordinates":[[[30.91535,16.33858],[31.02953,16.30315],[31.0748,16.22244],[31.01575,16.17126],[30.96654,16.16929],[30.90354,16.22047],[30.91535,16.33858]]]}},{"type":"Feature","properties":{"name":null},"geometry":{"type":"Polygon","coordinates":[[[57.66929,-13.40748],[57.74016,-13.41929],[57.78346,-13.45472],[57.75197,-13.55709],[57.87008,-13.75],[57.82677,-13.81693],[57.64173,-13.76969],[57.66929,-13.40748]]]}},{"type":"Feature","properties":{"name":null},"geometry":{"type":"Polygon","coordinates":[[[64.70866,-18.83268],[64.92913,-18.94291],[65.23622,-19.3248],[65.22047,-19.48622],[65.1378,-19.42323],[64.77559,-18.96654],[64.65354,-18.90354],[64.70866,-18.83268]]]}}]}