{"type":"FeatureCollection","features":[{"type":"Feature","properties":{"name":"Westeros","kind":"continent","sizeRank":1},"geometry":{"type":"Point","coordinates":[13.22372,2.88531]}},{"type":"Feature","properties":{"name":"Essos","kind":"continent","sizeRank":1},"geometry":{"type":"Point","coordinates":[79.36717,-12.9852]}},{"type":"Feature","properties":{"name":"Sothoryos","kind":"continent","sizeRank":1},"geometry":{"type":"Point","coordinates":[66.76998,-37.05615]}},{"type":"Feature","properties":{"name":"The Gift","kind":"kingdom","sizeRank":3},"geometry":{"type":"Point","coordinates":[18.16208,33.49397]}},{"type":"Feature","properties":{"name":"The Riverlands","kind":"kingdom","sizeRank":1},"geometry":{"type":"Point","coordinates":[15.76613,8.54884]}},{"type":"Feature","properties":{"name":"Lands of the Free Folk","kind":"kingdom","sizeRank":2},"geometry":{"type":"Point","coordinates":[13.5,39.5]}},{"type":"Feature","properties":{"name":"The North","kind":"kingdom","sizeRank":1},"geometry":{"type":"Point","coordinates":[16.38287,26.25113]}},{"type":"Feature","properties":{"name":"The Iron Islands","kind":"kingdom","sizeRank":3},"geometry":{"type":"Point","coordinates":[6.08933,11.80925]}},{"type":"Feature","properties":{"name":"Dorne","kind":"kingdom","sizeRank":1},"geometry":{"type":"Point","coordinates":[13.96302,-7.12713]}},{"type":"Feature","properties":{"name":"The Stormlands","kind":"kingdom","sizeRank":1},"geometry":{"type":"Point","coordinates":[20.87937,0.70559]}},{"type":"Feature","properties":{"name":"The Vale","kind":"kingdom","sizeRank":1},"geometry":{"type":"Point","coordinates":[19.99229,12.85364]}},{"type":"Feature","properties":{"name":"The Westerlands","kind":"kingdom","sizeRank":1},"geometry":{"type":"Point","coordinates":[10.10996,5.38805]}},{"type":"Feature","properties":{"name":"The Crownlands","kind":"kingdom","sizeRank":2},"geometry":{"type":"Point","coordinates":[19.88987,5.46546]}},{"type":"Feature","properties":{"name":"The Reach","kind":"kingdom","sizeRank":1},"geometry":{"type":"Point","coordinates":[15.4701,1.22789]}},{"type":"Feature","properties":{"name":"Rainwood","kind":"forest","sizeRank":2},"geometry":{"type":"Point","coordinates":[22.8451,-3.17655]}},{"type":"Feature","properties":{"name":"Kingswood","kind":"forest","sizeRank":1},"geometry":{"type":"Point","coordinates":[20.3782,1.75812]}},{"type":"Feature","properties":{"name":"Whispering Wood","kind":"forest","sizeRank":3},"geometry":{"type":"Point","coordinates":[13.23081,9.81939]}},{"type":"Feature","properties":{"name":"Wolfswood","kind":"forest","sizeRank":1},"geometry":{"type":"Point","coordinates":[12.28543,27.75197]}},{"type":"Feature","properties":{"name":"Hornwood","kind":"forest","sizeRank":2},"geometry":{"type":"Point","coordinates":[18.81707,25.56496]}},{"type":"Feature","properties":{"name":"The Haunted Forest","kind":"forest","sizeRank":1},"geometry":{"type":"Point","coordinates":[17.99274,36.86676]}},{"type":"Feature","properties":{"name":"Forest of Qohor","kind":"forest","sizeRank":1},"geometry":{"type":"Point","coordinates":[47.98761,6.10224]}},{"type":"Feature","properties":{"name":"Lonely Hills","kind":"mountain","sizeRank":1},"geometry":{"type":"Point","coordinates":[18.94152,28.98651]}},{"type":"Feature","properties":{"name":"Mother of Mountains","kind":"mountain","sizeRank":3},"geometry":{"type":"Point","coordinates":[65.33997,-1.02746]}},{"type":"Feature","properties":{"name":"The Dothraki Sea","kind":"desert","sizeRank":1},"geometry":{"type":"Point","coordinates":[61.00049,-1.32005]}},{"type":"Feature","properties":{"name":"Barrowlands","kind":"region","sizeRank":1},"geometry":{"type":"Point","coordinates":[12.74576,22.66855]}},{"type":"Feature","properties":{"name":"The Rills","kind":"region","sizeRank":2},"geometry":{"type":"Point","coordinates":[7.80426,22.095]}},{"type":"Feature","properties":{"name":"The Stone Shore","kind":"region","sizeRank":3},"geometry":{"type":"Point","coordinates":[5.40582,24.07233]}},{"type":"Feature","properties":{"name":"The Frozen Shore","kind":"region","sizeRank":2},"geometry":{"type":"Point","coordinates":[9.84674,35.01018]}},{"type":"Feature","properties":{"name":"The Land of Always Winter","kind":"region","sizeRank":1},"geometry":{"type":"Point","coordinates":[6.53038,44.69734]}},{"type":"Feature","properties":{"name":"The Skirling Pass","kind":"region","sizeRank":2},"geometry":{"type":"Point","coordinates":[14.10029,36.78399]}},{"type":"Feature","properties":{"name":"The Grey Cliffs","kind":"region","sizeRank":3},"geometry":{"type":"Point","coordinates":[24.63058,28.86738]}},{"type":"Feature","properties":{"name":"The Neck","kind":"region","sizeRank":1},"geometry":{"type":"Point","coordinates":[13.7769,17.39402]}},{"type":"Feature","properties":{"name":"The Flint Cliffs","kind":"region","sizeRank":2},"geometry":{"type":"Point","coordinates":[8.00048,16.88874]}},{"type":"Feature","properties":{"name":"Hags Mire","kind":"region","sizeRank":3},"geometry":{"type":"Point","coordinates":[13.95983,12.74047]}},{"type":"Feature","properties":{"name":"Cape Kraken","kind":"region","sizeRank":2},"geometry":{"type":"Point","coordinates":[4.77468,18.63702]}},{"type":"Feature","properties":{"name":"Cape of Eagles","kind":"region","sizeRank":3},"geometry":{"type":"Point","coordinates":[10.63996,13.66399]}},{"type":"Feature","properties":{"name":"Massey's Hook","kind":"region","sizeRank":2},"geometry":{"type":"Point","coordinates":[23.75762,4.88405]}},{"type":"Feature","properties":{"name":"Storrold's Point","kind":"region","sizeRank":3},"geometry":{"type":"Point","coordinates":[21.30185,37.89982]}},{"type":"Feature","properties":{"name":"Lhazar","kind":"region","sizeRank":1},"geometry":{"type":"Point","coordinates":[75.67227,-4.87217]}},{"type":"Feature","properties":{"name":"The Red Waste","kind":"region","sizeRank":1},"geometry":{"type":"Point","coordinates":[82.3085,-19.76715]}},{"type":"Feature","properties":{"name":"The Flatlands","kind":"region","sizeRank":1},"geometry":{"type":"Point","coordinates":[34.35762,1.75949]}},{"type":"Feature","properties":{"name":"The Disputed Lands","kind":"region","sizeRank":1},"geometry":{"type":"Point","coordinates":[35.32413,-5.22109]}},{"type":"Feature","properties":{"name":"The Orange Shore","kind":"region","sizeRank":2},"geometry":{"type":"Point","coordinates":[38.75032,-8.21106]}},{"type":"Feature","properties":{"name":"Sea Dragon Point","kind":"region","sizeRank":2},"geometry":{"type":"Point","coordinates":[6.9855,30.9763]}},{"type":"Feature","properties":{"name":"Sheepshead Hills","kind":"region","sizeRank":2},"geometry":{"type":"Point","coordinates":[17.89182,26.6576]}},{"type":"Feature","properties":{"name":"The Fingers","kind":"region","sizeRank":1},"geometry":{"type":"Point","coordinates":[22.99514,16.46555]}},{"type":"Feature","properties":{"name":"Three Sisters","kind":"region","sizeRank":3},"geometry":{"type":"Point","coordinates":[18.96211,17.9562]}},{"type":"Feature","properties":{"name":"Mountains of the Moon","kind":"mountains","sizeRank":2},"geometry":{"type":"Point","coordinates":[19.6,12.9]}},{"type":"Feature","properties":{"name":"The Red Mountains","kind":"mountains","sizeRank":2},"geometry":{"type":"Point","coordinates":[20.2,-6.3]}},{"type":"Feature","properties":{"name":"The Frostfangs","kind":"mountains","sizeRank":2},"geometry":{"type":"Point","coordinates":[15.6,37.8]}}]}