{"type":"FeatureCollection","features":[{"type":"Feature","properties":{"name":"Saltspear","kind":"bay","sizeRank":3},"geometry":{"type":"Point","coordinates":[8.73403,19.82685]}},{"type":"Feature","properties":{"name":"Blazewater Bay","kind":"bay","sizeRank":2},"geometry":{"type":"Point","coordinates":[6.57872,19.59988]}},{"type":"Feature","properties":{"name":"Ironman's Bay","kind":"bay","sizeRank":2},"geometry":{"type":"Point","coordinates":[11.32491,11.90412]}},{"type":"Feature","properties":{"name":"The Sunset Sea","kind":"sea","sizeRank":1},"geometry":{"type":"Point","coordinates":[4.36973,-2.8994]}},{"type":"Feature","properties":{"name":"Whispering Sound","kind":"bay","sizeRank":3},"geometry":{"type":"Point","coordinates":[6.18863,-8.00585]}},{"type":"Feature","properties":{"name":"Redwyne Straits","kind":"strait","sizeRank":2},"geometry":{"type":"Point","coordinates":[6.6754,-9.5037]}},{"type":"Feature","properties":{"name":"Summer Sea","kind":"sea","sizeRank":1},"geometry":{"type":"Point","coordinates":[33.97195,-26.28324]}},{"type":"Feature","properties":{"name":"Sea of Dorne","kind":"bay","sizeRank":1},"geometry":{"type":"Point","coordinates":[22.60426,-5.88546]}},{"type":"Feature","properties":{"name":"Shipbreaker Bay","kind":"bay","sizeRank":2},"geometry":{"type":"Point","coordinates":[24.56934,-1.27855]}},{"type":"Feature","properties":{"name":"Sea of Myrth","kind":"bay","sizeRank":2},"geometry":{"type":"Point","coordinates":[30.74993,-2.15986]}},{"type":"Feature","properties":{"name":"The Narrow Sea","kind":"sea","sizeRank":1},"geometry":{"type":"Point","coordinates":[27.69781,2.25278]}},{"type":"Feature","properties":{"name":"Straits of Tarth","kind":"strait","sizeRank":2},"geometry":{"type":"Point","coordinates":[24.01599,0.21943]}},{"type":"Feature","properties":{"name":"Blackwater Bay","kind":"bay","sizeRank":2},"geometry":{"type":"Point","coordinates":[22.3838,4.95024]}},{"type":"Feature","properties":{"name":"Bay of Crabs","kind":"bay","sizeRank":2},"geometry":{"type":"Point","coordinates":[24.10315,10.4976]}},{"type":"Feature","properties":{"name":"The Shivering Sea","kind":"sea","sizeRank":1},"geometry":{"type":"Point","coordinates":[75.1567,33.18842]}},{"type":"Feature","properties":{"name":"Bay of Seals","kind":"bay","sizeRank":2},"geometry":{"type":"Point","coordinates":[24.28999,32.31832]}},{"type":"Feature","properties":{"name":"The Jade Sea","kind":"sea","sizeRank":2},"geometry":{"type":"Point","coordinates":[90.95527,-36.77979]}},{"type":"Feature","properties":{"name":"The Smoking Sea","kind":"sea","sizeRank":3},"geometry":{"type":"Point","coordinates":[52.52205,-18.84767]}},{"type":"Feature","properties":{"name":"The Gulf of Grief","kind":"bay","sizeRank":1},"geometry":{"type":"Point","coordinates":[62.07188,-23.07712]}},{"type":"Feature","properties":{"name":"Bay of Ice","kind":"bay","sizeRank":1},"geometry":{"type":"Point","coordinates":[10.50636,31.92307]}},{"type":"Feature","properties":{"name":"The Bite","kind":"bay","sizeRank":2},"geometry":{"type":"Point","coordinates":[16.51397,17.14321]}}]}