{"type":"FeatureCollection","features":[{"type":"Feature","properties":{"name":"God's Eye"},"geometry":{"type":"Polygon","coordinates":[[[16.72945,8.23509],[17.05076,8.23858],[17.11362,8.18969],[17.23935,8.04999],[17.35461,7.89283],[17.5432,7.89283],[17.63051,7.84044],[17.6829,7.74614],[17.65845,7.63089],[17.60956,7.5331],[17.56765,7.42134],[17.61305,7.30609],[17.65496,7.27465],[17.65496,7.16988],[17.62353,7.04764],[17.64099,6.92191],[17.53971,6.81015],[17.43493,6.69839],[17.24285,6.63553],[17.01933,6.63203],[16.86915,6.56917],[16.71574,6.41121],[16.705,6.53424],[16.68754,6.79618],[16.65261,6.90794],[16.53736,7.12098],[16.5199,7.26767],[16.48148,7.42832],[16.5199,7.58549],[16.52688,7.7182],[16.45703,7.87536],[16.48847,7.94172],[16.6107,8.01157],[16.65261,8.14079],[16.68405,8.1862],[16.72945,8.23509]]]}},{"type":"Feature","properties":{"name":"Red Lake"},"geometry":{"type":"Polygon","coordinates":[[[8.36492,1.36186],[8.43935,1.4023],[8.52208,1.40726],[8.60939,1.44218],[8.67924,1.41774],[8.74211,1.35836],[8.72115,1.29201],[8.67226,1.21867],[8.57098,1.24311],[8.49065,1.21867],[8.42778,1.16279],[8.33,1.14882],[8.28809,1.19771],[8.35444,1.27105],[8.36492,1.36186]]]}},{"type":"Feature","properties":{"name":null},"geometry":{"type":"Polygon","coordinates":[[[11.34163,23.91097],[11.34402,24.01419],[11.34053,24.1504],[11.3545,24.25867],[11.42784,24.31804],[11.51515,24.35645],[11.51864,24.41233],[11.59897,24.45774],[11.71772,24.49615],[11.78757,24.51711],[11.88186,24.56251],[11.96568,24.51012],[12.02156,24.44726],[12.03553,24.39138],[12.0041,24.30407],[11.9587,24.23771],[11.97267,24.19929],[12.03553,24.16786],[12.09141,24.16088],[12.11935,24.11547],[12.12285,24.04562],[12.1438,24.01419],[12.13332,23.96879],[12.08094,23.93037],[12.00759,23.91291],[11.9133,23.92339],[11.83297,23.88846],[11.72819,23.83607],[11.62691,23.83258],[11.52912,23.88148],[11.43832,23.87798],[11.34163,23.91097]]]}},{"type":"Feature","properties":{"name":null},"geometry":{"type":"Polygon","coordinates":[[[9.5253,23.86578],[9.47553,23.91989],[9.43362,23.98974],[9.43013,24.07356],[9.38473,24.12944],[9.4034,24.19736],[9.42664,24.2901],[9.43362,24.37741],[9.51744,24.46821],[9.55586,24.54505],[9.59357,24.60696],[9.62571,24.53806],[9.61174,24.40535],[9.6327,24.30756],[9.64317,24.21676],[9.62571,24.07356],[9.60825,23.94434],[9.56983,23.90942],[9.5253,23.86578]]]}},{"type":"Feature","properties":{"name":null},"geometry":{"type":"Polygon","coordinates":[[[9.64233,25.10433],[9.56634,25.1737],[9.50347,25.30292],[9.46506,25.39722],[9.46156,25.51596],[9.48252,25.61725],[9.493,25.69059],[9.54189,25.73599],[9.58729,25.76393],[9.65365,25.7325],[9.71652,25.67662],[9.71302,25.56835],[9.72001,25.46008],[9.67461,25.39023],[9.68858,25.2645],[9.69207,25.14576],[9.64233,25.10433]]]}},{"type":"Feature","properties":{"name":"Long Lake"},"geometry":{"type":"Polygon","coordinates":[[[17.17117,28.77854],[17.1695,28.91067],[17.15903,28.97004],[17.17998,29.06434],[17.16252,29.16213],[17.09267,29.29485],[17.05425,29.37168],[17.05425,29.45201],[17.11712,29.54281],[17.17998,29.65806],[17.19744,29.76633],[17.19744,29.91302],[17.22189,30.02478],[17.22888,30.16448],[17.25332,30.29021],[17.35461,30.40197],[17.51526,30.44038],[17.56765,30.46483],[17.65147,30.46832],[17.70735,30.4334],[17.70386,30.388],[17.65147,30.34259],[17.6829,30.29021],[17.72481,30.17146],[17.69687,30.00033],[17.66195,29.85364],[17.55368,29.72791],[17.51177,29.57774],[17.47684,29.42756],[17.43843,29.29485],[17.44541,29.16912],[17.41049,29.03989],[17.33016,28.91416],[17.25682,28.83034],[17.17117,28.77854]]]}},{"type":"Feature","properties":{"name":null},"geometry":{"type":"Polygon","coordinates":[[[13.99351,43.29103],[14.06336,43.27706],[14.11924,43.17927],[14.19608,43.07449],[14.23799,42.87193],[14.20306,42.81605],[14.07733,42.89987],[14.0005,43.01861],[13.98653,43.17927],[13.99351,43.29103]]]}},{"type":"Feature","properties":{"name":null},"geometry":{"type":"Polygon","coordinates":[[[13.05753,42.0477],[12.89687,42.20835],[12.75019,42.30614],[12.7432,42.44584],[12.67335,42.50871],[12.58953,42.5576],[12.54064,42.59951],[12.56858,42.67635],[12.54064,42.71826],[12.49873,42.76017],[12.42888,42.82303],[12.4638,42.83002],[12.54762,42.77414],[12.62446,42.68333],[12.76416,42.61348],[12.87592,42.50172],[12.97371,42.3271],[13.04356,42.15247],[13.05753,42.0477]]]}},{"type":"Feature","properties":{"name":null},"geometry":{"type":"Polygon","coordinates":[[[13.00165,43.15831],[12.95974,43.12339],[12.90656,43.16123],[12.82702,43.19324],[12.7432,43.15133],[12.63843,43.06751],[12.55471,43.14069],[12.44285,43.33992],[12.35903,43.36786],[12.3241,43.41676],[12.42189,43.47264],[12.44983,43.54947],[12.49174,43.61932],[12.44983,43.6752],[12.44285,43.71711],[12.50571,43.72409],[12.55461,43.70314],[12.59652,43.71711],[12.61945,43.79989],[12.68451,43.89965],[12.76509,43.91207],[12.96036,43.86098],[13.035,43.88183],[13.08682,43.96773],[13.16187,43.984],[13.27823,43.96294],[13.34735,43.77987],[13.33693,43.68218],[13.23215,43.66123],[13.23215,43.59836],[13.28803,43.5355],[13.26009,43.46565],[13.19723,43.42374],[13.21453,43.32668],[13.21463,43.25965],[13.11341,43.22816],[13.00165,43.15831]]]}},{"type":"Feature","properties":{"name":null},"geometry":{"type":"Polygon","coordinates":[[[14.45103,43.48661],[14.34276,43.7206],[14.25196,43.89173],[14.18909,43.97206],[14.21005,44.07334],[14.11924,44.13621],[14.11924,44.24797],[14.10877,44.37021],[14.1402,44.49244],[14.0913,44.59023],[14.04241,44.67056],[13.99351,44.72295],[13.98653,44.85566],[13.92366,44.95345],[13.92017,45.05124],[13.97954,45.10014],[14.0948,45.07918],[14.16115,44.99536],[14.14718,44.9325],[14.22402,44.81026],[14.3707,44.69501],[14.43357,44.68104],[14.48945,44.52038],[14.6047,44.4645],[14.64312,44.35973],[14.70598,44.24098],[14.72694,44.17113],[14.74091,44.02445],[14.79679,43.98254],[14.75488,43.94063],[14.78282,43.85681],[14.84918,43.67171],[14.92252,43.58789],[14.90156,43.5355],[14.80377,43.59836],[14.73392,43.72409],[14.65709,43.80791],[14.58724,43.87776],[14.55231,43.92666],[14.49643,43.91269],[14.48945,43.88475],[14.5593,43.74505],[14.58025,43.61932],[14.61518,43.52153],[14.58025,43.45168],[14.54533,43.43771],[14.45103,43.48661]]]}},{"type":"Feature","properties":{"name":null},"geometry":{"type":"Polygon","coordinates":[[[21.84986,14.72457],[21.79149,14.62242],[21.68726,14.59324],[21.60804,14.52236],[21.60804,14.42646],[21.52465,14.35141],[21.42042,14.28054],[21.35371,14.27011],[21.39957,14.34725],[21.43293,14.42229],[21.4496,14.50151],[21.4913,14.59741],[21.52465,14.6808],[21.61221,14.70581],[21.73312,14.70998],[21.84986,14.72457]]]}},{"type":"Feature","properties":{"name":null},"geometry":{"type":"Polygon","coordinates":[[[34.52478,0.80718],[34.48309,0.89891],[34.52061,1.03441],[34.5498,1.2262],[34.61234,1.37213],[34.72074,1.51389],[34.78328,1.59728],[34.78745,1.79324],[34.76244,1.84744],[34.77911,1.91415],[34.82498,1.935],[34.87918,1.87663],[34.88752,1.80158],[34.87501,1.65982],[34.91253,1.60979],[34.9167,1.46803],[34.85833,1.29291],[34.8083,1.18868],[34.7541,1.13031],[34.7124,1.12614],[34.67488,1.0636],[34.68322,1.0094],[34.64986,0.89474],[34.59447,0.82321],[34.52478,0.80718]]]}},{"type":"Feature","properties":{"name":null},"geometry":{"type":"Polygon","coordinates":[[[35.73807,-3.94591],[35.8298,-3.97927],[35.95905,-4.01679],[36.06328,-4.10018],[36.05911,-4.16272],[36.01325,-4.22526],[35.97156,-4.25028],[36.02159,-4.30448],[36.07996,-4.40038],[36.05911,-4.588],[36.00908,-4.70474],[35.92986,-4.77145],[35.86315,-4.82565],[35.84648,-4.9007],[35.81312,-4.99243],[35.7756,-5.04663],[35.72139,-5.06331],[35.71306,-5.15087],[35.66719,-5.23425],[35.56296,-5.32181],[35.4212,-5.3093],[35.33364,-5.25093],[35.30029,-5.17588],[35.35866,-5.12168],[35.39201,-5.06748],[35.40452,-5.02161],[35.39618,-4.97992],[35.34198,-4.97575],[35.35032,-4.87986],[35.42954,-4.80064],[35.46289,-4.70474],[35.43788,-4.57966],[35.39618,-4.46709],[35.3795,-4.39621],[35.40035,-4.35868],[35.45455,-4.32116],[35.44621,-4.25445],[35.40452,-4.21275],[35.38367,-4.17106],[35.42954,-4.09184],[35.53377,-4.0835],[35.62133,-4.01679],[35.68387,-3.99595],[35.73807,-3.94591]]]}},{"type":"Feature","properties":{"name":null},"geometry":{"type":"Polygon","coordinates":[[[34.86042,-5.71999],[34.90211,-5.78253],[34.95214,-5.87217],[34.95631,-6.0181],[34.88752,-6.11399],[34.84791,-6.20363],[34.79162,-6.26617],[34.71657,-6.35999],[34.64152,-6.41836],[34.57064,-6.42044],[34.52895,-6.34331],[34.55397,-6.22657],[34.56231,-5.85132],[34.59566,-5.75543],[34.66237,-5.70956],[34.71657,-5.72624],[34.73534,-5.76585],[34.76655,-5.76566],[34.8083,-5.70956],[34.86042,-5.71999]]]}},{"type":"Feature","properties":{"name":"The Sea of Sighs"},"geometry":{"type":"Polygon","coordinates":[[[52.92843,-16.38318],[52.88674,-16.29145],[52.95345,-16.17054],[53.0285,-16.05797],[53.14941,-15.97041],[53.26198,-15.88285],[53.34954,-15.78696],[53.43709,-15.63686],[53.49964,-15.47842],[53.57051,-15.34083],[53.59553,-15.16989],[53.59553,-15.07399],[53.61638,-14.98644],[53.65807,-14.91973],[53.62472,-14.8822],[53.56218,-14.85301],[53.51631,-14.85718],[53.47462,-14.84468],[53.48713,-14.74878],[53.57468,-14.6779],[53.56635,-14.58201],[53.60387,-14.48194],[53.5455,-14.41106],[53.45794,-14.37771],[53.45794,-14.43608],[53.39957,-14.52363],[53.35788,-14.59451],[53.30367,-14.61119],[53.25364,-14.54865],[53.22863,-14.44025],[53.26198,-14.35269],[53.33286,-14.21093],[53.42459,-14.09002],[53.58302,-14.0108],[53.64139,-13.95243],[53.66224,-13.86904],[53.73312,-13.72728],[53.82485,-13.69393],[53.87071,-13.64806],[53.94993,-13.50214],[54.07501,-13.33119],[54.12087,-13.20611],[54.17924,-13.15608],[54.2668,-13.05601],[54.321,-12.99347],[54.40439,-12.8392],[54.51696,-12.70161],[54.59201,-12.52233],[54.67957,-12.28468],[54.75879,-12.18878],[54.85468,-12.12207],[54.96309,-12.02201],[55.05898,-11.87608],[55.14237,-11.81771],[55.2883,-11.73015],[55.4926,-11.61341],[55.81781,-11.57171],[56.0638,-11.58839],[56.13051,-11.64676],[56.20556,-11.67595],[56.27644,-11.63425],[56.5141,-11.63425],[56.61416,-11.68845],[56.59332,-11.751],[56.48908,-11.75933],[56.31397,-11.73432],[56.18055,-11.74266],[55.91371,-11.87608],[55.80947,-11.88859],[55.72608,-11.88025],[55.58433,-11.98448],[55.45924,-12.08872],[55.3967,-12.2138],[55.43006,-12.24715],[55.5468,-12.1721],[55.77195,-12.19712],[55.90537,-12.24715],[55.98876,-12.33054],[55.94706,-12.39725],[55.88035,-12.39725],[55.68022,-12.36389],[55.57182,-12.38057],[55.5885,-12.41393],[55.73859,-12.49731],[55.82198,-12.63073],[55.91371,-12.84754],[55.88035,-13.02266],[55.78863,-13.14774],[55.74693,-13.14774],[55.73025,-13.07269],[55.75527,-12.93927],[55.78863,-12.77249],[55.64687,-12.63073],[55.50511,-12.53067],[55.33833,-12.50565],[55.10485,-12.63073],[54.94641,-12.86422],[54.71293,-13.27282],[54.3627,-13.78148],[54.13755,-14.38187],[54.01247,-14.79047],[53.94576,-15.15738],[53.88739,-15.50761],[53.76231,-15.83282],[53.66224,-15.94956],[53.42667,-16.04546],[53.29143,-16.12793],[53.19319,-16.23933],[53.13209,-16.31209],[53.04517,-16.35399],[52.92843,-16.38318]]]}},{"type":"Feature","properties":{"name":null},"geometry":{"type":"Polygon","coordinates":[[[83.25025,-6.96455],[82.88335,-6.9979],[82.08283,-6.8478],[81.56582,-6.52259],[81.10719,-5.94722],[80.97377,-5.49692],[80.81534,-4.98826],[80.90706,-4.60468],[81.11553,-4.21275],[81.41573,-3.9209],[81.53247,-3.65406],[81.63253,-3.42891],[81.67423,-3.22044],[81.59918,-3.05367],[81.23227,-2.75347],[80.94042,-2.46161],[80.37338,-2.04468],[80.19827,-1.79451],[80.20661,-1.53601],[80.10654,-1.28585],[80.26498,-0.81888],[80.30667,-0.58539],[80.19827,-0.41028],[80.07319,-0.30187],[79.74797,-0.06839],[79.35605,0.6821],[79.40608,0.97396],[79.52283,1.4576],[79.54784,1.64106],[79.51449,1.8662],[79.60621,2.0163],[79.5395,2.34985],[79.43944,2.77513],[79.22263,2.95858],[79.13091,3.16705],[78.93078,3.40054],[78.80569,3.63402],[78.79735,3.77578],[78.73064,4.00093],[78.90576,3.91754],[78.94745,3.7591],[79.04752,3.53396],[79.15592,3.45891],[79.33937,3.30881],[79.40608,3.06699],[79.57286,2.96692],[79.70628,2.82516],[79.78133,2.65839],[79.77299,2.4249],[79.88973,2.30816],[80.16491,2.1664],[80.61521,1.98295],[80.70693,1.67441],[80.89038,1.64106],[81.10719,1.35754],[81.36569,1.22412],[81.44074,1.34086],[81.59918,1.48262],[81.79931,1.58269],[81.83266,1.84119],[82.06615,1.85786],[82.2496,1.7578],[82.51644,1.53265],[82.61651,1.19076],[82.63319,0.87389],[82.61651,0.61539],[83.13351,-0.04337],[83.3253,-0.09341],[83.56713,-0.26852],[84.01742,-0.25184],[84.30094,-0.40194],[84.54276,-0.46865],[84.66784,-0.60207],[84.70954,-0.70214],[84.42602,-1.03569],[84.52608,-1.29419],[84.50941,-1.39425],[84.86797,-1.61106],[84.90967,-1.74448],[85.20986,-1.95295],[85.11814,-2.01966],[85.2182,-2.31152],[85.20152,-2.6951],[85.44335,-3.29549],[85.42667,-3.38722],[85.63514,-3.85419],[85.55175,-4.30448],[85.69351,-4.7381],[85.76856,-4.92989],[85.72687,-5.16337],[85.78524,-5.33849],[85.85195,-5.35516],[85.60178,-5.54696],[85.49338,-5.53862],[85.00973,-5.09666],[84.75123,-4.44624],[84.401,-4.05432],[84.20087,-3.8792],[84.09247,-3.92924],[83.89234,-4.24611],[83.60882,-4.33784],[83.25859,-4.55464],[83.08348,-4.87152],[82.89169,-5.31347],[82.83332,-5.72207],[82.90003,-6.11399],[82.97507,-6.28911],[83.25025,-6.38083],[83.43371,-6.44754],[83.51709,-6.57262],[83.49208,-6.7394],[83.40869,-6.88116],[83.25025,-6.96455]]]}},{"type":"Feature","properties":{"name":"Dagger Lake"},"geometry":{"type":"Polygon","coordinates":[[[40.881,0.1505],[40.81221,0.17552],[40.70589,0.39858],[40.6642,0.54451],[40.6642,0.66542],[40.63084,0.76966],[40.58081,0.83637],[40.53494,0.91975],[40.57247,0.97813],[40.62459,1.04067],[40.69964,1.12197],[40.73924,1.19076],[40.80387,1.295],[40.86433,1.28249],[40.87683,1.21786],[40.88578,1.15532],[40.92687,1.10321],[40.91019,1.07402],[40.90602,0.92809],[40.96439,0.89057],[40.96439,0.79884],[40.91436,0.75298],[40.92687,0.59037],[40.96856,0.55285],[40.95605,0.4236],[40.88934,0.33604],[40.90855,0.25329],[40.881,0.1505]]]}},{"type":"Feature","properties":{"name":null},"geometry":{"type":"Polygon","coordinates":[[[43.78185,7.11441],[43.75266,7.18529],[43.74641,7.24158],[43.761,7.31454],[43.77143,7.42086],[43.75266,7.52927],[43.72348,7.5793],[43.72973,7.63558],[43.77768,7.68562],[43.80687,7.73148],[43.79644,7.80027],[43.77977,7.88158],[43.79644,7.97122],[43.83397,8.04835],[43.89859,8.11715],[43.99866,8.19011],[44.06954,8.21304],[44.14876,8.2047],[44.19879,8.18594],[44.20921,8.10672],[44.20504,8.03376],[44.22172,7.97539],[44.19045,7.90868],[44.14459,7.85656],[44.0883,7.84405],[44.07579,7.78151],[44.07996,7.55428],[44.03827,7.50633],[43.9924,7.43128],[43.96113,7.37708],[43.95071,7.31663],[43.91735,7.23949],[43.89025,7.20405],[43.84422,7.15039],[43.78185,7.11441]]]}},{"type":"Feature","properties":{"name":"Womb of the World"},"geometry":{"type":"Polygon","coordinates":[[[64.79553,-1.51829],[64.76218,-1.47243],[64.77051,-1.34526],[64.81638,-1.26396],[64.89977,-1.23686],[65.00608,-1.2452],[65.10615,-1.3265],[65.10407,-1.4766],[65.05403,-1.51829],[65.00608,-1.52872],[64.97273,-1.49328],[64.93312,-1.4766],[64.89351,-1.52038],[64.79553,-1.51829]]]}}]}