{"type":"FeatureCollection","features":[{"type":"Feature","properties":{"name":"Rainwood","type":"forest"},"geometry":{"type":"Polygon","coordinates":[[[23.23228,-4.62402],[22.96457,-4.5374],[22.99606,-4.27756],[23.22441,-4.18307],[22.98031,-4.03346],[22.76772,-4.15157],[22.46063,-4.09646],[22.25591,-3.80512],[21.93307,-4.04134],[21.70472,-4.04134],[21.42913,-3.82874],[21.16142,-3.86811],[20.88583,-4.01772],[20.41339,-3.82087],[20.4685,-3.66339],[20.31102,-3.3878],[19.98031,-3.3248],[19.99606,-3.18307],[19.97244,-2.9626],[20.09843,-2.71063],[20.20866,-2.60827],[20.68898,-2.61614],[20.87008,-2.68701],[21.11417,-2.7815],[21.30315,-2.70276],[21.50787,-2.66339],[21.76772,-2.69488],[22.00394,-2.3563],[22.11417,-2.49016],[22.35039,-2.22244],[22.05906,-2.01772],[22.12205,-1.85236],[22.33465,-1.86024],[22.47638,-1.79724],[22.7126,-1.91535],[22.74409,-2.15945],[22.94882,-2.26969],[23.20866,-2.3878],[23.38976,-2.13583],[23.19291,-1.86024],[23.48425,-1.77362],[23.69685,-1.92323],[23.66535,-2.02559],[23.82283,-1.99409],[24.02756,-2.1122],[24.24803,-2.24606],[24.4685,-2.29331],[24.79134,-2.26181],[24.99606,-1.97047],[25.18504,-1.94685],[25.26378,-2.08858],[25.09843,-2.33268],[25.14567,-2.58465],[24.91732,-2.79724],[24.61024,-2.97047],[24.37402,-3.01772],[24.12992,-3.15945],[24.04331,-3.52165],[23.90157,-3.75787],[23.90157,-3.94685],[23.99606,-4.09646],[23.99606,-4.3248],[23.7126,-4.37205],[23.38189,-4.49803],[23.26378,-4.43504],[23.23228,-4.62402]]]}},{"type":"Feature","properties":{"name":"Kingswood","type":"forest"},"geometry":{"type":"Polygon","coordinates":[[[22.38976,3.39961],[22.4685,3.2185],[22.35039,3.00591],[22.34252,2.80118],[22.4685,2.6752],[22.12205,2.54921],[22.09055,2.32087],[22.32677,2.40748],[22.40551,2.28937],[22.36614,2.05315],[22.20866,1.95866],[22.21654,1.65945],[21.78346,1.62795],[21.62598,0.36811],[21.17717,0.18701],[20.63386,0.32087],[20.08268,0.38386],[19.63386,0.32874],[19.09843,0.06102],[18.83858,0.0374],[18.61811,0.54134],[18.95669,1.06102],[18.83858,1.23425],[18.55512,1.0689],[17.78346,1.95079],[18.49213,2.58858],[17.80709,2.94291],[18.35827,3.36811],[18.8937,3.41535],[19.35827,3.2185],[19.47638,2.99016],[20.5,3.31299],[21.64173,3.53346],[22.38976,3.39961]]]}},{"type":"Feature","properties":{"name":null,"type":"forest"},"geometry":{"type":"Polygon","coordinates":[[[7.57874,3.87205],[7.94882,3.73819],[8.01969,3.2815],[7.9252,3.04528],[7.63386,2.89567],[7.38189,1.99016],[7.49213,1.59646],[7.12205,0.98228],[6.6811,1.04528],[6.47638,1.93504],[6.72047,2.47047],[6.9252,2.6122],[6.80709,3.01378],[6.90157,3.40748],[7.3189,3.83268],[7.57874,3.87205]]]}},{"type":"Feature","properties":{"name":null,"type":"forest"},"geometry":{"type":"Polygon","coordinates":[[[17.29528,8.05709],[17.3937,8.2185],[17.61024,8.24213],[17.79528,8.09252],[17.77165,7.95866],[17.9685,7.89961],[17.98425,7.78937],[17.93701,7.70276],[17.96457,7.60039],[17.76772,7.37598],[17.62205,7.52165],[17.72441,7.63189],[17.72835,7.75787],[17.59449,7.92717],[17.35461,7.89283],[17.29528,8.05709]]]}},{"type":"Feature","properties":{"name":null,"type":"forest"},"geometry":{"type":"Polygon","coordinates":[[[14.04331,8.92323],[14.1378,8.81299],[13.93701,8.80512],[13.88189,8.98228],[13.99213,9.12008],[14.18898,9.06496],[14.04331,8.92323]]]}},{"type":"Feature","properties":{"name":"Whispering Wood","type":"forest"},"geometry":{"type":"Polygon","coordinates":[[[12.9685,9.71457],[13.08661,9.86417],[13.3189,10.33268],[13.45669,10.49409],[13.61417,10.28543],[13.3937,9.91535],[13.37402,9.74606],[13.11811,9.55709],[12.9685,9.71457]]]}},{"type":"Feature","properties":{"name":null,"type":"forest"},"geometry":{"type":"Polygon","coordinates":[[[22.50394,15.90354],[22.56693,15.70669],[22.22047,15.34449],[22.02362,15.15551],[21.76378,14.83268],[20.8189,14.14764],[20.71654,14.53346],[20.16535,15.23425],[20.65354,15.49409],[20.95276,16.0689],[21.40945,16.10827],[21.62205,16.43898],[21.97638,16.48622],[22.10236,16.38386],[21.85827,15.76969],[22.50394,15.90354]]]}},{"type":"Feature","properties":{"name":null,"type":"forest"},"geometry":{"type":"Polygon","coordinates":[[[11.19685,19.56496],[12.53543,19.54921],[12.53543,19.17126],[12.22047,18.99803],[12.4252,18.54134],[11.76378,17.73819],[12.18898,17.04528],[11.93701,16.39961],[12.23622,15.45472],[12.33071,14.47835],[11.79528,14.55709],[11.41732,14.98228],[11.11811,15.78543],[10.75591,16.13189],[10.99213,16.58858],[10.66142,17.01378],[10.34646,17.51772],[10.74016,18.10039],[10.28346,18.63583],[10.69291,18.65157],[10.83465,19.36024],[11.19685,19.56496]]]}},{"type":"Feature","properties":{"name":"Wolfswood","type":"forest"},"geometry":{"type":"Polygon","coordinates":[[[10.70079,30.05315],[11.61417,29.6437],[13.66142,30.05315],[15.38628,29.67702],[17.44094,31.81693],[18.41732,31.65945],[19.07874,32.66732],[19.67717,32.63583],[19.74016,32.28937],[18.98425,31.72244],[19.20472,31.25],[18.35433,30.27362],[17.70735,30.4334],[17.35461,30.40197],[17.05425,29.37168],[17.25197,28.44685],[16.71654,27.56496],[14.66929,27.43898],[14.48031,26.39961],[13.75591,26.27362],[13.50394,25.6122],[12.59055,25.76969],[11.55118,25.51772],[10.73228,25.73819],[10.07087,26.36811],[10.25984,27.72244],[9.37795,27.37598],[9.15748,28.32087],[10.70079,29.6122],[10.70079,30.05315]]]}},{"type":"Feature","properties":{"name":"Hornwood","type":"forest"},"geometry":{"type":"Polygon","coordinates":[[[18.98425,26.35236],[20.07087,25.29724],[20.00787,24.87205],[19.76413,24.59871],[19.47244,24.99803],[18.92126,24.95079],[19.12598,24.50984],[18.87402,24.33661],[18.02967,25.04067],[18.30709,26.05315],[18.98425,26.35236]]]}},{"type":"Feature","properties":{"name":null,"type":"forest"},"geometry":{"type":"Polygon","coordinates":[[[21.72441,31.43898],[22.9685,31.42323],[23.17323,31.10827],[23.62992,31.15551],[23.53543,30.58858],[24.10236,31.32874],[24.52756,31.53346],[24.93701,30.84055],[24.82677,30.4311],[25.06299,30.02165],[24.85827,29.6752],[24.38583,29.62795],[24.44882,29.10827],[24.01064,28.6034],[23.67717,29.20276],[23.62992,27.6122],[22.98425,27.2815],[22.66929,27.56496],[22.62205,27.81693],[22.27559,27.54921],[21.8189,27.81693],[21.85039,28.65157],[22.00787,29.25],[22.65354,28.84055],[22.87402,29.02953],[22.48031,29.53346],[22.48031,30.10039],[22.16535,30.27362],[22.25984,30.60433],[22.03937,31.06102],[21.51969,31.09252],[21.72441,31.43898]]]}},{"type":"Feature","properties":{"name":"The Haunted Forest","type":"forest"},"geometry":{"type":"Polygon","coordinates":[[[16.73228,35.37598],[16.92126,36.10039],[14.93701,38.49409],[15.06299,39.2185],[13.51969,40.54134],[12.73228,41.54921],[13.14173,42.80906],[14.07733,42.89987],[14.43307,42.4626],[15.12598,43.06102],[15.91339,42.99803],[15.56693,42.05315],[15.47244,40.8563],[15.99213,39.75394],[16.44882,38.99803],[17.0315,38.73031],[17.74016,38.33661],[18.85827,38.0374],[19.48819,36.8563],[20.49606,37.23425],[20.87402,36.25787],[20.30709,35.09252],[16.73228,35.37598]]]}},{"type":"Feature","properties":{"name":"Forest of Qohor","type":"forest"},"geometry":{"type":"Polygon","coordinates":[[[44.98425,9.48622],[45.4252,10.36811],[47.53543,10.49409],[49.11024,10.27362],[49.3622,9.39173],[51.03657,9.45343],[51.75591,6.62008],[54.40157,6.87205],[56.66929,4.98228],[56.70693,2.9492],[52.5748,0.69882],[50.55906,2.84055],[47.37795,2.4626],[46.2126,0.22638],[44.66576,0.91454],[44.44882,3.81693],[44.85827,4.44685],[44.19685,4.8248],[44.36556,7.35207],[45.01575,8.10039],[42.37008,8.32087],[42.36426,8.68627],[41.63045,8.75298],[42.05512,9.6122],[43.66142,9.51772],[44.29134,9.86417],[44.98425,9.48622]]]}},{"type":"Feature","properties":{"name":null,"type":"forest"},"geometry":{"type":"Polygon","coordinates":[[[91.88189,-41.78937],[53.55118,-41.94685],[57.89764,-37.60039],[57.96063,-37.09646],[58.33858,-36.75],[57.86614,-35.1437],[58.84252,-33.94685],[58.7881,-33.10289],[59.34646,-33.06496],[59.72441,-33.5689],[59.62992,-33.85236],[59.72441,-34.67126],[60.54331,-35.1122],[61.55118,-35.20669],[62.90551,-34.00984],[63.09449,-32.7815],[63.50394,-31.74213],[64.35433,-31.01772],[65.55118,-31.42717],[67.56693,-32.34055],[70.71654,-32.87598],[71.66142,-34.07283],[74.46457,-35.26969],[81.11024,-37.22244],[82.14961,-37.25394],[83.06299,-36.49803],[83.8189,-35.99409],[86.37008,-36.05709],[89.26772,-38.16732],[90.84252,-39.39567],[91.8189,-41.03346],[91.88189,-41.78937]]]}},{"type":"Feature","properties":{"name":null,"type":"mountain"},"geometry":{"type":"Polygon","coordinates":[[[20.3867,-8.03867],[21.46807,-7.31039],[22.72601,-7.59729],[24.03911,-7.13384],[24.80049,-7.48694],[23.77428,-8.51315],[21.87635,-8.14901],[20.3867,-8.03867]]]}},{"type":"Feature","properties":{"name":null,"type":"mountain"},"geometry":{"type":"Polygon","coordinates":[[[20.71773,-8.71177],[19.36049,-9.05384],[20.30945,-9.19729],[21.0598,-9.47315],[19.54807,-10.03591],[17.48463,-9.38487],[17.52876,-8.93246],[18.48876,-8.73384],[18.4667,-8.07177],[19.63635,-8.64556],[20.71773,-8.71177]]]}},{"type":"Feature","properties":{"name":null,"type":"mountain"},"geometry":{"type":"Polygon","coordinates":[[[11.96739,-10.83039],[11.21704,-10.49936],[11.19497,-9.35177],[11.4598,-8.20418],[12.36463,-7.23315],[12.43083,-6.08556],[11.96739,-6.21798],[11.39359,-7.34349],[11.08463,-8.18212],[10.00325,-8.71177],[9.51773,-8.46901],[9.98118,-6.99039],[9.45152,-6.19591],[9.5398,-5.51177],[10.8198,-4.51867],[13.0929,-3.34901],[13.82118,-3.32694],[13.97566,-4.38625],[14.35083,-3.65798],[14.81428,-2.62074],[15.89566,-2.86349],[17.28601,-2.02487],[17.99221,-0.54625],[19.29428,0.07168],[20.30945,0.24823],[21.74876,0.29539],[21.89842,0.82202],[22.36187,0.79995],[22.53842,0.42478],[21.76601,-0.06074],[21.47911,-0.61246],[21.30256,-1.25246],[22.0529,-1.91453],[22.11417,-2.49016],[21.03773,-2.68694],[20.39773,-2.15729],[20.37566,-0.83315],[19.60325,-1.45108],[19.84601,-2.46625],[19.44876,-3.70212],[17.2198,-3.90074],[16.49152,-4.32005],[16.2929,-4.78349],[17.70532,-4.45246],[16.91083,-5.88694],[15.60876,-6.17384],[15.47635,-6.7697],[17.37428,-6.90212],[16.80049,-8.42487],[13.82118,-8.46901],[11.96739,-10.83039]]]}},{"type":"Feature","properties":{"name":null,"type":"mountain"},"geometry":{"type":"Polygon","coordinates":[[[9.47359,1.92547],[8.39221,2.94064],[7.88463,4.02202],[9.1867,5.34616],[8.43635,5.41237],[8.2598,6.25099],[7.57566,6.07444],[7.06807,6.40547],[8.10532,6.91306],[7.92876,7.53099],[8.2598,8.14892],[8.98807,9.80409],[8.56876,10.2234],[8.70118,10.5103],[9.49566,10.31168],[11.76876,10.7972],[12.92843,11.62985],[13.75497,11.10616],[13.49964,10.29982],[12.69566,9.91444],[10.57704,9.11995],[10.24601,8.78892],[12.29842,8.96547],[11.30532,7.75168],[11.34945,7.44271],[11.59221,6.42754],[13.49014,6.78064],[13.42394,5.19168],[13.57842,4.86064],[12.07773,4.44133],[12.51911,4.08823],[12.56325,3.55857],[11.63635,3.60271],[12.03359,2.63168],[10.22394,2.91857],[9.47359,1.92547]]]}},{"type":"Feature","properties":{"name":null,"type":"mountain"},"geometry":{"type":"Polygon","coordinates":[[[25.05428,13.9972],[24.56876,13.59995],[24.92187,13.40133],[22.29566,12.03306],[23.50945,11.81237],[22.36187,11.32685],[22.89152,10.73099],[21.9867,9.69375],[19.64739,9.40685],[18.25704,10.06892],[15.96187,11.96685],[15.41014,13.95306],[15.67497,15.16685],[16.66807,15.9172],[17.28601,16.02754],[18.10256,16.40271],[19.95635,16.9103],[20.90532,16.97651],[22.00876,16.95444],[21.3467,16.40271],[20.53014,15.67444],[21.52325,14.87995],[21.03773,14.17375],[22.18532,14.54892],[23.24463,15.21099],[24.63497,15.29926],[23.95083,14.52685],[22.45014,13.79857],[20.83911,12.7834],[20.48601,12.27582],[20.97152,12.29788],[22.25152,13.37926],[24.12739,14.23995],[25.05428,13.9972]]]}},{"type":"Feature","properties":{"name":null,"type":"mountain"},"geometry":{"type":"Polygon","coordinates":[[[5.94256,23.5972],[6.04061,25.09278],[7.44325,25.64961],[8.08325,26.75306],[10.46052,28.69367],[12.9198,29.95386],[13.90945,31.49788],[13.34273,32.78915],[14.97093,33.38134],[15.25856,34.47973],[17.2371,34.99556],[18.16876,32.79995],[16.20463,30.85788],[14.90256,27.52547],[13.18118,25.5172],[13.18118,24.2372],[13.04876,23.22202],[10.48876,21.89788],[10.00325,23.70754],[8.17152,23.44271],[5.94256,23.5972]]]}},{"type":"Feature","properties":{"name":"Lonely Hills","type":"mountain"},"geometry":{"type":"Polygon","coordinates":[[[18.01428,30.10754],[19.25014,30.65926],[20.00049,29.90892],[20.92739,29.64409],[21.01566,28.34202],[19.95635,28.01099],[19.4929,27.26064],[18.25704,27.37099],[17.10945,27.63582],[17.44541,29.16912],[18.01428,30.10754]]]}},{"type":"Feature","properties":{"name":null,"type":"mountain"},"geometry":{"type":"Polygon","coordinates":[[[16.55773,35.4703],[14.85842,34.36685],[13.6667,34.56547],[13.42394,35.31582],[13.99773,35.58064],[12.07773,38.18478],[9.87083,38.60409],[11.01842,40.3034],[9.31911,42.57651],[8.5467,46.04133],[8.76739,47.14478],[11.41566,46.90202],[12.71773,45.4234],[11.37152,43.41513],[14.06394,41.36271],[16.20463,36.77237],[16.55773,35.4703]]]}},{"type":"Feature","properties":{"name":null,"type":"mountain"},"geometry":{"type":"Polygon","coordinates":[[[43.15083,13.55582],[43.37152,12.98202],[43.7467,12.7834],[43.59221,12.03306],[43.30532,12.4303],[43.04049,11.32685],[43.28325,11.01788],[43.15083,10.46616],[44.03359,10.2234],[44.65152,9.53926],[43.70256,9.05375],[42.59911,9.45099],[42.20187,9.89237],[41.49566,9.29651],[41.38532,8.63444],[41.67221,7.72961],[40.78945,7.15582],[40.34807,7.88409],[39.46532,8.85513],[38.22945,10.06892],[38.16325,9.07582],[38.9798,7.22202],[38.53842,6.0303],[37.03773,7.13375],[35.80187,9.03168],[34.58807,9.67168],[33.5067,10.92961],[32.64601,11.96685],[32.09428,11.98892],[32.5798,10.92961],[32.20463,10.75306],[31.52049,10.64271],[31.27773,10.46616],[30.74807,10.90754],[30.92463,11.54754],[30.90256,12.29788],[31.18945,13.4234],[31.67497,13.31306],[31.91773,13.95306],[32.69014,13.22478],[33.70532,13.15857],[33.66118,13.62202],[32.53566,14.83582],[31.96187,15.38754],[32.44739,15.49788],[34.19083,14.7034],[34.61014,13.44547],[34.7867,11.92271],[35.25014,11.32685],[35.93428,11.67995],[36.81704,11.90064],[37.61152,12.31995],[37.39083,13.4234],[37.74394,13.24685],[38.53842,13.44547],[39.53152,13.9972],[40.01704,13.9972],[40.70118,13.20271],[41.09842,11.98892],[42.22394,11.4372],[42.62118,11.96685],[42.44463,12.38616],[42.57704,12.7834],[42.75359,12.95995],[43.15083,13.55582]]]}},{"type":"Feature","properties":{"name":null,"type":"mountain"},"geometry":{"type":"Polygon","coordinates":[[[32.46945,9.41788],[32.85566,9.43995],[33.16463,9.17513],[33.12049,8.67857],[33.42945,8.24823],[33.15359,7.77375],[32.83359,7.6634],[32.56876,7.90616],[32.18256,8.43582],[31.42118,8.77788],[31.59773,9.04271],[32.19359,9.11995],[32.46945,9.41788]]]}},{"type":"Feature","properties":{"name":null,"type":"mountain"},"geometry":{"type":"Polygon","coordinates":[[[33.69428,6.85788],[34.84187,5.97513],[37.31359,3.45926],[38.77014,1.60547],[39.34394,0.19306],[39.6529,-2.45522],[40.71221,-3.77936],[40.16049,-6.91315],[38.9467,-6.91315],[38.57152,-5.14763],[38.81428,-3.27177],[37.90945,-2.27867],[37.29152,0.28133],[35.76876,3.72409],[33.91497,5.24685],[33.69428,6.85788]]]}},{"type":"Feature","properties":{"name":null,"type":"mountain"},"geometry":{"type":"Polygon","coordinates":[[[51.85704,-6.18487],[53.64463,-6.29522],[55.71911,-6.93522],[57.61704,-6.33936],[59.69152,-6.56005],[60.50807,-7.42074],[60.22118,-8.6566],[59.11773,-10.0028],[58.1467,-12.36418],[57.08739,-11.59177],[57.99221,-9.95867],[56.9329,-10.2897],[54.88049,-10.59867],[51.30532,-9.34074],[50.37842,-7.7297],[51.85704,-6.18487]]]}},{"type":"Feature","properties":{"name":null,"type":"mountain"},"geometry":{"type":"Polygon","coordinates":[[[47.44325,-7.18901],[48.18256,-7.55315],[48.71221,-8.20418],[48.08325,-8.48005],[47.41014,-8.31453],[46.61566,-8.16005],[47.37704,-7.78487],[47.44325,-7.18901]]]}},{"type":"Feature","properties":{"name":null,"type":"mountain"},"geometry":{"type":"Polygon","coordinates":[[[55.35497,-12.61798],[55.59773,-13.19177],[55.85152,-14.20694],[55.48739,-15.6966],[54.83635,-15.58625],[54.18532,-14.56005],[54.68187,-13.39039],[55.35497,-12.61798]]]}},{"type":"Feature","properties":{"name":null,"type":"mountain"},"geometry":{"type":"Polygon","coordinates":[[[58.32325,-15.66349],[58.86394,-16.07177],[59.1067,-16.54625],[58.58807,-16.83315],[57.8929,-16.35867],[57.38532,-16.42487],[57.79359,-17.31867],[58.45566,-17.80418],[58.27911,-19.72418],[57.59497,-19.6028],[57.63911,-18.59867],[57.35221,-17.25246],[56.65704,-16.74487],[56.28187,-15.93936],[57.30807,-15.4428],[58.32325,-15.66349]]]}},{"type":"Feature","properties":{"name":null,"type":"mountain"},"geometry":{"type":"Polygon","coordinates":[[[52.86118,-16.54625],[53.68876,-17.06487],[53.92049,-16.56832],[54.96876,-17.56143],[54.11911,-17.48418],[54.83635,-18.12418],[54.20739,-18.2897],[53.52325,-17.80418],[52.66256,-16.82212],[52.86118,-16.54625]]]}},{"type":"Feature","properties":{"name":null,"type":"mountain"},"geometry":{"type":"Polygon","coordinates":[[[61.25842,-9.69384],[61.65566,-10.43315],[60.82807,-11.13936],[60.76187,-11.6028],[60.39773,-11.79039],[59.31635,-12.93798],[58.86394,-13.01522],[58.8198,-12.32005],[59.50394,-11.15039],[60.54118,-10.05798],[61.25842,-9.69384]]]}},{"type":"Feature","properties":{"name":null,"type":"mountain"},"geometry":{"type":"Polygon","coordinates":[[[62.40601,-14.75867],[64.01704,-15.04556],[65.42945,-15.7297],[66.84187,-15.81798],[66.93014,-13.85384],[67.12876,-12.35315],[67.70256,-11.13936],[68.85014,-11.64694],[69.79911,-11.13936],[68.69566,-9.79315],[67.94532,-7.63039],[69.51221,-7.58625],[70.63773,-7.56418],[71.0129,-8.71177],[72.2267,-10.54349],[71.63083,-12.50763],[70.79221,-14.03039],[71.80739,-16.14901],[72.69014,-18.66487],[72.88876,-21.90901],[71.38807,-22.1297],[69.90945,-22.06349],[68.36463,-20.82763],[67.32739,-19.23867],[65.58394,-17.89246],[63.73014,-16.89936],[62.78118,-15.70763],[62.40601,-14.75867]]]}},{"type":"Feature","properties":{"name":null,"type":"mountain"},"geometry":{"type":"Polygon","coordinates":[[[79.3329,-9.35177],[78.09704,-8.24832],[78.84739,-6.43867],[82.68739,-6.57108],[88.02807,-8.46901],[91.69152,-11.42625],[92.7067,-24.71177],[90.72049,-25.59453],[90.54394,-21.1366],[86.52739,-16.76694],[82.86394,-11.95591],[79.3329,-9.35177]]]}},{"type":"Feature","properties":{"name":null,"type":"mountain"},"geometry":{"type":"Polygon","coordinates":[[[92.00049,-5.02625],[87.32187,-2.99591],[84.71773,-1.71591],[84.05566,-0.03867],[82.59911,0.40271],[82.42256,1.81513],[81.31911,1.9034],[79.95083,2.78616],[78.22945,5.12547],[78.89152,5.78754],[81.93704,4.63995],[84.58532,2.03582],[87.98394,-0.0828],[92.08876,-2.42212],[92.00049,-5.02625]]]}},{"type":"Feature","properties":{"name":"Mother of Mountains","type":"mountain"},"geometry":{"type":"Polygon","coordinates":[[[64.8667,-1.03177],[64.80601,-0.8828],[65.01014,-0.66212],[65.51773,-0.70074],[65.74394,-1.09798],[65.68876,-1.4897],[65.4129,-1.56143],[65.24187,-1.35729],[64.8667,-1.03177]]]}},{"type":"Feature","properties":{"name":null,"type":"mountain"},"geometry":{"type":"Polygon","coordinates":[[[45.40187,35.46478],[46.19635,36.21513],[48.09428,36.5903],[50.03635,36.34754],[49.19773,35.68547],[46.79221,34.36133],[45.40187,35.46478]]]}},{"type":"Feature","properties":{"name":null,"type":"mountain"},"geometry":{"type":"Polygon","coordinates":[[[24.21566,35.97237],[24.59083,35.43168],[24.70118,34.46064],[24.99911,33.6772],[24.70118,33.44547],[24.13842,33.37926],[23.53152,34.0303],[23.27773,34.65926],[23.46532,35.03444],[23.77428,34.6372],[24.14945,34.62616],[24.09428,35.38754],[24.21566,35.97237]]]}},{"type":"Feature","properties":{"name":null,"type":"mountain"},"geometry":{"type":"Polygon","coordinates":[[[25.5067,35.87306],[25.63911,35.90616],[25.67221,35.47582],[25.91497,35.06754],[25.78256,34.72547],[25.5398,34.79168],[25.5067,35.87306]]]}},{"type":"Feature","properties":{"name":null,"type":"mountain"},"geometry":{"type":"Polygon","coordinates":[[[52.35359,-19.28832],[52.66256,-19.64143],[52.22118,-21.14212],[51.93428,-22.37798],[51.47083,-21.87039],[51.33842,-20.83315],[52.35359,-19.28832]]]}},{"type":"Feature","properties":{"name":null,"type":"mountain"},"geometry":{"type":"Polygon","coordinates":[[[53.92049,-20.78901],[54.3398,-21.07591],[54.82532,-20.41384],[55.31083,-20.50212],[54.45014,-21.51729],[54.53842,-22.24556],[55.00187,-22.9297],[55.2667,-24.09936],[54.91359,-24.62901],[54.29566,-24.5628],[53.81014,-24.43039],[54.00876,-23.26074],[53.94256,-21.84832],[53.92049,-20.78901]]]}},{"type":"Feature","properties":{"name":null,"type":"mountain"},"geometry":{"type":"Polygon","coordinates":[[[57.47359,-21.23039],[57.95911,-20.81108],[57.91497,-21.95867],[57.73842,-23.04005],[57.45152,-22.31177],[57.49566,-22.99591],[57.27497,-23.19453],[57.1867,-22.6428],[57.23083,-22.02487],[57.47359,-21.23039]]]}},{"type":"Feature","properties":{"name":null,"type":"swamp"},"geometry":{"type":"Polygon","coordinates":[[[13.01566,20.73375],[14.18532,21.06478],[15.68601,18.19582],[14.78118,16.91582],[15.68601,15.45926],[14.09704,14.39995],[12.48601,14.53237],[12.28739,16.40823],[11.89014,17.95306],[12.7067,19.67444],[13.01566,20.73375]]]}},{"type":"Feature","properties":{"name":"The Dothraki Sea","type":"stepp"},"geometry":{"type":"Polygon","coordinates":[[[56.9329,4.79995],[59.97842,3.96133],[63.24463,3.43168],[66.68739,3.96133],[72.33704,3.65237],[72.73428,3.03444],[74.05842,3.43168],[75.73566,3.12271],[76.22118,2.19582],[77.0598,2.15168],[78.38394,0.7834],[77.76601,-0.98212],[78.64876,-1.86487],[77.9867,-3.18901],[77.14807,-6.01384],[75.20601,-6.01384],[72.73428,-7.16143],[70.83635,-5.39591],[65.23083,-5.13108],[60.86118,-6.80832],[59.18394,-6.05798],[56.00601,-6.67591],[51.72463,-5.70487],[49.8267,-7.20556],[48.67911,-6.19039],[49.95911,-3.85108],[46.25152,-0.14349],[47.6198,2.23995],[50.43618,2.34881],[52.3867,0.34202],[56.84463,2.6372],[56.9329,4.79995]]]}}]}