{"type":"FeatureCollection","features":[{"type":"Feature","properties":{"name":"New Gift","claimedBy":"Night's Watch"},"geometry":{"type":"Polygon","coordinates":[[[15.03935,34.0669],[15.48995,34.03323],[16.13137,34.00381],[16.90225,34.00087],[17.69078,33.98616],[18.31455,33.97439],[19.13839,33.99793],[19.62975,33.89495],[20.13876,33.90083],[20.87434,33.8361],[21.14716,33.84263],[21.23594,33.73984],[21.22192,33.65574],[21.26397,33.53893],[21.28266,33.35204],[21.38078,33.23056],[21.43217,33.13244],[21.40414,32.95023],[20.82137,32.92105],[20.00636,32.93576],[19.4591,33.0564],[18.30866,32.98284],[17.87026,33.03874],[17.36125,33.04168],[16.26083,33.06522],[15.01036,33.10053],[14.15163,33.17449],[14.23573,33.30065],[14.26376,33.43614],[14.35253,33.45016],[14.53008,33.4268],[14.5768,33.41745],[14.75435,33.43614],[14.82443,33.4268],[14.85714,33.52024],[14.8291,33.63238],[14.82443,33.74918],[14.8291,33.82394],[14.92255,33.87066],[14.98796,33.98279],[15.03935,34.0669]]]}},{"type":"Feature","properties":{"name":"Riverlands","claimedBy":"Tully"},"geometry":{"type":"Polygon","coordinates":[[[17.46128,4.10724],[17.41715,4.13667],[17.02877,4.39559],[16.62273,4.76631],[16.26966,4.96639],[15.58705,5.11645],[15.03684,5.22825],[14.64846,5.29593],[14.25566,5.34153],[14.07913,5.70638],[13.64367,6.14183],[13.35532,6.47137],[12.9434,6.6126],[12.45498,6.77148],[12.10779,7.49528],[12.24902,7.76009],[12.44322,8.12493],[12.53148,8.50155],[12.66094,9.17827],[12.66094,9.702],[12.64918,10.07273],[12.5256,10.46111],[12.46381,10.62294],[12.22549,10.9613],[11.96501,11.16816],[12.02108,11.3457],[12.10985,11.46251],[12.17059,11.47653],[12.19395,11.43448],[12.33412,11.4298],[12.39486,11.40644],[12.45092,11.44382],[12.45092,11.53727],[12.58642,11.61669],[12.67052,11.64473],[12.75929,11.62137],[12.84807,11.63538],[12.94618,11.69145],[12.99758,11.71014],[13.02561,11.82695],[13.10971,11.91105],[13.10971,12.00916],[13.1798,12.07458],[13.21717,12.19138],[13.1798,12.28483],[13.14709,12.42499],[13.10971,12.52778],[13.10971,12.62123],[13.16111,12.72402],[13.19381,12.86419],[13.20316,12.96698],[13.14709,13.02772],[13.11438,13.05575],[12.9602,13.24264],[12.85741,13.30338],[12.63781,13.35477],[12.34813,13.35477],[12.28272,13.37346],[12.22198,13.3501],[12.1846,13.28936],[12.11919,13.17723],[12.03976,13.13518],[11.89025,13.09313],[11.75476,13.0978],[11.68,13.06977],[11.65664,13.02772],[11.65664,12.92025],[11.53983,12.89222],[11.48844,12.86419],[11.35761,12.88288],[11.28753,12.82214],[11.2595,12.75205],[11.16605,12.74271],[11.01187,12.77541],[10.89039,12.78943],[10.77825,12.88755],[10.75489,12.97632],[10.71284,13.07444],[10.67546,13.16321],[10.7035,13.2333],[10.67079,13.32207],[10.68948,13.42486],[10.78293,13.57437],[10.83899,13.57437],[10.89506,13.56035],[11.03523,13.56035],[11.22679,13.69118],[11.39499,13.81733],[11.50713,13.85938],[11.69402,13.88274],[11.70336,13.91544],[11.69869,14.00889],[11.87156,14.16775],[11.8996,14.26586],[11.89025,14.39669],[11.83419,14.49013],[11.74541,14.52751],[11.61926,14.54153],[11.56319,14.62096],[11.53983,14.72375],[11.49311,14.80785],[11.62379,14.87012],[11.85329,15.12905],[12.14163,15.38797],[12.48294,15.62923],[12.8007,15.80577],[13.20674,15.95877],[13.6422,16.05292],[14.36306,16.0794],[14.7485,16.1971],[15.06332,16.36481],[15.30918,16.55527],[15.32787,16.4151],[15.39795,16.26092],[15.46803,16.11608],[15.56148,16.09272],[15.79976,16.09739],[15.89321,16.05534],[15.92124,15.95255],[16.01469,15.86845],[16.20625,15.87312],[16.14902,15.54391],[16.14902,15.15553],[16.18433,14.3258],[16.32556,13.81973],[16.44325,13.41958],[16.60802,13.09004],[16.79633,12.8782],[17.04348,12.63105],[17.17294,12.38389],[17.27886,12.16028],[17.56132,11.59536],[17.84378,11.12459],[18.17332,10.63029],[18.44401,10.25368],[18.82062,9.53576],[19.00893,9.12384],[19.23037,8.94883],[19.13692,8.87408],[19.31447,8.78998],[19.46866,8.68719],[19.62751,8.52833],[19.79571,8.5003],[19.93121,8.36947],[20.2022,8.3648],[20.35638,8.28537],[20.43114,8.23398],[20.51243,8.02931],[20.51538,7.82923],[20.33296,7.43791],[20.12111,7.14368],[19.8975,6.9083],[19.70331,6.80238],[19.49146,6.69645],[19.27962,6.41399],[19.02658,6.108],[18.87358,5.89615],[18.72647,5.55485],[18.52639,5.13116],[18.26159,4.6957],[18.03797,4.48974],[17.83201,4.28966],[17.46128,4.10724]]]}},{"type":"Feature","properties":{"name":null,"claimedBy":"Wildlings"},"geometry":{"type":"Polygon","coordinates":[[[20.80609,34.77241],[19.93133,34.87473],[19.66064,34.89238],[18.85446,34.97477],[17.59516,35.21015],[17.35389,35.18661],[17.17735,35.09246],[17.01847,35.0748],[16.80074,35.13953],[16.50063,35.1513],[16.27113,35.1513],[16.10636,35.06892],[15.92394,34.93357],[15.77683,34.84531],[15.6356,34.85119],[15.5179,34.68642],[15.42375,34.56873],[15.3296,34.45692],[15.19425,34.29216],[15.17952,34.2678],[15.10009,34.27247],[14.97861,34.22108],[14.7964,34.20239],[14.66557,34.1837],[14.54409,34.23977],[14.36655,34.24444],[14.11892,34.36592],[14.06752,34.41264],[13.88998,34.42666],[13.79186,34.4033],[13.64235,34.33789],[13.54423,34.33321],[13.41808,34.30518],[13.33398,34.30518],[13.26857,34.37526],[13.2639,34.436],[13.27324,34.52478],[13.11438,34.71167],[13.01627,34.78175],[12.93217,34.8752],[12.7406,34.93594],[12.60511,34.98266],[12.65183,35.05274],[12.73126,35.08078],[12.89479,35.08078],[12.95553,35.14151],[12.95085,35.33775],[13.03028,35.32841],[13.10504,35.32373],[13.23586,35.3798],[13.34332,35.44988],[13.41341,35.51062],[13.51153,35.54333],[13.60497,35.52464],[13.6844,35.47792],[13.77784,35.42185],[13.91801,35.42652],[13.97408,35.44521],[13.98342,35.57603],[13.93203,35.65546],[13.82457,35.67415],[13.69374,35.7162],[13.58161,35.80965],[13.49751,35.90777],[13.38537,35.95449],[13.2966,35.94514],[13.24053,35.90777],[13.15176,35.9358],[13.11438,35.98719],[13.02561,36.01055],[12.84807,36.00588],[12.792,35.97318],[12.6565,36.02457],[12.5724,36.01523],[12.54437,35.97318],[12.50232,35.97318],[12.40887,36.01523],[12.31076,35.99187],[12.16592,35.9685],[12.10518,35.85637],[12.10985,35.72087],[12.16124,35.61341],[12.11452,35.57603],[11.93697,35.58071],[11.83886,35.51062],[11.72672,35.49193],[11.66131,35.44054],[11.71271,35.37046],[11.69869,35.31439],[11.57254,35.26299],[11.57721,35.18824],[11.60057,35.15086],[11.55385,35.08545],[11.47442,34.9593],[11.4604,34.82847],[11.43237,34.75839],[11.30622,34.76306],[10.94646,34.50142],[10.85768,34.42199],[10.79227,34.31453],[10.72219,34.22108],[10.65678,34.10427],[10.59136,34.10895],[10.42784,34.16969],[10.31103,34.16501],[10.20824,34.02485],[10.15217,33.87066],[10.05873,33.78189],[9.98864,33.74918],[9.87651,33.71648],[9.81577,33.77722],[9.77372,33.83795],[9.66158,33.73049],[9.54478,33.80058],[9.42797,33.95943],[9.26444,34.12296],[9.10091,34.12763],[8.99812,34.14165],[9.00747,34.28182],[8.97944,34.37994],[8.84394,34.48273],[8.66172,34.58552],[8.54959,34.69298],[8.47016,34.67896],[8.21786,34.83782],[8.18515,34.98266],[8.12441,35.15086],[8.07302,35.22562],[7.97023,35.11815],[7.83006,35.05741],[7.69924,35.1275],[7.63382,35.23029],[7.56374,35.25365],[7.53103,35.57136],[7.48431,35.67882],[7.39554,35.75358],[7.1152,35.87039],[6.90962,35.88908],[6.68068,35.83768],[6.52183,35.76293],[6.35363,35.78161],[6.34428,35.79563],[6.28821,35.74424],[6.1901,35.7676],[6.09198,35.84235],[6.06395,35.90777],[6.00321,36.08998],[6.0219,36.29089],[5.97517,36.37966],[5.86771,36.49647],[5.78361,36.54786],[5.63877,36.55254],[5.48459,36.49647],[5.36778,36.45909],[5.31171,36.49647],[5.25097,36.58524],[5.28835,36.72541],[5.26499,36.86558],[5.28835,36.93566],[5.43786,37.06649],[5.46122,37.17862],[5.48926,37.28141],[5.42852,37.36084],[5.42385,37.50568],[5.36311,37.65052],[5.40983,37.75331],[5.47991,37.81872],[5.60606,37.8888],[5.71353,37.91684],[5.84902,37.98225],[5.89107,38.11774],[5.99853,38.23455],[5.9705,38.31398],[5.90976,38.49152],[5.82566,38.65973],[5.83968,38.75784],[5.73222,38.89801],[5.54065,39.1363],[5.54065,39.27179],[5.61074,39.41663],[5.62943,39.53344],[5.58738,39.63156],[5.57803,39.76705],[5.50795,39.83246],[5.42385,39.83246],[5.29302,39.90722],[5.11548,39.93525],[4.90523,40.10813],[4.7744,40.24829],[4.55948,40.47723],[4.32119,40.62207],[4.08291,40.69216],[3.97545,40.74355],[3.48019,41.07996],[3.26526,41.40701],[3.05034,41.6453],[2.9055,41.97236],[2.75599,42.22466],[2.62049,42.32745],[2.37286,42.38352],[2.214,42.36015],[2.04113,42.29941],[1.83555,42.45827],[1.38234,42.72459],[1.13939,42.93017],[0.9011,43.14042],[0.94315,49.07886],[18.37535,49.10222],[18.37067,48.90132],[18.34264,48.81254],[18.27723,48.71443],[18.2819,48.32196],[18.23051,48.22851],[18.1651,48.06965],[18.06698,47.98088],[18.0296,47.87342],[18.02026,47.7426],[18.03427,47.56972],[18.12304,47.44357],[18.09501,47.27537],[17.95017,46.95766],[17.87074,46.81749],[17.8614,46.64929],[17.86607,46.44371],[17.94083,46.32223],[17.91279,46.24747],[17.83336,46.12132],[17.68852,46.0232],[17.64647,45.84566],[17.55303,45.64475],[17.5577,45.57],[17.62779,45.41581],[17.63246,45.13548],[17.37081,44.72432],[17.24466,44.21037],[17.23064,43.85528],[17.1699,43.71044],[17.1699,43.61699],[17.06244,43.4815],[16.93629,43.3974],[16.7494,43.36469],[16.7167,43.29928],[16.67464,43.07501],[16.57186,43.03296],[16.44103,42.93017],[16.31955,42.86943],[16.15602,42.82271],[16.13734,42.71525],[16.18406,42.59844],[16.17471,42.44425],[16.13734,42.3695],[16.13266,42.20597],[16.06258,42.00506],[15.97381,41.84153],[15.86167,41.678],[15.84298,41.54251],[15.82429,41.43037],[15.67478,41.29021],[15.64675,41.18742],[15.69347,41.07061],[15.74487,40.97249],[15.8056,40.68281],[15.83364,40.59404],[15.81495,40.48658],[15.79159,40.37912],[15.84766,40.26698],[15.91774,40.18755],[15.92708,40.04739],[15.95512,39.92124],[16.09528,39.79976],[16.21209,39.73902],[16.27283,39.73902],[16.35226,39.62221],[16.45505,39.49139],[16.40672,39.47535],[16.46089,39.45401],[16.44687,39.38393],[16.49359,39.20638],[16.60573,39.10359],[16.66647,39.02416],[16.73188,38.95875],[16.88606,38.97277],[17.05427,38.98211],[17.19443,38.88867],[17.3019,38.71112],[17.386,38.58497],[17.52149,38.50554],[17.71773,38.43546],[17.87191,38.34201],[18.06347,38.32332],[18.24569,38.32332],[18.36717,38.37005],[18.52135,38.38406],[18.62414,38.34201],[18.70357,38.29062],[18.79702,38.20652],[18.96055,38.12242],[19.09137,38.02897],[19.30629,37.83274],[19.47917,37.69257],[19.58663,37.44494],[19.59597,37.27674],[19.56794,37.14124],[19.63802,37.06181],[19.69409,37.00107],[19.89033,36.94968],[20.03049,36.93099],[20.08656,37.00107],[20.21271,37.02444],[20.34354,36.98238],[20.44633,37.09452],[20.56313,37.20198],[20.60051,37.30944],[20.6519,37.40756],[20.75002,37.48232],[20.84814,37.48232],[20.86216,37.35149],[20.84347,37.27206],[20.90888,37.18796],[20.92757,37.09452],[21.08642,37.09919],[21.18454,37.15526],[21.23126,37.26272],[21.28266,37.34215],[21.31537,37.46363],[21.26397,37.5524],[21.24061,37.70658],[21.24995,37.82806],[21.32938,37.91684],[21.49291,37.93553],[21.59103,37.93085],[21.63308,37.80003],[21.68915,37.64585],[21.70784,37.53371],[21.74054,37.39822],[21.72652,37.21133],[21.80595,37.07116],[21.8153,36.80484],[21.81062,36.62262],[21.78726,36.45442],[21.70316,36.37032],[21.61439,36.34696],[21.48357,36.45909],[21.40414,36.49647],[21.33405,36.47311],[21.27799,36.36565],[21.26864,36.12269],[21.27799,35.91244],[21.19856,35.74891],[21.08642,35.72087],[21.02569,35.62743],[20.91822,35.60407],[20.84814,35.44988],[20.75002,35.41251],[20.72199,35.30972],[20.63322,35.23963],[20.57248,35.11815],[20.59117,34.98266],[20.68461,34.89389],[20.80609,34.77241]]]}},{"type":"Feature","properties":{"name":"Bran's Gift","claimedBy":"Night's Watch"},"geometry":{"type":"Polygon","coordinates":[[[15.17952,34.2678],[15.19425,34.29216],[15.3296,34.45692],[15.42375,34.56873],[15.5179,34.68642],[15.6356,34.85119],[15.77683,34.84531],[15.92394,34.93357],[16.10636,35.06892],[16.27113,35.1513],[16.50063,35.1513],[16.80074,35.13953],[17.01847,35.0748],[17.17735,35.09246],[17.35389,35.18661],[17.59516,35.21015],[18.85446,34.97477],[19.66064,34.89238],[19.93133,34.87473],[20.80609,34.77241],[20.81543,34.63224],[20.7874,34.43133],[20.73601,34.30518],[20.76404,34.11362],[20.83412,34.01083],[21.01167,33.88001],[21.14716,33.84263],[20.87434,33.8361],[20.13876,33.90083],[19.62975,33.89495],[19.13839,33.99793],[18.31455,33.97439],[17.69078,33.98616],[16.90225,34.00087],[16.13137,34.00381],[15.48995,34.03323],[15.03935,34.0669],[15.12813,34.14165],[15.19354,34.21174],[15.17952,34.2678]]]}},{"type":"Feature","properties":{"name":"The North","claimedBy":"Stark"},"geometry":{"type":"MultiPolygon","coordinates":[[[[10.6842,31.52314],[10.55847,31.61394],[10.57244,31.69776],[10.48862,31.79555],[10.49561,31.85143],[10.60038,31.85842],[10.64928,31.90033],[10.5934,31.96319],[10.58641,32.06098],[10.50259,32.04003],[10.4048,31.95621],[10.30701,31.90731],[10.30701,31.71872],[10.20224,31.66284],[10.19525,31.57203],[10.10445,31.52314],[10.04158,31.53711],[9.92284,31.56505],[9.78314,31.66982],[9.7552,31.7746],[9.81806,31.85143],[9.81806,31.87239],[9.72726,31.96319],[9.76218,32.02606],[9.76917,32.1448],[9.81806,32.17973],[9.90188,32.21465],[10.06254,32.26355],[10.13239,32.36832],[10.16033,32.51501],[10.22319,32.6128],[10.34892,32.64074],[10.49561,32.57787],[10.60737,32.57787],[10.67023,32.50802],[10.80993,32.4731],[10.98456,32.50802],[11.13124,32.40325],[11.08933,32.30546],[11.09632,32.06797],[11.18014,32.02606],[11.30587,31.94922],[11.243,31.82349],[10.99853,31.80952],[10.83089,31.73967],[10.77501,31.59997],[10.6842,31.52314]]],[[[24.04649,32.85727],[23.89282,33.05285],[23.89282,33.2624],[23.87885,33.58371],[23.62739,33.91899],[23.36196,33.93296],[23.33402,34.05869],[23.19432,34.15648],[23.12447,34.29618],[23.1105,34.44985],[23.08256,34.70131],[23.06859,34.9388],[23.16638,35.14835],[23.12447,35.24614],[23.19432,35.23217],[23.37593,35.32996],[23.51563,35.32996],[23.65533,35.13438],[23.72518,34.95277],[23.85091,34.71528],[23.96267,34.71528],[24.04649,34.9388],[24.01855,35.10644],[23.90679,35.31599],[23.85091,35.55348],[24.01855,35.777],[24.10237,35.97258],[23.99061,36.15419],[24.10237,36.43359],[24.21413,36.41962],[24.32589,36.37771],[24.45162,36.1961],[24.56338,35.98655],[24.61926,35.74906],[24.68911,35.70715],[24.75896,35.58142],[24.80087,35.20423],[24.81484,34.96674],[24.73102,34.81307],[24.74499,34.6594],[24.87072,34.56161],[25.05233,34.47779],[25.02439,34.17045],[25.0663,34.00281],[25.24791,33.90502],[25.09424,33.55577],[25.08027,33.37416],[25.02439,33.2624],[24.63323,33.23446],[24.53544,33.03888],[24.2281,33.03888],[24.04649,32.85727]]],[[[25.41555,34.26126],[25.47143,34.21935],[25.52731,34.12156],[25.54128,34.0098],[25.5343,33.94693],[25.43651,33.93296],[25.36666,33.9609],[25.33872,34.05171],[25.32475,34.18442],[25.41555,34.26126]]],[[[25.74035,34.59304],[25.59716,34.63844],[25.48191,34.72226],[25.50636,34.88641],[25.43651,35.00865],[25.4854,35.08548],[25.55176,35.14136],[25.44349,35.19724],[25.38761,35.27408],[25.50636,35.38584],[25.52033,35.51157],[25.47842,35.58142],[25.42254,35.75604],[25.32475,35.83288],[25.33872,35.90273],[25.44349,35.9167],[25.44349,36.0075],[25.43651,36.09132],[25.36666,36.22404],[25.37364,36.35675],[25.45048,36.34278],[25.5343,36.16117],[25.66003,35.95162],[25.73686,35.68619],[25.75083,35.42076],[25.80671,35.31599],[25.9534,35.19724],[26.00928,35.0785],[25.97435,35.00166],[25.86259,34.75719],[25.74035,34.59304]]],[[[23.00573,36.62568],[23.12447,36.4301],[23.18035,36.37422],[23.1594,36.24849],[23.25719,36.17165],[23.25719,36.03894],[23.20829,35.94813],[23.12447,35.92718],[23.03367,35.98306],[22.96382,36.05291],[22.98477,36.28341],[22.96382,36.4301],[22.94985,36.54884],[23.00573,36.62568]]],[[[23.78805,37.16352],[23.7182,37.24035],[23.63438,37.29623],[23.62041,37.42196],[23.62041,37.50578],[23.69026,37.58262],[23.74614,37.54769],[23.82996,37.45689],[23.77408,37.3591],[23.80202,37.27528],[23.78805,37.16352]]],[[[14.15163,33.17449],[15.01036,33.10053],[16.26083,33.06522],[17.36125,33.04168],[17.87026,33.03874],[18.30866,32.98284],[19.4591,33.0564],[20.00636,32.93576],[20.82137,32.92105],[21.40414,32.95023],[21.47889,32.81473],[21.54431,32.58112],[21.51627,32.41204],[21.54898,32.25873],[21.58168,32.10922],[21.55365,31.89897],[21.60505,31.82421],[21.69382,31.87561],[21.86669,31.92233],[21.96481,31.90364],[22.03957,31.78216],[22.11899,31.70273],[22.32457,31.74011],[22.47409,31.74478],[22.65163,31.66068],[22.81516,31.58125],[23.01607,31.57658],[23.11886,31.4551],[23.20296,31.38502],[23.42723,31.35231],[23.49264,31.2542],[23.55338,31.1701],[23.65149,31.17477],[23.69354,31.14206],[23.8197,31.15141],[23.91781,31.21682],[23.93183,31.35231],[24.04396,31.4224],[24.18413,31.41305],[24.39906,31.45043],[24.53922,31.52051],[24.78218,31.58125],[24.93169,31.57658],[25.05317,31.52986],[25.10924,31.44576],[25.12793,31.32895],[25.2681,31.22616],[25.30547,31.10001],[25.28211,30.97853],[25.23539,30.91779],[25.26342,30.80566],[25.41761,30.68418],[25.45031,30.61877],[25.45031,30.54868],[25.39425,30.48327],[25.45031,30.42721],[25.52974,30.31974],[25.52974,30.08146],[25.40359,30.01138],[25.50171,29.76842],[25.37089,29.54415],[25.30547,29.32923],[25.22137,29.25447],[25.10924,29.06291],[25.11391,28.9461],[25.0485,28.87134],[24.9644,28.75454],[24.89521,28.62001],[24.90132,28.56298],[24.93403,28.36674],[24.8546,28.14714],[24.83124,27.96025],[24.85927,27.80607],[24.85927,27.5818],[24.83124,27.51639],[24.78919,27.50237],[24.66771,27.56311],[24.5509,27.67057],[24.55558,27.81074],[24.57427,27.98829],[24.53689,28.10509],[24.40606,28.23592],[24.39205,28.45551],[24.28459,28.46486],[24.17712,28.49289],[24.02294,28.5256],[23.92482,28.62839],[23.89212,28.53494],[23.90146,28.32936],[23.83605,28.26395],[23.85941,28.17985],[23.80802,28.10042],[23.72391,27.97427],[23.67719,27.83877],[23.72391,27.6659],[23.67252,27.48836],[23.62112,27.35286],[23.55571,27.22671],[23.51366,27.10523],[23.39218,27.06785],[23.20997,27.06785],[23.0184,27.04916],[22.91094,26.92768],[22.91561,26.77817],[22.89225,26.67071],[22.77545,26.56325],[22.67733,26.53521],[22.64462,26.49316],[22.55585,26.47448],[22.48577,26.4698],[22.4624,26.55858],[22.36429,26.68473],[22.24281,26.82957],[22.1774,26.83891],[22.06526,26.89031],[21.88772,26.97908],[21.77558,26.97908],[21.67747,27.05384],[21.6541,26.909],[21.71017,26.81555],[21.79427,26.78752],[21.90641,26.74079],[21.99985,26.62399],[22.00452,26.53054],[21.96247,26.47915],[21.78493,26.48849],[21.7382,26.45111],[21.83165,26.38103],[21.88304,26.29693],[21.90173,26.20816],[21.81763,26.1334],[21.6214,26.12873],[21.58869,26.07733],[21.66345,25.97922],[21.72419,25.91848],[21.78026,25.76896],[21.85501,25.69421],[21.99051,25.61011],[22.18207,25.5447],[22.28019,25.45592],[22.2615,25.1569],[22.41568,25.03542],[22.42035,24.94665],[22.39699,24.89058],[21.89706,24.88124],[21.85968,24.80181],[21.89706,24.65697],[22.07461,24.45606],[22.27084,24.45606],[22.33625,24.44672],[22.36896,24.28319],[22.43437,24.28319],[22.48109,24.22712],[22.45773,24.08228],[22.50446,23.99351],[22.56987,23.89539],[22.6493,23.84399],[22.82684,23.86268],[22.86889,23.81596],[22.8502,23.68981],[22.90627,23.58702],[22.95766,23.5403],[22.96701,23.38611],[22.88758,23.36275],[22.85487,23.31136],[22.99037,23.22258],[23.00439,23.09643],[22.99504,22.97495],[22.87824,22.87684],[22.84086,22.79274],[22.86422,22.68995],[23.11652,22.59183],[23.1866,22.3769],[23.59776,22.35354],[23.60244,22.24608],[23.66785,22.18067],[23.85007,22.10124],[24.08368,22.02181],[24.26122,21.97509],[24.39205,21.89566],[24.34533,21.8396],[24.30327,21.75549],[24.18647,21.71344],[24.02761,21.77418],[23.84539,21.82091],[23.67719,21.90501],[23.36882,21.85828],[23.16324,21.88632],[23.01373,21.99845],[22.87356,22.00312],[22.70536,22.03583],[22.54651,22.07788],[22.45773,22.21805],[22.32691,22.15264],[22.16805,22.15264],[22.01854,22.19001],[21.91108,22.28346],[21.73353,22.28346],[21.58869,22.36289],[21.38311,22.47035],[21.23827,22.40961],[21.27565,22.23674],[21.33639,22.11059],[21.3691,22.02181],[21.30368,21.90968],[21.23827,21.76017],[21.07942,21.56393],[21.07007,21.38171],[20.98597,21.24622],[20.9299,21.12941],[20.97195,20.98924],[20.96728,20.72293],[20.93458,20.62014],[20.79441,20.4753],[20.76638,20.34447],[20.74301,20.24636],[20.66359,20.13422],[20.5935,20.0034],[20.58883,19.88659],[20.5094,19.81651],[20.44399,19.71372],[20.32718,19.56888],[20.27112,19.48478],[20.20103,19.49412],[20.04685,19.48945],[19.93939,19.45674],[19.85061,19.4801],[19.76184,19.50814],[19.67774,19.45674],[19.5656,19.39133],[19.47216,19.2792],[19.35535,19.28387],[19.26191,19.32125],[19.16846,19.41469],[19.15445,19.53617],[19.08903,19.61093],[18.9769,19.62027],[18.93952,19.58289],[18.85542,19.58757],[18.80403,19.62027],[18.74329,19.59224],[18.61246,19.50814],[18.48631,19.43338],[18.35549,19.2792],[18.34147,19.19977],[18.27139,19.1437],[18.20598,19.03157],[18.14524,19.01288],[18.07515,19.08296],[18.01441,19.13436],[17.95835,19.17174],[17.83687,19.18575],[17.75277,19.25116],[17.7481,19.4474],[17.7481,19.55019],[17.77613,19.68568],[17.80884,19.79315],[17.76211,19.80716],[17.55653,19.8352],[17.43505,19.92397],[17.393,20.09684],[17.40235,20.2557],[17.34161,20.56407],[17.32759,20.79768],[17.29021,20.89113],[17.17808,21.01728],[17.05193,21.08736],[17.04726,20.93318],[17.03791,20.7603],[17.03791,20.62481],[17.08464,20.47997],[17.07529,20.30242],[17.03324,20.22299],[16.92578,20.13422],[16.81832,20.01274],[16.75291,19.90528],[16.76692,19.76978],[16.79028,19.62494],[16.77159,19.51748],[16.67348,19.40535],[16.57069,19.29321],[16.64544,19.16706],[16.63143,19.06427],[16.48659,19.04558],[16.33707,19.08296],[16.26699,19.05026],[16.17822,18.8914],[16.14084,18.72787],[16.17355,18.48959],[16.18289,18.33073],[16.09879,18.27466],[16.04739,18.19991],[16.06608,18.10646],[16.04739,18.01769],[15.99133,17.999],[15.89788,18.10646],[15.80444,18.06441],[15.7437,17.91023],[15.72034,17.73268],[15.62222,17.59251],[15.60353,17.43833],[15.67829,17.33554],[15.67361,17.21406],[15.59886,17.19537],[15.50541,17.14398],[15.34188,17.11594],[15.20639,17.07856],[15.17368,16.96643],[15.12229,16.75618],[15.12696,16.65806],[15.30918,16.55527],[15.06332,16.36481],[14.7485,16.1971],[14.36306,16.0794],[13.6422,16.05292],[13.20674,15.95877],[12.8007,15.80577],[12.48294,15.62923],[12.14163,15.38797],[11.85329,15.12905],[11.62379,14.87012],[11.49311,14.80785],[11.39966,14.98072],[11.39966,15.03211],[11.27351,15.12089],[11.23146,15.25638],[11.23146,15.31245],[11.2595,15.4059],[11.20343,15.48532],[11.08195,15.6068],[10.9558,15.62082],[10.89506,15.64418],[10.83432,15.61615],[10.73153,15.61147],[10.67079,15.63016],[10.66145,15.70492],[10.66612,15.7423],[10.62407,15.775],[10.5353,15.76099],[10.47923,15.76566],[10.3998,15.87312],[10.29701,16.03665],[10.25496,16.12075],[10.20357,16.11608],[10.08676,16.26559],[9.93725,16.40576],[9.75503,16.52724],[9.58683,16.64872],[9.40461,16.74216],[9.23174,16.83561],[9.0869,16.87298],[8.97476,16.87298],[8.90468,16.80757],[8.77853,16.81225],[8.68041,16.8029],[8.54959,16.72347],[8.45147,16.66741],[8.3113,16.65339],[8.2272,16.62535],[8.14777,16.56462],[8.059,16.57863],[7.75998,16.59732],[7.61046,16.59265],[7.38152,16.54125],[7.23201,16.50855],[7.14324,16.40109],[7.09651,16.30764],[6.98438,16.32166],[6.88159,16.36371],[6.79749,16.3824],[6.74142,16.4151],[6.64798,16.38707],[6.52183,16.34969],[6.44707,16.30764],[6.36764,16.36838],[6.29756,16.40109],[6.26018,16.46183],[6.1901,16.48051],[6.0219,16.43379],[5.76025,16.40109],[5.6341,16.39174],[5.53131,16.45715],[5.39114,16.52724],[5.28368,16.64404],[5.20892,16.70946],[5.18089,16.80757],[5.10146,16.95241],[5.04539,17.05053],[5.04539,17.18603],[5.14818,17.41497],[5.25565,17.51308],[5.32573,17.58317],[5.38647,17.72801],[5.45655,17.85883],[5.47991,18.01769],[5.58738,18.07843],[5.69951,18.1672],[5.7509,18.25597],[5.78361,18.33073],[5.92845,18.45688],[5.97517,18.57836],[6.02657,18.72787],[6.10132,18.80263],[6.23682,18.86804],[6.34428,18.82599],[6.41437,18.77927],[6.47978,18.74189],[6.50314,18.61574],[6.63863,18.48959],[6.76478,18.47557],[6.82552,18.53164],[6.92831,18.55033],[7.01241,18.50827],[7.09184,18.39147],[7.12922,18.28401],[7.1993,18.21392],[7.33947,18.18122],[7.49366,18.16253],[7.56374,18.25597],[7.75998,18.34475],[7.83006,18.45221],[7.85809,18.51762],[7.77866,18.61574],[7.69924,18.6391],[7.48898,18.69517],[7.39554,18.73254],[7.44226,18.77459],[7.54505,18.77927],[7.67588,18.84001],[7.88613,18.91943],[8.03097,18.94747],[8.21786,19.03157],[8.42344,19.1437],[8.57762,19.32592],[8.62434,19.46142],[8.61033,19.56888],[8.75517,19.6997],[8.89533,19.72306],[9.06821,19.72773],[9.14296,19.72306],[9.20838,19.65298],[9.32051,19.59691],[9.39527,19.6156],[9.5074,19.63429],[9.68495,19.69503],[9.77839,19.7838],[9.8438,19.71839],[9.90454,19.68568],[9.93725,19.62494],[9.93725,19.55019],[10.04471,19.53617],[10.283,19.59691],[10.38111,19.6156],[10.48857,19.72773],[10.67079,19.75577],[10.75022,19.77913],[11.01654,19.78847],[11.27351,19.80716],[11.4277,19.92397],[11.55852,19.952],[11.69869,20.0361],[11.76877,20.03143],[11.84353,19.97536],[11.91829,19.97536],[12.04444,20.05012],[12.1519,20.09217],[12.24067,20.1716],[12.24067,20.21832],[12.19395,20.27906],[12.11919,20.36783],[11.88558,20.3912],[11.53516,20.48931],[11.39966,20.45193],[11.24081,20.32111],[11.18474,20.2557],[11.07261,20.22767],[10.98851,20.26504],[10.88104,20.2557],[10.6194,20.13422],[10.49792,20.10152],[10.39513,20.02676],[10.18955,20.0361],[10.11012,19.98004],[10.0634,20.01274],[9.94192,20.02676],[9.73634,20.00807],[9.47469,20.0361],[9.30182,20.09684],[9.23641,20.19963],[9.11493,20.28841],[9.03083,20.34447],[8.97476,20.2557],[8.90935,20.18562],[8.79254,20.18562],[8.61967,20.21832],[8.52623,20.15758],[8.52623,20.0875],[8.44213,20.05946],[8.40475,20.01274],[8.3113,19.92864],[8.1104,19.85389],[7.87678,19.87257],[7.52636,19.84454],[7.36751,19.84454],[7.30209,19.90528],[7.28808,20.0034],[7.24603,20.10619],[7.2507,20.21832],[7.10119,20.24168],[7.02643,20.31644],[6.84421,20.42857],[6.81151,20.71825],[6.68536,20.75563],[6.53117,20.82104],[6.42838,20.90982],[6.40035,21.00326],[6.40035,21.15745],[6.43773,21.21351],[6.48912,21.31163],[6.49847,21.40975],[6.45642,21.51721],[6.33961,21.59664],[6.26953,21.70877],[6.08263,21.88632],[6.07329,22.19469],[6.03591,22.32084],[6.0546,22.49838],[6.04993,22.64322],[6.04993,22.72732],[6.08263,22.79741],[6.0546,22.83011],[5.97985,22.80675],[5.81632,22.80208],[5.72287,22.79274],[5.61541,22.72265],[5.56401,22.63388],[5.44721,22.6479],[5.36311,22.53109],[5.36311,22.45633],[5.26032,22.39559],[5.13417,22.33953],[5.04539,22.39092],[4.97998,22.43297],[5.00334,22.52174],[5.06408,22.68995],[5.10146,22.81142],[5.17622,22.9002],[5.22761,22.9843],[5.11081,23.01233],[5.02203,23.09643],[4.93793,23.14783],[4.91457,23.22258],[4.86785,23.3207],[4.96129,23.36742],[4.96129,23.44685],[4.92859,23.50292],[4.96597,23.6244],[4.96129,23.69915],[4.88186,23.76924],[4.88186,23.85801],[4.91924,23.90473],[4.93326,24.07293],[4.98933,24.14302],[5.07343,24.22245],[5.11081,24.33925],[5.11548,24.47008],[5.17154,24.57754],[5.14351,24.7691],[5.1622,24.87189],[5.31638,25.01673],[5.33975,25.1569],[5.44721,25.27371],[5.44721,25.36248],[5.45655,25.46527],[5.50327,25.62412],[5.54533,25.67552],[5.56401,25.84372],[5.67148,25.89512],[5.69017,25.95118],[5.82566,26.07733],[5.93312,26.14275],[6.0546,26.14275],[6.16206,26.14742],[6.22747,26.09135],[6.42371,26.10537],[6.58257,25.9138],[6.74142,25.90913],[6.8629,25.82503],[7.06381,25.81569],[7.18529,25.75028],[7.28341,25.78298],[7.34882,25.83905],[7.37685,25.99323],[7.30209,26.05864],[7.19463,26.08201],[7.15725,26.20816],[7.21332,26.29226],[7.33013,26.34365],[7.42357,26.34832],[7.43759,26.52587],[7.41423,26.66137],[7.2507,26.75948],[7.1152,26.85293],[7.0825,26.93236],[7.13389,26.98375],[7.1666,27.04916],[7.32078,27.06785],[7.44226,27.00711],[7.61981,26.96039],[7.80203,26.97441],[7.87678,26.9931],[7.8394,27.11925],[7.75063,27.29212],[7.52636,27.3622],[7.43292,27.43229],[7.30209,27.48368],[7.19463,27.46967],[7.11053,27.51639],[7.14324,27.61451],[7.18062,27.69393],[7.20398,27.74066],[7.35816,27.77804],[7.48431,27.75],[7.61981,27.8014],[7.68989,27.8855],[7.70391,27.99763],[7.69456,28.06772],[7.82072,28.14247],[7.87979,28.11318],[7.92818,28.25461],[7.91416,28.39477],[7.84408,28.46953],[7.87211,28.58634],[7.78801,28.67978],[7.8067,28.7779],[7.68055,28.89003],[7.7226,29.0302],[7.79735,29.13299],[7.83006,29.24512],[7.90949,29.34324],[7.8394,29.47874],[7.74596,29.60956],[7.6385,29.69366],[7.54038,29.74506],[7.48898,29.83383],[7.29742,29.88522],[7.03578,29.91793],[6.94233,29.95064],[6.83954,29.95998],[6.76946,30.04875],[6.81618,30.0908],[6.82085,30.15154],[6.92364,30.29638],[6.97971,30.36179],[7.18996,30.34311],[7.32546,30.38983],[7.46562,30.37114],[7.56841,30.52065],[7.65251,30.60475],[7.67588,30.71689],[7.7553,30.70754],[7.83006,30.62811],[7.87678,30.45057],[7.9749,30.35245],[8.15245,30.21695],[8.30663,30.11884],[8.3627,30.13285],[8.35802,30.03941],[8.43745,29.92727],[8.46549,29.8385],[8.49352,29.71702],[8.68041,29.57686],[8.7832,29.49275],[8.93738,29.48341],[9.06821,29.39931],[9.15231,29.2825],[9.1196,29.1984],[9.03083,29.09094],[9.02616,28.9975],[9.16165,28.96946],[9.32518,28.96012],[9.45601,28.94143],[9.50273,28.85733],[9.74569,28.87602],[9.8111,28.99282],[9.80175,29.07225],[9.77372,29.15635],[9.93258,29.25447],[10.04938,29.30119],[10.16619,29.32455],[10.20357,29.38062],[10.41382,29.40398],[10.56333,29.49743],[10.54931,29.63759],[10.66612,29.74038],[10.57268,29.88055],[10.53062,29.99736],[10.51661,30.09548],[10.43251,30.19359],[10.46521,30.2263],[10.45587,30.29638],[10.41382,30.40852],[10.45587,30.49729],[10.43251,30.60475],[10.44652,30.75426],[10.47923,30.83836],[10.48857,30.93181],[10.54931,30.94115],[10.59604,30.87107],[10.568,30.82435],[10.57268,30.74959],[10.63341,30.70754],[10.59136,30.64213],[10.58202,30.57205],[10.62407,30.52532],[10.6521,30.45057],[10.64743,30.34778],[10.68014,30.28704],[10.72219,30.2263],[10.68948,30.15622],[10.76424,30.12818],[10.84834,30.10949],[10.92309,30.12818],[10.96047,30.08613],[10.97916,30.0067],[11.01654,29.94129],[11.11933,29.85719],[11.14736,29.85719],[11.1754,29.7217],[11.23614,29.72637],[11.29688,29.83383],[11.36696,29.85719],[11.43704,29.89924],[11.50713,30.01605],[11.5959,30.04408],[11.62861,30.0067],[11.70803,29.90859],[11.81082,29.81981],[11.87156,29.77776],[11.94165,29.79178],[11.99771,29.82448],[12.04911,29.86654],[12.05378,29.91793],[12.16124,30.03474],[12.25936,30.0908],[12.31543,30.11884],[12.42756,30.04408],[12.49297,29.96465],[12.55371,29.96932],[12.61445,30.01138],[12.6565,30.02539],[12.70323,30.16089],[12.73126,30.24966],[12.80601,30.23097],[12.86675,30.23564],[12.91815,30.18425],[12.97422,30.18892],[12.97422,30.33843],[13.02561,30.41319],[13.10504,30.49262],[13.22185,30.57205],[13.31062,30.72623],[13.37603,30.815],[13.40406,30.89443],[13.36669,30.99722],[13.31529,31.12337],[13.25455,31.18878],[13.18914,31.27756],[13.18914,31.33362],[13.32931,31.43174],[13.36669,31.52986],[13.40406,31.61396],[13.49284,31.67003],[13.5489,31.7074],[13.56292,31.79618],[13.62833,31.8429],[13.633,31.927],[13.57694,31.9784],[13.59095,32.08586],[13.58628,32.17463],[13.52554,32.25873],[13.45546,32.34283],[13.34332,32.43628],[13.25922,32.48767],[13.16578,32.51103],[13.11906,32.54374],[13.11906,32.6512],[13.18447,32.7026],[13.30595,32.71194],[13.42743,32.7353],[13.49284,32.83342],[13.49284,32.9035],[13.58628,32.96424],[13.74047,32.95023],[13.83858,32.97359],[14.01613,33.09039],[14.15163,33.17449]]]]}},{"type":"Feature","properties":{"name":"The Iron Islands","claimedBy":"Greyjoy"},"geometry":{"type":"MultiPolygon","coordinates":[[[[8.19405,13.37613],[8.24993,13.31326],[8.24993,13.25738],[8.18008,13.18055],[8.06832,13.19452],[7.96355,13.22246],[7.90767,13.17356],[7.79591,13.17356],[7.66319,13.15959],[7.62827,13.27834],[7.73304,13.32723],[7.83083,13.3901],[7.9845,13.33422],[8.19405,13.37613]]],[[[9.0113,12.66366],[9.09512,12.49602],[9.21386,12.4122],[9.21386,12.30044],[9.19291,12.11184],[9.27673,11.9931],[9.36055,11.8534],[9.30467,11.76259],[9.16497,11.65083],[8.69697,11.63686],[8.72491,11.54606],[8.68999,11.44827],[8.5922,11.49018],[8.50139,11.49716],[8.42456,11.54606],[8.42456,11.68576],[8.37566,11.74164],[8.39662,11.79752],[8.42456,11.93023],[8.36169,12.02104],[8.41757,12.10486],[8.49441,12.18868],[8.56426,12.21662],[8.7319,12.19566],[8.88557,12.15375],[8.94843,12.20265],[8.99034,12.3633],[8.96939,12.56587],[9.0113,12.66366]]],[[[7.93561,12.79986],[8.08229,12.60778],[8.24993,12.49602],[8.26739,12.4087],[8.20104,12.29345],[8.10674,12.27599],[8.04737,12.34933],[7.97053,12.34933],[7.92862,12.39124],[7.82385,12.34235],[7.69113,12.24805],[7.60382,12.22011],[7.51651,12.30044],[7.46761,12.38076],[7.43967,12.45061],[7.49206,12.50649],[7.60382,12.49951],[7.68065,12.54491],[7.77146,12.64619],[7.7994,12.737],[7.85179,12.79637],[7.93561,12.79986]]],[[[6.89135,12.48903],[6.92628,12.44014],[6.88437,12.34235],[6.92628,12.25503],[6.84944,12.17121],[6.74467,12.05596],[6.66085,12.06993],[6.591,12.20614],[6.59798,12.29694],[6.6818,12.38076],[6.78658,12.42966],[6.80404,12.47506],[6.89135,12.48903]]],[[[6.43034,12.67763],[6.43314,12.57774],[6.2228,12.4825],[6.20682,12.32139],[6.24524,12.18169],[6.30461,12.0839],[6.357,11.97913],[6.43733,11.8988],[6.5875,11.86737],[6.73768,11.86387],[6.80055,11.9442],[6.94025,11.95817],[6.98565,12.07342],[7.09042,12.10486],[7.21266,12.11533],[7.23362,12.05596],[7.21965,11.91277],[7.18821,11.87435],[7.07645,11.80799],[7.10789,11.7137],[7.16377,11.64035],[7.12884,11.53907],[7.04502,11.51113],[6.88786,11.48319],[6.79007,11.45525],[6.57353,11.46573],[6.51067,11.48668],[6.44431,11.44477],[6.27667,11.4308],[6.1684,11.46922],[6.04267,11.46922],[5.92044,11.52859],[5.7982,11.62638],[5.75629,11.74862],[5.78772,11.86387],[5.82963,11.96516],[5.82265,12.03151],[5.74232,12.10486],[5.71089,12.26202],[5.83312,12.38775],[5.86805,12.503],[5.8925,12.65667],[6.0287,12.70557],[6.19285,12.66715],[6.29413,12.63572],[6.34303,12.67413],[6.43034,12.67763]]],[[[7.59683,11.52859],[7.65621,11.49716],[7.69113,11.44477],[7.67716,11.30857],[7.61779,11.22475],[7.6108,11.09203],[7.69113,10.99774],[7.76447,10.91042],[7.68764,10.87899],[7.56889,10.92789],[7.4292,10.94535],[7.32442,10.91741],[7.22663,10.8266],[7.1463,10.90693],[7.05201,11.00472],[7.05899,11.07806],[7.00311,11.17585],[7.0555,11.25618],[7.12884,11.23872],[7.22314,11.2492],[7.28251,11.21078],[7.38729,11.19681],[7.47809,11.25269],[7.49905,11.33302],[7.50952,11.44477],[7.59683,11.52859]]],[[[6.71323,11.01869],[6.76213,10.9698],[6.73768,10.91042],[6.67132,10.84756],[6.52813,10.83359],[6.38843,10.85105],[6.39192,10.91042],[6.33255,10.95932],[6.30461,11.0152],[6.37446,11.06759],[6.44082,11.07457],[6.48622,11.02218],[6.56655,11.03615],[6.71323,11.01869]]]]}},{"type":"Feature","properties":{"name":"Dorne","claimedBy":"Martell"},"geometry":{"type":"MultiPolygon","coordinates":[[[[10.07742,-9.37693],[9.84223,-9.00064],[9.62451,-8.51811],[9.50093,-8.00615],[9.54212,-7.35885],[9.73043,-6.87631],[9.94227,-6.64093],[10.03643,-6.3467],[10.30712,-5.71705],[10.49542,-5.39928],[11.01326,-4.88733],[11.84593,-4.50924],[12.20342,-4.40038],[12.59916,-4.32094],[12.96694,-4.25768],[13.60836,-4.29887],[14.03205,-4.26945],[14.55578,-4.07526],[14.93827,-3.8281],[15.30312,-3.65745],[15.78565,-3.47503],[16.31526,-3.39853],[17.00376,-3.41618],[17.42156,-3.49268],[17.81583,-3.59272],[17.9041,-3.72218],[17.89233,-3.89872],[17.98872,-4.08209],[17.85789,-4.15685],[17.83453,-4.22927],[17.84621,-4.31104],[17.97236,-4.38346],[17.98405,-4.57268],[17.93966,-4.7292],[17.94199,-4.87871],[17.88126,-4.93011],[17.78172,-4.94526],[17.7259,-5.04341],[17.69086,-5.09247],[17.62545,-5.11583],[17.59508,-5.16723],[17.50631,-5.17891],[17.43622,-5.20694],[17.43856,-5.27936],[17.51565,-5.37981],[17.50397,-5.46625],[17.45725,-5.52699],[17.36848,-5.55502],[17.25868,-5.55035],[17.21429,-5.59941],[17.20261,-5.74659],[17.20495,-5.84938],[17.23064,-5.9288],[17.07646,-6.02926],[16.96432,-6.15307],[16.89891,-6.24652],[16.85686,-6.31894],[16.80313,-6.37734],[16.74006,-6.46144],[16.73305,-6.55255],[16.82416,-6.59927],[16.95498,-6.59227],[17.02506,-6.55956],[17.1699,-6.48013],[17.27503,-6.44275],[17.35679,-6.47079],[17.38483,-6.54087],[17.46659,-6.55722],[17.52733,-6.6203],[17.78664,-6.646],[17.96185,-6.60862],[18.09968,-6.60395],[18.25387,-6.65067],[18.33563,-6.68571],[18.45945,-6.66235],[18.59261,-6.66702],[18.73511,-6.73711],[18.8122,-6.73944],[18.97106,-6.646],[19.10188,-6.5946],[19.17664,-6.59227],[19.23271,-6.646],[19.23504,-6.65067],[19.29578,-6.75346],[19.41726,-6.80719],[19.51304,-6.89363],[19.80039,-6.91232],[19.93822,-6.95904],[20.05502,-6.96605],[20.15314,-6.95203],[20.20687,-6.91465],[20.28396,-6.91465],[20.34003,-6.93568],[20.3961,-6.90998],[20.44049,-6.94969],[20.4218,-7.03847],[20.47553,-7.10154],[20.45917,-7.23236],[20.5386,-7.29778],[20.75586,-7.3445],[20.94042,-7.32347],[21.08993,-7.35852],[21.22542,-7.29077],[21.33522,-7.2604],[21.46605,-7.09921],[21.5408,-7.07117],[21.62023,-7.07584],[21.72769,-7.11556],[21.80478,-7.08752],[21.88421,-7.1249],[21.94262,-7.19265],[22.00803,-7.24872],[22.08512,-7.28376],[22.16922,-7.34216],[22.28603,-7.40057],[22.38648,-7.44028],[22.49394,-7.46131],[22.63878,-7.45663],[22.73223,-7.50569],[22.81633,-7.50569],[22.98219,-7.38188],[23.11535,-7.35151],[23.19712,-7.35384],[23.29523,-7.28843],[23.45643,-7.26974],[23.5452,-7.22769],[23.67602,-7.14359],[23.75312,-7.05015],[23.85824,-6.95904],[23.9657,-6.93568],[24.10821,-6.85158],[24.2437,-6.73711],[24.29276,-6.57825],[24.4049,-6.55255],[24.50769,-6.55022],[24.65019,-6.43341],[24.75532,-6.368],[24.81839,-6.4007],[24.83708,-6.4778],[24.82774,-6.57358],[24.75298,-6.63198],[24.65019,-6.70674],[24.61281,-6.77682],[24.61281,-6.90063],[24.6315,-6.95203],[24.7156,-6.87026],[24.80204,-6.86793],[24.88147,-6.80252],[24.89081,-6.65534],[24.9609,-6.60628],[24.99126,-6.55956],[25.08237,-6.46378],[25.12209,-6.35865],[25.21086,-6.31193],[25.29029,-6.26988],[25.33234,-6.19746],[25.40943,-6.19279],[25.40009,-6.36099],[25.38373,-6.46378],[25.35804,-6.58058],[25.34168,-6.69506],[25.23422,-6.80719],[25.23656,-6.91699],[25.22021,-7.03379],[25.19217,-7.14126],[25.21553,-7.18564],[25.25058,-7.17396],[25.28795,-7.08752],[25.40476,-7.00109],[25.45849,-6.88895],[25.53325,-6.80018],[25.61968,-6.77682],[25.66407,-6.76748],[25.67341,-6.82354],[25.64071,-6.90297],[25.59866,-6.94268],[25.56829,-7.0081],[25.53325,-7.08052],[25.48886,-7.14826],[25.51923,-7.1763],[25.58698,-7.14826],[25.67575,-7.13191],[25.7692,-7.08052],[25.79022,-7.04781],[25.8533,-7.0408],[25.90236,-6.98941],[25.97244,-6.96838],[26.00047,-6.97539],[25.99814,-7.18097],[25.9701,-7.27442],[25.91404,-7.35852],[25.83227,-7.41225],[25.78088,-7.47065],[25.72715,-7.58278],[25.72481,-7.70894],[25.71313,-7.82574],[25.70612,-7.91218],[25.60567,-7.98927],[25.57296,-8.05001],[25.52157,-8.15514],[25.43513,-8.22522],[25.31832,-8.29998],[25.1618,-8.34203],[25.04266,-8.36772],[24.91417,-8.46818],[24.84175,-8.55461],[24.77868,-8.62003],[24.75999,-8.72982],[24.79036,-8.83028],[24.78569,-8.95409],[24.73429,-9.01717],[24.64085,-9.0966],[24.58011,-9.12463],[24.45629,-9.10127],[24.38621,-9.07557],[24.30912,-9.08959],[24.2437,-9.18771],[24.17596,-9.27648],[24.12923,-9.23209],[24.04513,-9.2648],[24.02411,-9.31619],[24.14325,-9.46337],[24.14792,-9.61522],[24.09653,-9.63157],[24.0171,-9.69698],[23.93066,-9.78575],[23.83021,-9.82547],[23.7391,-9.83248],[23.64565,-9.81145],[23.56623,-9.83949],[23.4611,-9.84182],[23.41671,-9.97031],[23.41438,-10.09412],[23.35831,-10.15019],[23.28823,-10.20159],[23.29523,-10.32073],[23.21814,-10.3511],[23.09666,-10.33007],[23.07564,-10.27167],[22.93313,-10.27167],[22.70419,-10.20392],[22.67149,-10.28569],[22.59206,-10.34409],[22.47525,-10.34409],[22.39583,-10.33241],[22.33742,-10.28569],[22.26267,-10.29503],[22.1809,-10.32774],[21.8445,-10.33241],[21.67396,-10.32306],[21.48707,-10.32306],[21.36326,-10.28335],[21.23243,-10.23429],[21.10628,-10.20859],[21.02452,-10.15953],[20.91939,-10.14318],[20.84931,-10.16187],[20.80025,-10.23663],[20.75353,-10.28569],[20.65775,-10.26933],[20.52459,-10.22027],[20.41012,-10.18757],[20.34704,-10.20626],[20.28864,-10.29036],[20.18585,-10.29737],[20.08306,-10.31606],[20.00129,-10.34175],[19.89383,-10.39548],[19.74899,-10.40716],[19.60882,-10.39782],[19.50837,-10.39081],[19.42894,-10.32774],[19.34718,-10.30204],[19.33316,-10.17355],[19.25607,-10.15253],[19.12291,-10.14085],[18.93135,-10.06142],[18.83089,-10.03338],[18.74913,-10.01002],[18.70941,-10.01002],[18.67437,-10.08244],[18.65568,-10.16888],[18.64867,-10.41651],[18.61363,-10.42819],[18.52953,-10.48893],[18.43375,-10.56135],[18.39404,-10.61508],[18.29125,-10.63377],[18.16977,-10.64311],[18.07165,-10.67115],[17.93382,-10.74824],[17.86373,-10.81365],[17.80066,-10.90009],[17.71189,-10.84636],[17.63947,-10.80431],[17.64414,-10.66414],[17.59041,-10.61742],[17.49229,-10.51229],[17.32876,-10.46323],[17.13486,-10.47725],[16.89891,-10.46557],[16.72838,-10.43987],[16.6396,-10.45155],[16.61858,-10.545],[16.58587,-10.67115],[16.50177,-10.74123],[16.4457,-10.7459],[16.38263,-10.72488],[16.30787,-10.76693],[16.20041,-10.81131],[15.98081,-10.78562],[15.89204,-10.74357],[15.71683,-10.74357],[15.58601,-10.76459],[15.47387,-10.78095],[15.33838,-10.79496],[15.22157,-10.8557],[15.1328,-10.89542],[15.023,-10.88373],[14.92021,-10.84402],[14.85947,-10.81131],[14.84312,-10.73889],[14.70062,-10.67816],[14.60717,-10.63377],[14.52541,-10.59639],[14.41561,-10.53332],[14.29179,-10.61041],[14.10957,-10.72254],[14.02547,-10.77394],[13.90166,-10.88841],[13.7942,-10.95849],[13.6587,-10.99587],[13.5162,-11.03558],[13.42509,-11.08698],[13.32697,-11.09866],[13.14943,-11.09866],[12.98356,-11.09866],[12.84573,-11.08464],[12.75228,-11.03792],[12.66585,-11.04026],[12.59576,-11.09866],[12.48597,-11.1594],[12.41822,-11.15005],[12.34346,-11.09399],[12.21965,-11.03792],[12.15657,-11.03091],[12.03743,-11.05194],[11.89025,-11.16407],[11.8155,-11.22247],[11.75943,-11.1921],[11.6543,-11.13136],[11.58188,-11.07997],[11.42303,-11.04259],[11.36696,-10.97017],[11.26183,-10.9071],[11.17072,-10.85804],[11.124,-10.78095],[11.06326,-10.71553],[11.02121,-10.65246],[11.05859,-10.50295],[10.98851,-10.41651],[11.00953,-10.2997],[10.99318,-10.17822],[11.03056,-10.07777],[11.01654,-9.95162],[11.03289,-9.83715],[11.07962,-9.7437],[11.13568,-9.64792],[11.11466,-9.52878],[11.02355,-9.42132],[10.90441,-9.3489],[10.86236,-9.30918],[10.86936,-9.22742],[10.94879,-9.19705],[10.97683,-9.14332],[10.96982,-9.05688],[11.05625,-9.00782],[11.18708,-8.98213],[11.22913,-8.92372],[11.21277,-8.80692],[11.28987,-8.72282],[11.29921,-8.53359],[11.36229,-8.47285],[11.38565,-8.38174],[11.40901,-8.2883],[11.39032,-8.26026],[11.36649,-8.26026],[11.32724,-8.30932],[11.27585,-8.40277],[11.18941,-8.4892],[11.07494,-8.59433],[10.83666,-8.72515],[10.8133,-8.77888],[10.82498,-8.88868],[10.79227,-8.99147],[10.7292,-9.03352],[10.57735,-9.03118],[10.47689,-9.06155],[10.39513,-9.14565],[10.32271,-9.19705],[10.28066,-9.27181],[10.20357,-9.33488],[10.15217,-9.37693],[10.07742,-9.37693]]],[[[25.77877,-5.22491],[25.83814,-5.19697],[25.92546,-5.31572],[26.06166,-5.33318],[26.14548,-5.44494],[26.14199,-5.54273],[26.12104,-5.64052],[26.12104,-5.72783],[26.05468,-5.82911],[25.94292,-5.87452],[25.88704,-5.90595],[25.83814,-6.00374],[25.82417,-6.12248],[25.72289,-6.15741],[25.60764,-6.15042],[25.60415,-6.02819],[25.54128,-5.9304],[25.52382,-5.81514],[25.54128,-5.6964],[25.674,-5.61607],[25.76829,-5.55321],[25.75083,-5.49034],[25.7648,-5.40303],[25.77179,-5.3227],[25.75782,-5.24936],[25.77877,-5.22491]]]]}},{"type":"Feature","properties":{"name":"Stormlands","claimedBy":"Baratheon"},"geometry":{"type":"MultiPolygon","coordinates":[[[[17.98872,-4.08209],[17.89233,-3.89872],[17.9041,-3.72218],[17.81583,-3.59272],[17.42156,-3.49268],[17.00376,-3.41618],[16.31526,-3.39853],[15.78565,-3.47503],[15.30312,-3.65745],[14.93827,-3.8281],[14.55578,-4.07526],[14.03205,-4.26945],[13.60836,-4.29887],[12.96694,-4.25768],[13.00225,-3.84576],[13.11994,-3.46914],[13.28471,-3.17492],[13.6319,-2.78065],[14.02028,-2.59823],[14.37924,-2.47465],[15.20896,-2.28635],[16.13873,-2.09804],[16.83311,-1.98623],[17.34506,-1.87443],[17.69225,-1.75085],[17.95706,-1.55666],[18.18067,-1.32128],[18.43371,-0.97997],[18.61613,-0.5857],[18.76913,-0.23263],[18.86328,0.39702],[18.93978,0.80894],[18.96332,1.22674],[18.96921,1.69163],[19.08101,2.15062],[19.2752,2.66846],[19.33258,2.84206],[19.65034,2.90679],[20.04461,2.87148],[20.36826,2.77144],[20.73311,2.62433],[21.22741,2.60668],[21.86883,2.60668],[22.73386,2.63021],[23.15167,2.61256],[23.37797,2.56301],[23.51346,2.65178],[23.54414,2.67939],[23.58462,2.78262],[23.83459,2.81766],[23.83692,2.62376],[23.9584,2.50929],[24.06587,2.52565],[24.21538,2.62844],[24.29013,2.62376],[24.38825,2.54901],[24.50973,2.53266],[24.55178,2.47659],[24.6242,2.46958],[24.70129,2.35277],[24.62887,2.2897],[24.50739,2.28736],[24.45133,2.24298],[24.33218,2.22195],[24.29013,2.18924],[24.36022,2.12617],[24.43264,1.986],[24.43731,1.89956],[24.36255,1.82948],[24.2621,1.78276],[24.22939,1.71735],[24.27144,1.66128],[24.39059,1.57484],[24.41862,1.56316],[24.43731,1.46504],[24.41161,1.43],[24.38124,1.35525],[24.32284,1.32254],[24.21304,1.35758],[24.14296,1.35057],[24.08222,1.31787],[24.0425,1.27348],[24.0425,1.19873],[23.93504,1.08659],[23.76918,1.07958],[23.69909,1.07024],[23.66046,1.06151],[23.65482,1.06024],[23.62667,1.05389],[23.43978,1.07024],[23.30896,1.13098],[23.15244,1.15668],[23.07067,1.13098],[23.06367,1.05856],[23.21084,0.90905],[23.36035,0.73384],[23.40007,0.68711],[23.40007,0.62404],[23.38138,0.57498],[23.4024,0.50022],[23.4538,0.4278],[23.49585,0.37641],[23.50286,0.2339],[23.40007,0.16148],[23.30195,0.07738],[23.29962,0.02132],[23.32998,-0.13287],[23.30662,-0.26836],[23.25289,-0.39919],[23.24355,-0.49964],[23.19449,-0.60243],[23.13141,-0.68419],[23.066,-0.77063],[23.00059,-0.8267],[22.82304,-0.82203],[22.74128,-0.80567],[22.6455,-0.7426],[22.58009,-0.74727],[22.55673,-0.82203],[22.49365,-0.85473],[22.41569,-0.84853],[22.21945,-0.88627],[22.07227,-0.84889],[21.97182,-0.85123],[21.8737,-0.90029],[21.79427,-1.03578],[21.76157,-1.08951],[21.79427,-1.14324],[21.92276,-1.1596],[22.03256,-1.27874],[21.99284,-1.35116],[21.92042,-1.4446],[21.83399,-1.48899],[21.79427,-1.56842],[21.77792,-1.64318],[21.86202,-1.69223],[22.01153,-1.69691],[22.15871,-1.67588],[22.25215,-1.62449],[22.36429,-1.58477],[22.47175,-1.60113],[22.55118,-1.65252],[22.68901,-1.6385],[22.7404,-1.67588],[22.79881,-1.76232],[22.87356,-1.83007],[22.92963,-1.93753],[22.91795,-2.01462],[22.92496,-2.14077],[22.97869,-2.20385],[23.04176,-2.2459],[23.23099,-2.25758],[23.27304,-2.21553],[23.25435,-2.1688],[23.15857,-2.02396],[23.14222,-1.92585],[23.17726,-1.8581],[23.27304,-1.81371],[23.3735,-1.74129],[23.47862,-1.68289],[23.56506,-1.63383],[23.64449,-1.62682],[23.66084,-1.74129],[23.63514,-1.82072],[23.68186,-1.8581],[23.8197,-1.86044],[23.96454,-1.97724],[24.11405,-2.06835],[24.2145,-2.15245],[24.31729,-2.20618],[24.41775,-2.23889],[24.54156,-2.22254],[24.63033,-2.14311],[24.67706,-2.02396],[24.70976,-1.99827],[24.76116,-2.02163],[24.80554,-2.10807],[24.90132,-2.06835],[24.96206,-2.00761],[25.05784,-1.89781],[25.16998,-1.86978],[25.24473,-1.80203],[25.2751,-1.81371],[25.38957,-1.93286],[25.58581,-1.9679],[25.62786,-2.01228],[25.72131,-2.00995],[25.75401,-2.04966],[25.75868,-2.13376],[25.71196,-2.20852],[25.67458,-2.28328],[25.67225,-2.32065],[25.53675,-2.37906],[25.42695,-2.44914],[25.22371,-2.60099],[25.20736,-2.63136],[25.12793,-2.66173],[25.0485,-2.76919],[25.01579,-2.86731],[24.98075,-2.98178],[24.86628,-3.04018],[24.74013,-3.08924],[24.66304,-3.14297],[24.46213,-3.11961],[24.35467,-3.14063],[24.28926,-3.22707],[24.24954,-3.35322],[24.17245,-3.50974],[24.14208,-3.59852],[24.05798,-3.71299],[23.97154,-3.78774],[23.93884,-3.85082],[23.99958,-3.94426],[24.0206,-4.01435],[24.09302,-4.11714],[24.08601,-4.24562],[24.06265,-4.29001],[24.01827,-4.33907],[24.04864,-4.4512],[23.99724,-4.49559],[23.91314,-4.51895],[23.82437,-4.55633],[23.69822,-4.55633],[23.59309,-4.60305],[23.4646,-4.61006],[23.3478,-4.6708],[23.21697,-4.64277],[23.09316,-4.66145],[23.02308,-4.67781],[22.99271,-4.70818],[22.89225,-4.70818],[22.81516,-4.68014],[22.79881,-4.60072],[22.88758,-4.50026],[22.93664,-4.43485],[22.96,-4.33907],[22.91795,-4.283],[22.77311,-4.33673],[22.68434,-4.29468],[22.61192,-4.24329],[22.47876,-4.26898],[22.3783,-4.22226],[22.35027,-4.13816],[22.27785,-4.05172],[22.20309,-3.99566],[21.95079,-4.18488],[21.82464,-4.18488],[21.70083,-4.07976],[21.57935,-4.07041],[21.49758,-4.09378],[21.40414,-4.0307],[21.34807,-3.99566],[21.1495,-4.03304],[21.01167,-4.16853],[20.94626,-4.16386],[20.79441,-4.07742],[20.64256,-4.12648],[20.52809,-4.06107],[20.40661,-3.99566],[20.3155,-3.88119],[20.30382,-3.77139],[20.26177,-3.71766],[20.30616,-3.61487],[20.31083,-3.52142],[20.22673,-3.43966],[20.11226,-3.43499],[19.99545,-3.39527],[19.895,-3.40462],[19.86697,-3.52376],[19.78286,-3.64524],[19.73147,-3.71065],[19.72213,-3.82979],[19.7595,-3.93725],[19.68241,-3.99332],[19.50019,-4.07509],[19.33666,-4.1732],[19.24555,-4.13349],[19.14977,-4.06341],[19.04932,-3.95828],[18.95587,-3.95127],[18.82739,-4.04238],[18.74562,-4.1405],[18.65919,-4.15919],[18.54705,-4.14984],[18.45361,-4.07742],[18.37885,-4.04472],[18.30643,-3.99099],[18.24803,-3.95594],[18.13823,-4.00967],[17.98872,-4.08209]]],[[[24.85326,1.41432],[25.00693,1.31653],[25.13965,1.21874],[25.27935,1.14889],[25.39111,1.03714],[25.35618,0.89045],[25.40508,0.83457],[25.48191,0.8695],[25.52382,0.81362],[25.56573,0.85553],[25.64256,0.8206],[25.62161,0.50628],[25.50286,0.35261],[25.52382,0.22688],[25.53779,0.12909],[25.59367,0.05225],[25.53779,-0.08046],[25.40508,-0.13634],[25.30729,-0.21318],[25.35618,-0.28303],[25.43302,-0.30398],[25.49588,-0.41574],[25.48191,-0.48559],[25.32824,-0.52052],[25.23045,-0.4367],[25.10472,-0.44368],[24.96502,-0.4367],[24.92311,-0.31097],[24.87422,-0.21318],[24.86025,-0.06649],[24.7904,0.02431],[24.71356,0.07321],[24.6507,0.14306],[24.62974,0.35959],[24.62974,0.52025],[24.58085,0.57613],[24.55291,0.61804],[24.63673,0.69487],[24.69261,0.76472],[24.72753,0.87648],[24.77643,0.95332],[24.74849,1.02317],[24.69959,1.04412],[24.74849,1.21176],[24.71356,1.2397],[24.76246,1.31653],[24.85326,1.41432]]],[[[25.79973,0.37705],[25.84513,0.37007],[25.89053,0.30371],[25.88005,0.20592],[25.82767,0.1221],[25.76131,0.12559],[25.69844,0.20243],[25.71591,0.28276],[25.79973,0.37705]]],[[[25.27935,-3.32849],[25.28284,-3.43326],[25.24791,-3.54153],[25.17806,-3.62884],[25.18156,-3.71266],[25.22347,-3.80696],[25.18854,-3.90126],[25.09075,-3.93269],[25.02789,-4.01651],[24.95454,-4.1143],[24.87072,-4.17367],[24.6961,-4.15621],[24.68562,-4.03048],[24.73452,-3.93618],[24.73801,-3.83839],[24.72753,-3.75457],[24.76246,-3.6952],[24.87771,-3.63233],[24.99645,-3.62884],[25.05932,-3.56598],[25.08726,-3.45771],[25.18854,-3.32849],[25.22347,-3.30055],[25.27935,-3.32849]]],[[[25.49937,-2.93383],[25.57621,-2.96876],[25.57621,-3.03861],[25.49239,-3.09449],[25.45746,-3.2272],[25.37364,-3.24816],[25.3457,-3.12941],[25.40857,-3.05258],[25.49937,-2.93383]]],[[[22.15007,-4.71151],[22.23389,-4.73247],[22.33168,-4.80232],[22.4155,-4.83026],[22.47138,-4.83026],[22.45042,-4.96297],[22.35263,-5.06775],[22.23389,-5.0887],[22.17801,-5.01885],[22.12213,-4.96996],[22.19198,-4.88614],[22.19198,-4.83026],[22.14308,-4.79533],[22.15007,-4.71151]]],[[[20.6902,-4.4391],[20.78799,-4.39719],[20.84387,-4.42513],[20.86483,-4.47752],[20.82641,-4.53689],[20.76005,-4.55784],[20.71465,-4.62071],[20.67623,-4.63468],[20.63432,-4.58928],[20.60289,-4.53689],[20.54701,-4.49847],[20.53653,-4.4391],[20.61686,-4.42862],[20.6902,-4.4391]]],[[[20.2746,-4.47752],[20.34445,-4.55784],[20.32698,-4.64166],[20.25015,-4.65913],[20.14538,-4.63817],[20.0895,-4.63468],[20.09997,-4.54038],[20.16982,-4.47402],[20.2746,-4.47752]]]]}},{"type":"Feature","properties":{"name":"The Vale","claimedBy":"Arryn"},"geometry":{"type":"MultiPolygon","coordinates":[[[[19.00333,18.18529],[18.94046,18.02464],[18.86363,18.01765],[18.80076,18.09449],[18.61217,18.09449],[18.55629,18.05258],[18.47945,18.07353],[18.50041,18.1364],[18.66106,18.24117],[18.75187,18.31801],[18.91951,18.31801],[19.01031,18.29705],[19.00333,18.18529]]],[[[19.34559,18.16434],[19.49926,18.11544],[19.65992,18.09449],[19.76469,17.98971],[19.70183,17.85001],[19.59705,17.84303],[19.49228,17.92685],[19.40846,17.93383],[19.28971,17.97574],[19.19891,18.08052],[19.21986,18.12243],[19.34559,18.16434]]],[[[21.89512,17.89891],[21.93703,17.78715],[21.88813,17.68237],[21.80431,17.64046],[21.68557,17.64046],[21.62969,17.59157],[21.5319,17.61252],[21.48999,17.67539],[21.43411,17.77318],[21.49697,17.82207],[21.60175,17.76619],[21.65763,17.86398],[21.75542,17.84303],[21.84622,17.89891],[21.89512,17.89891]]],[[[24.53195,18.09449],[24.64371,18.04559],[24.75198,18.05607],[24.84977,18.03512],[24.84628,17.98971],[24.77293,17.93733],[24.71356,17.87097],[24.64371,17.84303],[24.63323,17.79413],[24.53894,17.80112],[24.47607,17.83954],[24.39225,17.86398],[24.30494,17.87446],[24.24557,17.94082],[24.24207,18.00718],[24.26303,18.07004],[24.44115,18.04909],[24.53195,18.09449]]],[[[19.23037,8.94883],[19.00893,9.12384],[18.82062,9.53576],[18.44401,10.25368],[18.17332,10.63029],[17.84378,11.12459],[17.56132,11.59536],[17.27886,12.16028],[17.17294,12.38389],[17.04348,12.63105],[16.79633,12.8782],[16.60802,13.09004],[16.44325,13.41958],[16.32556,13.81973],[16.18433,14.3258],[16.14902,15.15553],[16.14902,15.54391],[16.20625,15.87312],[16.3324,15.96189],[16.44454,16.04599],[16.6361,16.10206],[16.9398,16.14878],[17.09398,16.1628],[17.3089,16.17215],[17.42571,16.11141],[17.54719,16.08337],[17.664,16.06936],[17.71539,16.13944],[17.65465,16.23289],[17.62662,16.32166],[17.64531,16.47584],[17.76211,16.52257],[17.92097,16.53658],[18.07515,16.50855],[18.14991,16.42912],[18.2527,16.36838],[18.38352,16.37305],[18.42557,16.42912],[18.45828,16.51789],[18.43959,16.61134],[18.52836,16.70478],[18.51435,16.78888],[18.59377,16.86831],[18.78534,16.90102],[18.93018,16.86364],[19.07969,16.78888],[19.18715,16.75618],[19.24322,16.8029],[19.3647,16.93372],[19.49085,16.93372],[19.67307,16.92905],[19.81744,16.98019],[19.81557,16.99446],[19.91135,17.06221],[19.9791,17.14631],[20.06787,17.23275],[20.14496,17.27947],[20.23841,17.31919],[20.29915,17.36591],[20.37391,17.37292],[20.45567,17.3005],[20.53276,17.27246],[20.6192,17.34255],[20.79908,17.44534],[20.97663,17.52944],[21.13548,17.56214],[21.18221,17.52009],[21.21024,17.44767],[21.14716,17.37992],[21.09343,17.32152],[21.01167,17.23976],[20.92056,17.17201],[20.91122,17.09492],[20.94392,17.04352],[21.03036,17.02717],[21.11913,17.06455],[21.21958,17.09258],[21.3177,17.12996],[21.40414,17.14631],[21.47656,17.08791],[21.50926,17.05287],[21.56533,17.09492],[21.57701,17.17668],[21.6471,17.24677],[21.74054,17.29349],[21.84567,17.30283],[21.89239,17.24443],[21.95546,17.20238],[22.09797,17.20705],[22.18674,17.24677],[22.38765,17.28181],[22.59089,17.39161],[22.69368,17.443],[22.72872,17.48038],[22.71237,17.5855],[22.73106,17.64157],[22.78713,17.67194],[22.94131,17.67661],[23.04176,17.73969],[23.16091,17.78641],[23.26837,17.8308],[23.34079,17.89154],[23.47862,17.89154],[23.59076,17.9406],[23.64916,17.99666],[23.71691,18.00834],[23.74494,17.95461],[23.72859,17.89855],[23.70756,17.82846],[23.61178,17.74202],[23.50665,17.68829],[23.43423,17.68362],[23.31509,17.58784],[23.14455,17.48505],[22.99037,17.43366],[22.98803,17.33554],[22.93898,17.26078],[22.87123,17.17902],[22.71237,17.15098],[22.5979,17.0809],[22.50212,16.98979],[22.33392,17.01082],[22.27084,16.95942],[22.14002,16.88233],[22.0676,16.78655],[22.01854,16.70245],[22.0676,16.68142],[22.20309,16.67909],[22.30588,16.6931],[22.37363,16.72581],[22.46007,16.73282],[22.53249,16.74683],[22.61192,16.80991],[22.66331,16.87065],[22.73106,16.87766],[22.8175,16.88467],[22.89225,16.9127],[22.94598,16.97577],[22.94598,17.08324],[23.00672,17.12996],[23.1282,17.17668],[23.24501,17.23508],[23.36649,17.33787],[23.4319,17.36357],[23.46928,17.36357],[23.50665,17.29349],[23.48797,17.21406],[23.44124,17.13697],[23.36181,17.08324],[23.26136,17.00381],[23.2637,16.91737],[23.20763,16.85663],[23.20296,16.78421],[23.14455,16.72347],[22.97168,16.64404],[22.88758,16.59499],[22.7918,16.53658],[22.71003,16.55527],[22.61893,16.50621],[22.54417,16.43146],[22.50446,16.31932],[22.404,16.19784],[22.29654,16.10907],[22.27084,16.06468],[22.32925,16.03431],[22.46941,16.05534],[22.53249,16.08337],[22.62827,16.07636],[22.7334,16.08805],[22.79647,16.1301],[22.85955,16.19551],[22.93664,16.22354],[23.02074,16.25625],[23.1796,16.35436],[23.31042,16.47117],[23.44358,16.57863],[23.51366,16.62769],[23.60944,16.70011],[23.7099,16.73048],[23.7683,16.80991],[23.80802,16.87999],[23.89679,16.90803],[23.96687,16.96409],[24.10003,17.01549],[24.17712,17.05754],[24.2402,17.04819],[24.27057,17.03184],[24.26356,16.97344],[24.20983,16.90803],[24.1888,16.85897],[24.08835,16.81225],[23.95753,16.75618],[23.93183,16.69077],[23.9622,16.64404],[23.95052,16.59732],[23.85707,16.52724],[23.77064,16.47584],[23.65149,16.40576],[23.51834,16.28662],[23.3805,16.1885],[23.36181,16.14411],[23.39218,16.12075],[23.53002,16.11608],[23.63047,16.14178],[23.69588,16.19551],[23.78699,16.26325],[23.82904,16.33567],[23.8524,16.42445],[23.96454,16.48051],[24.07901,16.45482],[24.15843,16.45949],[24.24721,16.52257],[24.32897,16.59499],[24.52754,16.73048],[24.79853,16.90803],[24.93403,17.01082],[25.01112,17.12762],[25.09989,17.13697],[25.17465,17.12295],[25.20035,17.07856],[25.16297,16.9968],[25.10457,16.98745],[25.02981,16.92204],[24.99477,16.86364],[24.85694,16.75151],[24.69341,16.64404],[24.52521,16.52257],[24.4598,16.45248],[24.46447,16.36838],[24.4084,16.27026],[24.29159,16.20485],[24.14208,16.18616],[24.02528,16.14411],[23.97855,16.05534],[23.94585,15.90115],[23.8197,15.81238],[23.70756,15.78201],[23.48797,15.77267],[23.3805,15.72361],[23.26136,15.68389],[23.11418,15.67221],[22.94832,15.66754],[22.78012,15.64184],[22.6236,15.59746],[22.53015,15.53438],[22.42736,15.42458],[22.31756,15.31011],[22.20777,15.19097],[22.1517,15.1022],[22.12133,15.00875],[21.97649,14.84055],[21.95313,14.75879],[22.03723,14.75645],[22.1517,14.77748],[22.2358,14.80317],[22.39466,14.81485],[22.45072,14.88494],[22.49511,14.93633],[22.57921,14.9924],[22.70303,15.03445],[22.81049,15.12322],[22.87824,15.19331],[22.91795,15.24003],[22.99037,15.24237],[23.04644,15.17462],[23.20552,15.16016],[23.30575,15.19798],[23.46928,15.31011],[23.58375,15.34983],[23.70523,15.31011],[23.86408,15.32179],[24.05097,15.33815],[24.24487,15.3802],[24.45045,15.49934],[24.50885,15.5484],[24.64435,15.59045],[24.80554,15.60213],[24.87095,15.64885],[24.98075,15.71193],[25.0742,15.73295],[25.16063,15.768],[25.23539,15.86144],[25.33818,15.94087],[25.40359,15.93386],[25.47368,15.88947],[25.47835,15.83107],[25.45031,15.77734],[25.32884,15.69324],[25.3008,15.64184],[25.28912,15.58811],[25.35921,15.497],[25.37789,15.44327],[25.37322,15.38721],[25.33584,15.38487],[25.27978,15.36384],[25.26109,15.30778],[25.22137,15.27274],[25.11508,15.27974],[25.08588,15.22718],[25.02163,15.15827],[24.89548,15.14542],[24.87095,15.10687],[24.8838,15.06832],[24.87583,15.06078],[24.88848,14.98072],[24.85803,14.95979],[24.85811,14.95969],[24.8254,14.91531],[24.83241,14.84289],[24.79036,14.78682],[24.74954,14.78536],[24.69691,14.77047],[24.54506,14.78682],[24.46096,14.77047],[24.44461,14.73543],[24.49133,14.70973],[24.61048,14.73075],[24.68523,14.7144],[24.76466,14.73543],[24.80269,14.75701],[24.82835,14.74846],[24.83241,14.69571],[24.76232,14.62563],[24.69691,14.51349],[24.70626,14.43874],[24.74364,14.38267],[24.84642,14.38734],[24.91651,14.39669],[24.97258,14.47612],[25.00061,14.56022],[25.09405,14.64432],[25.2716,14.74243],[25.35103,14.7985],[25.40242,14.80785],[25.46784,14.77047],[25.48652,14.70038],[25.47718,14.61628],[25.29496,14.49948],[25.28094,14.43874],[25.31832,14.41538],[25.45849,14.42939],[25.5753,14.36398],[25.62669,14.25652],[25.60529,14.20983],[25.60216,14.18877],[25.60158,14.00772],[25.58114,13.89734],[25.53617,13.7928],[25.50712,13.79532],[25.50711,13.79531],[25.43046,13.79864],[25.27627,13.76126],[25.06135,13.64445],[24.92118,13.63044],[24.90249,13.59773],[25.02397,13.56035],[25.14545,13.53232],[25.17816,13.49494],[25.12676,13.43887],[25.00528,13.34543],[24.8511,13.21928],[24.65953,13.13518],[24.5474,13.08846],[24.34649,12.98567],[24.22501,12.98567],[24.02878,13.02772],[23.89328,12.98099],[23.86525,12.84083],[23.85591,12.72402],[23.79984,12.53246],[23.67836,12.35491],[23.43073,12.24745],[23.13171,12.19455],[23.01846,12.1432],[22.90062,12.07061],[22.56209,11.92282],[22.86508,12.01932],[23.08966,12.07925],[23.29523,12.04654],[23.40737,12.04654],[23.52885,12.05121],[23.84189,12.14933],[23.94468,12.21007],[24.10354,12.21007],[24.27641,12.21007],[24.44928,12.29884],[24.61281,12.44368],[24.72495,12.44368],[24.90716,12.42967],[25.1034,12.44368],[25.25758,12.39696],[25.51923,12.46704],[26.00047,12.42499],[26.18269,12.43434],[26.29015,12.36426],[26.27146,12.2054],[26.21072,12.05589],[26.10326,11.9531],[26.0799,11.87834],[26.05654,11.80358],[25.97244,11.71948],[25.86965,11.67276],[25.73415,11.66809],[25.67341,11.64473],[25.65473,11.54194],[25.57997,11.47185],[25.43046,11.42046],[25.28562,11.32234],[25.12676,11.21488],[24.9679,11.13078],[24.80905,11.07471],[24.73429,11.07938],[24.73896,11.14012],[24.73896,11.32701],[24.72027,11.40644],[24.66421,11.43448],[24.53338,11.3457],[24.43059,11.24759],[24.33248,11.15881],[24.2951,11.05135],[24.2437,10.99996],[24.14559,11.00463],[24.11755,11.0934],[24.0755,11.20553],[23.97271,11.30365],[23.89328,11.40644],[23.82787,11.40644],[23.54754,11.40644],[23.38401,11.38775],[23.16441,11.30832],[23.06162,11.28964],[23.0149,11.23824],[23.02892,11.18685],[23.10834,11.1775],[23.22048,11.13545],[23.33261,11.07004],[23.40737,11.05602],[23.56155,10.91585],[23.61762,10.80839],[23.56623,10.73831],[23.4354,10.62617],[23.34663,10.5047],[23.32327,10.3692],[23.4027,10.31781],[23.61762,10.2851],[23.74844,10.28977],[23.83254,10.21969],[23.84656,10.08887],[23.77181,9.9814],[23.55221,9.97206],[23.36065,9.97206],[23.19245,9.92066],[23.11302,9.78517],[23.01957,9.60762],[22.94014,9.54688],[22.81399,9.35999],[22.58972,9.16843],[22.30472,9.02826],[22.10381,8.9722],[21.92626,9.0049],[21.74405,8.94416],[21.58519,8.82268],[21.42633,8.78531],[21.26747,8.78531],[21.12731,8.84604],[21.04321,8.86941],[20.95443,8.81801],[20.83763,8.73858],[20.57598,8.69653],[20.32368,8.68252],[20.23958,8.71055],[20.0667,8.74325],[19.88449,8.78531],[19.72096,8.86473],[19.5621,8.91146],[19.35652,8.95351],[19.23037,8.94883]]],[[[17.87176,17.42393],[17.78794,17.50775],[17.82286,17.68936],[17.90668,17.75222],[17.97653,17.857],[18.09528,17.9478],[18.36071,17.98273],[18.34674,17.70333],[18.28387,17.6684],[18.1791,17.73127],[18.09528,17.64046],[17.97653,17.45885],[17.87176,17.42393]]]]}},{"type":"Feature","properties":{"name":"The Westerlands","claimedBy":"Lannister"},"geometry":{"type":"MultiPolygon","coordinates":[[[[11.96501,11.16816],[12.22549,10.9613],[12.46381,10.62294],[12.5256,10.46111],[12.64918,10.07273],[12.66094,9.702],[12.66094,9.17827],[12.53148,8.50155],[12.44322,8.12493],[12.24902,7.76009],[12.10779,7.49528],[12.45498,6.77148],[12.9434,6.6126],[13.35532,6.47137],[13.64367,6.14183],[14.07913,5.70638],[14.25566,5.34153],[14.10855,5.11203],[13.7084,4.64127],[13.32002,4.18816],[13.08463,3.88216],[12.91987,3.53497],[12.7904,3.2937],[12.40202,3.05832],[12.04306,2.88766],[11.27807,2.7229],[10.97207,2.69936],[10.18354,2.64051],[9.61274,2.62286],[9.30674,2.50517],[8.93601,2.25802],[8.51232,2.05794],[8.1769,1.88729],[7.82383,1.74606],[7.62375,1.7284],[6.75872,1.74606],[6.40268,1.72202],[6.35129,1.84817],[6.34195,1.92526],[6.42137,1.98834],[6.42371,2.10514],[6.32793,2.18924],[6.30223,2.27802],[6.30457,2.39482],[6.39801,2.46024],[6.4681,2.46024],[6.5265,2.51397],[6.62695,2.51397],[6.66667,2.57003],[6.65732,2.67282],[6.71573,2.7102],[6.80683,2.91111],[6.84421,2.98586],[6.81151,3.11202],[6.84188,3.21714],[6.84188,3.29657],[6.90476,3.40464],[6.91897,3.52901],[6.81618,3.67385],[6.75077,3.77197],[6.76946,3.84206],[6.90028,3.9355],[7.06848,4.00091],[7.10119,4.11772],[7.03578,4.26256],[6.97971,4.4915],[7.07783,4.60363],[7.22267,4.69708],[7.26004,4.84192],[7.31611,4.94938],[7.30209,5.15496],[7.33013,5.26709],[7.27873,5.36054],[7.26939,5.49136],[7.12455,5.37456],[6.91897,5.40259],[6.73675,5.43062],[6.53117,5.36988],[6.37231,5.24841],[6.37231,5.15963],[6.26018,5.11291],[6.08263,5.02881],[6.01255,4.99143],[5.86304,4.99143],[5.7509,4.95405],[5.67148,4.89331],[5.57336,4.89331],[5.52664,4.95873],[5.48459,5.01012],[5.50795,5.15496],[5.82566,5.39792],[5.86304,5.49136],[5.78828,5.63153],[5.85837,5.76703],[5.91911,5.87916],[5.95181,5.97261],[6.04058,6.00998],[6.13403,6.01933],[6.33494,6.00998],[6.47978,6.15482],[6.55453,6.26229],[6.60593,6.40713],[6.70405,6.4445],[6.85823,6.47254],[6.99373,6.54729],[6.98438,6.54729],[7.09651,6.67344],[7.20398,6.76222],[7.40488,6.7482],[7.49833,6.7482],[7.57776,6.77156],[7.64784,6.86968],[7.74129,6.9678],[7.75998,7.06124],[7.84875,7.136],[8.02629,7.2528],[8.06834,7.29953],[8.03564,7.34625],[7.96088,7.33223],[7.88145,7.43502],[7.87211,7.57052],[7.86277,7.73405],[7.95154,7.93028],[8.07769,8.12184],[8.10572,8.20127],[8.13843,8.43021],[8.16179,8.57038],[8.20851,8.64514],[8.20851,8.74325],[8.2786,8.85072],[8.28327,8.93015],[8.35335,8.96752],[8.4795,8.96752],[8.50286,9.14974],[8.60565,9.28524],[8.67574,9.41606],[8.74115,9.53287],[8.71779,9.60762],[8.60565,9.79919],[8.54024,9.87394],[8.37671,9.9487],[8.30196,10.02813],[8.28794,10.12157],[8.35802,10.25239],[8.41409,10.36453],[8.40475,10.48133],[8.46081,10.49068],[8.62434,10.48133],[8.75517,10.6215],[8.9514,10.60281],[9.0355,10.64954],[9.13362,10.64486],[9.24575,10.55142],[9.38592,10.52806],[9.4233,10.47199],[9.5915,10.40658],[9.65691,10.43928],[9.69429,10.53273],[9.86716,10.52806],[10.03537,10.54675],[10.18488,10.51871],[10.27365,10.5374],[10.41382,10.63085],[10.59136,10.73831],[10.74088,10.72896],[10.89506,10.72429],[10.97916,10.63552],[11.05859,10.64486],[11.2081,10.55609],[11.2595,10.59814],[11.36229,10.72429],[11.47442,10.74765],[11.62393,10.86446],[11.70803,10.9252],[11.85755,10.95791],[11.89025,11.04668],[11.96501,11.16816]]],[[[7.13583,7.8964],[7.18123,7.86497],[7.25108,7.81258],[7.19869,7.75321],[7.21266,7.63795],[7.13583,7.5716],[7.13583,7.43888],[7.12186,7.23632],[7.0913,7.09916],[7.09392,6.94993],[6.96469,6.8696],[6.82499,6.85563],[6.74117,6.81722],[6.71323,6.65307],[6.64688,6.5902],[6.5421,6.54829],[6.45828,6.61116],[6.47924,6.78229],[6.51765,6.84865],[6.54909,7.00581],[6.67482,7.12106],[6.74816,7.18044],[6.81452,7.23981],[6.88437,7.38999],[6.9612,7.49825],[7.0101,7.6624],[7.01359,7.78115],[7.13583,7.8964]]]]}},{"type":"Feature","properties":{"name":"Crownsland","claimedBy":"Targaryen"},"geometry":{"type":"MultiPolygon","coordinates":[[[[24.62625,7.22933],[24.74499,7.22235],[24.76246,7.1525],[24.75547,7.08265],[24.65419,7.06868],[24.61228,7.01978],[24.58783,6.96041],[24.50401,6.94295],[24.3678,6.97089],[24.277,6.95342],[24.19318,6.97089],[24.17222,7.0128],[24.16175,7.08265],[24.22112,7.12456],[24.38876,7.11059],[24.52147,7.12456],[24.58085,7.17345],[24.62625,7.22933]]],[[[23.37797,2.56301],[23.15167,2.61256],[22.73386,2.63021],[21.86883,2.60668],[21.22741,2.60668],[20.73311,2.62433],[20.36826,2.77144],[20.04461,2.87148],[19.65034,2.90679],[19.33258,2.84206],[19.00893,2.95975],[18.57935,3.10687],[18.23216,3.34813],[17.83201,3.71298],[17.46128,4.10724],[17.83201,4.28966],[18.03797,4.48974],[18.26159,4.6957],[18.52639,5.13116],[18.72647,5.55485],[18.87358,5.89615],[19.02658,6.108],[19.27962,6.41399],[19.49146,6.69645],[19.70331,6.80238],[19.8975,6.9083],[20.12111,7.14368],[20.33296,7.43791],[20.51538,7.82923],[20.51243,8.02931],[20.43114,8.23398],[20.54795,8.27136],[20.68344,8.36947],[20.80492,8.39751],[20.90771,8.43489],[21.05722,8.45825],[21.22075,8.47226],[21.35625,8.49563],[21.57117,8.48628],[21.74872,8.40685],[21.94028,8.37415],[21.987,8.30873],[22.16455,8.23398],[22.48693,8.248],[22.61776,8.36947],[22.85604,8.57038],[23.099,8.65915],[23.32327,8.86006],[23.45409,8.88342],[23.65967,8.94416],[23.81853,9.02826],[23.94935,9.1731],[24.0755,9.29458],[24.34182,9.38803],[24.40256,9.4768],[24.4633,9.57024],[24.55207,9.70574],[24.62216,9.77115],[24.76232,9.79451],[24.86044,9.93001],[24.93987,9.96271],[25.06135,10.12157],[25.10807,10.14493],[25.19217,10.1169],[25.20152,10.00476],[25.11274,9.88329],[24.97725,9.70574],[24.97258,9.50483],[24.89782,9.35532],[24.89315,9.09835],[24.8511,9.05162],[24.76232,8.95351],[24.70626,8.87875],[24.56142,8.7526],[24.43527,8.68252],[24.40256,8.61243],[24.52404,8.60776],[24.64552,8.60309],[24.72495,8.51431],[24.73896,8.4489],[24.67822,8.38349],[24.55207,8.34144],[24.36051,8.21529],[24.23436,8.07045],[24.11755,7.88356],[24.01476,7.81348],[23.74844,7.79011],[23.66434,7.82282],[23.52885,7.82749],[23.47745,7.78077],[23.50081,7.68732],[23.48213,7.60322],[23.38401,7.51912],[22.87473,7.52847],[22.76727,7.50043],[22.75793,7.44437],[22.84203,7.3883],[22.83735,7.26215],[22.71587,7.14534],[22.35144,7.14534],[22.26267,7.19674],[22.15988,7.18739],[21.86552,7.04722],[21.68798,6.92575],[21.66929,6.83697],[21.68331,6.69213],[21.62724,6.50524],[21.52445,6.44918],[21.41231,6.35106],[21.32354,6.26229],[21.15534,6.13146],[21.16936,5.99597],[21.08058,5.85113],[20.96845,5.71096],[20.97312,5.68293],[21.0946,5.73432],[21.17403,5.79506],[21.29084,5.91654],[21.40297,5.9399],[21.58052,6.02867],[21.65994,6.0754],[21.70199,6.04269],[21.70667,5.90719],[21.58986,5.81842],[21.47773,5.76235],[21.3469,5.61751],[21.29551,5.54276],[21.29551,5.39325],[21.35625,5.2998],[21.3469,5.16898],[21.2628,5.08488],[21.16936,5.02881],[21.05255,4.94471],[20.95911,4.84192],[20.88669,4.66437],[20.87033,4.47982],[20.85865,4.43076],[20.81894,4.41674],[20.73017,4.35834],[20.68578,4.23453],[20.61569,4.14575],[20.52926,4.14575],[20.41946,4.13174],[20.34938,4.071],[20.26294,4.078],[20.21622,4.12473],[20.24191,4.19248],[20.29097,4.23219],[20.3704,4.29994],[20.39376,4.3817],[20.38675,4.42842],[20.32134,4.44945],[20.29097,4.37937],[20.19286,4.32563],[20.12978,4.23219],[20.02933,4.17846],[19.92654,4.15977],[19.79338,4.13174],[19.68124,4.11772],[19.63452,4.15743],[19.62284,4.23453],[19.56677,4.24621],[19.52823,4.2228],[19.51021,4.13274],[19.44372,4.00391],[19.38969,3.9291],[19.52684,3.84598],[19.65567,3.74208],[19.66398,3.63403],[19.51853,3.55922],[19.51853,3.49273],[19.41463,3.36805],[19.38138,3.36805],[19.40216,3.31402],[19.5019,3.25168],[19.60996,3.25584],[19.73463,3.34311],[19.82607,3.40545],[19.91334,3.33895],[20.0588,3.34311],[20.20426,3.42623],[20.34556,3.45117],[20.38296,3.48441],[20.42868,3.48026],[20.49102,3.53428],[20.72375,3.53013],[20.79025,3.58416],[20.98558,3.59662],[21.04792,3.62987],[21.26403,3.63403],[21.36792,3.65896],[21.39702,3.70468],[21.57988,3.72546],[21.62144,3.76286],[21.66715,3.76286],[21.77521,3.8626],[21.79183,3.91248],[21.86248,3.96235],[21.95391,3.9665],[21.99132,3.9291],[21.95807,3.87092],[21.96638,3.77949],[21.87911,3.67143],[21.85417,3.58416],[21.86755,3.52179],[21.94762,3.51975],[22.0206,3.5695],[22.20826,3.5702],[22.23815,3.5165],[22.33035,3.52403],[22.39308,3.60334],[22.46571,3.60492],[22.49608,3.69603],[22.55682,3.78013],[22.5712,3.75761],[22.62223,3.76611],[22.68764,3.72874],[22.74604,3.7521],[22.80211,3.77546],[22.83949,3.80816],[22.85351,3.90394],[22.88388,3.94833],[22.95863,3.93899],[22.97966,4.02776],[23.0404,4.07682],[23.30905,4.08383],[23.35344,4.16793],[23.44922,4.20998],[23.5158,4.31744],[23.70269,4.509],[23.71671,4.67253],[23.8195,4.77999],[23.8522,4.94352],[23.78679,5.05098],[23.77277,5.12574],[23.69802,5.21919],[23.71203,5.28927],[23.75408,5.343],[23.75408,5.41542],[23.7097,5.47382],[23.67232,5.58129],[23.61859,5.66772],[23.62326,5.80322],[23.65597,5.83125],[23.7424,5.82191],[23.83585,5.72613],[23.85454,5.67473],[24.01106,5.47616],[24.03442,5.38505],[23.99938,5.33366],[24.0204,5.26824],[24.09516,5.17947],[24.1559,5.13275],[24.16758,5.09771],[24.30307,4.97156],[24.31709,4.83606],[24.27037,4.71458],[24.21897,4.6702],[24.14422,4.57208],[24.07881,4.53236],[24.03676,4.43191],[23.99704,4.3665],[24.01807,4.24035],[23.95032,4.14924],[23.83351,4.03243],[23.77511,4.00206],[23.71671,3.89694],[23.68634,3.80583],[23.64662,3.7264],[23.5999,3.5909],[23.63961,3.51381],[23.64429,3.40869],[23.64662,3.22647],[23.56018,3.12601],[23.46207,3.11433],[23.43403,3.07462],[23.28219,3.0606],[23.27751,2.99986],[23.31723,2.98351],[23.33124,2.79428],[23.37797,2.56301]]],[[[23.87885,6.79975],[23.93823,6.76134],[24.00808,6.69149],[24.02903,6.63561],[23.9522,6.56226],[23.86139,6.55179],[23.8125,6.60417],[23.75662,6.58322],[23.70423,6.52734],[23.66581,6.47844],[23.58898,6.48194],[23.55056,6.52385],[23.45626,6.50289],[23.36546,6.53432],[23.30259,6.54131],[23.29211,6.47844],[23.22226,6.41907],[23.16988,6.46797],[23.18385,6.5448],[23.22226,6.66704],[23.26068,6.75435],[23.37244,6.74387],[23.49119,6.69847],[23.68327,6.71593],[23.8125,6.7788],[23.87885,6.79975]]],[[[25.21997,9.02447],[25.23394,8.90922],[25.27236,8.87779],[25.32126,8.81492],[25.29332,8.73809],[25.2095,8.67872],[25.1152,8.62982],[25.03487,8.62633],[24.96851,8.69269],[24.94407,8.81143],[25.02439,8.86033],[25.09774,8.93716],[25.11171,9.00352],[25.18156,9.04194],[25.21997,9.02447]]]]}},{"type":"Feature","properties":{"name":"The Reach","claimedBy":"Tyrell"},"geometry":{"type":"MultiPolygon","coordinates":[[[[7.60557,-2.16898],[7.67542,-2.22136],[7.73479,-2.21263],[7.79241,-2.17945],[7.83432,-2.18469],[7.85179,-2.21787],[7.83432,-2.28074],[7.78892,-2.31741],[7.7505,-2.34011],[7.69986,-2.35583],[7.62652,-2.33836],[7.57064,-2.30693],[7.57239,-2.26327],[7.57064,-2.21438],[7.58112,-2.19342],[7.60557,-2.16898]]],[[[8.00895,-1.9961],[7.99847,-2.04849],[7.94085,-2.09214],[7.90068,-2.12532],[7.85703,-2.07119],[7.83258,-2.02753],[7.88497,-1.95943],[7.93735,-1.97689],[8.00895,-1.9961]]],[[[7.60731,-1.80925],[7.67891,-1.8302],[7.76797,-1.90879],[7.76447,-1.96641],[7.70336,-2.00832],[7.59509,-1.95943],[7.52175,-1.88259],[7.54619,-1.81274],[7.60731,-1.80925]]],[[[7.26854,-1.86164],[7.32093,-1.89656],[7.35236,-1.92799],[7.34538,-2.00483],[7.39427,-2.05023],[7.50254,-2.04674],[7.50254,-2.12707],[7.44317,-2.17596],[7.39427,-2.22486],[7.31744,-2.1585],[7.2895,-2.07468],[7.20917,-1.99784],[7.20917,-1.92101],[7.26854,-1.86164]]],[[[14.25566,5.34153],[14.64846,5.29593],[15.03684,5.22825],[15.58705,5.11645],[16.26966,4.96639],[16.62273,4.76631],[17.02877,4.39559],[17.41715,4.13667],[17.46128,4.10724],[17.83201,3.71298],[18.23216,3.34813],[18.57935,3.10687],[19.00893,2.95975],[19.33258,2.84206],[19.2752,2.66846],[19.08101,2.15062],[18.96921,1.69163],[18.96332,1.22674],[18.93978,0.80894],[18.86328,0.39702],[18.76913,-0.23263],[18.61613,-0.5857],[18.43371,-0.97997],[18.18067,-1.32128],[17.95706,-1.55666],[17.69225,-1.75085],[17.34506,-1.87443],[16.83311,-1.98623],[16.13873,-2.09804],[15.20896,-2.28635],[14.37924,-2.47465],[14.02028,-2.59823],[13.6319,-2.78065],[13.28471,-3.17492],[13.11994,-3.46914],[13.00225,-3.84576],[12.96694,-4.25768],[12.59916,-4.32094],[12.20342,-4.40038],[11.84593,-4.50924],[11.01326,-4.88733],[10.49542,-5.39928],[10.30712,-5.71705],[10.03643,-6.3467],[9.94227,-6.64093],[9.73043,-6.87631],[9.54212,-7.35885],[9.50093,-8.00615],[9.62451,-8.51811],[9.84223,-9.00064],[10.07742,-9.37693],[10.03069,-9.47739],[9.94893,-9.52878],[9.92557,-9.58017],[9.83679,-9.66895],[9.71064,-9.66428],[9.57048,-9.60354],[9.46301,-9.61755],[9.34621,-9.65026],[9.33686,-9.77641],[9.26211,-9.83248],[9.17801,-9.83715],[9.16399,-9.93527],[9.11727,-9.94461],[8.98177,-9.92125],[8.74816,-9.82313],[8.64537,-9.84649],[8.54725,-9.9633],[8.43512,-9.97732],[8.35569,-10.02871],[8.26692,-10.08011],[8.19216,-10.08945],[8.13609,-10.0474],[8.07068,-9.90256],[8.07535,-9.77641],[8.08003,-9.64091],[8.01461,-9.51476],[7.96789,-9.42599],[7.90715,-9.33255],[7.72961,-9.28115],[7.57542,-9.2391],[7.51935,-9.1036],[7.40255,-9.01483],[7.33246,-8.88401],[7.2507,-8.79991],[7.1923,-8.66675],[7.07549,-8.58498],[7.04045,-8.46818],[7.00307,-8.37473],[6.88393,-8.26961],[6.84889,-8.14112],[6.84889,-8.02198],[6.90729,-7.94021],[6.98438,-7.89349],[7.09651,-7.87714],[7.17127,-7.78836],[7.24135,-7.71361],[7.3348,-7.66455],[7.35816,-7.55709],[7.41656,-7.48233],[7.48898,-7.43327],[7.54972,-7.43327],[7.57542,-7.33515],[7.60813,-7.26507],[7.63616,-7.21601],[7.63616,-7.1249],[7.67821,-7.07818],[7.66887,-6.96371],[7.67821,-6.89363],[7.70391,-6.86326],[7.6969,-6.76047],[7.60813,-6.79551],[7.52636,-6.8726],[7.40255,-6.91699],[7.2764,-6.94736],[7.1409,-7.06416],[6.96336,-7.20433],[6.76712,-7.33983],[6.62695,-7.3772],[6.53351,-7.43794],[6.39334,-7.44729],[6.13403,-7.37954],[5.91677,-7.27675],[5.83968,-7.18798],[5.88406,-7.06884],[5.87939,-6.97072],[5.88406,-6.87494],[5.87472,-6.82588],[5.82566,-6.78383],[5.88173,-6.66469],[5.88173,-6.60628],[5.76259,-6.41472],[5.53832,-6.03159],[5.50327,-5.89376],[5.51262,-5.78163],[5.60139,-5.72323],[5.68316,-5.65548],[5.72988,-5.56203],[5.73455,-5.47326],[5.63176,-5.34711],[5.64811,-5.29104],[5.72287,-5.25834],[5.80464,-5.15321],[5.87939,-4.99202],[5.93312,-4.90091],[5.98919,-4.71635],[6.0289,-4.66029],[6.04759,-4.52245],[6.09899,-4.49442],[6.21813,-4.50844],[6.26018,-4.46405],[6.27887,-4.3122],[6.33727,-4.26782],[6.46109,-4.2281],[6.54752,-4.25614],[6.77179,-4.35659],[6.83253,-4.36126],[7.02176,-4.17204],[7.06147,-4.11597],[7.06381,-3.98047],[7.05213,-3.8917],[7.01942,-3.85199],[7.06147,-3.78657],[7.1152,-3.7492],[7.15258,-3.70948],[7.13389,-3.64874],[7.11053,-3.62538],[7.15258,-3.54829],[7.18529,-3.45952],[7.25304,-3.40579],[7.27873,-3.31234],[7.32078,-3.23291],[7.43292,-3.17451],[7.47263,-3.13713],[7.4703,-3.032],[7.53337,-2.97827],[7.62448,-2.90352],[7.70858,-2.80774],[7.73895,-2.73999],[7.76231,-2.6956],[7.79969,-2.67925],[7.85576,-2.67925],[7.89781,-2.70495],[7.91182,-2.80073],[7.98892,-2.88716],[7.97724,-3.00163],[8.1104,-3.06237],[8.1688,-3.07405],[8.27392,-3.04369],[8.37671,-3.03901],[8.49586,-3.04135],[8.59631,-3.06237],[8.68976,-3.08106],[8.73414,-3.04836],[8.7575,-2.9409],[8.73881,-2.84278],[8.615,-2.77269],[8.49118,-2.69794],[8.29729,-2.59048],[8.18282,-2.49703],[8.1174,-2.38022],[8.08236,-2.29612],[8.07535,-2.26342],[8.11507,-2.20268],[8.18749,-2.16764],[8.31831,-2.2167],[8.38139,-2.18165],[8.46081,-2.09989],[8.5309,-2.01112],[8.615,-2.02981],[8.75049,-2.11157],[8.82291,-2.09989],[8.94907,-2.05784],[9.02616,-2.09755],[9.10559,-1.98308],[9.15932,-1.94103],[9.14296,-1.8546],[9.10325,-1.77517],[8.98177,-1.69107],[8.85796,-1.62799],[8.77152,-1.56725],[8.68976,-1.57426],[8.63369,-1.54856],[8.59397,-1.44811],[8.55192,-1.37569],[8.62434,-1.29159],[8.5893,-1.22851],[8.5309,-1.13974],[8.45614,-1.15142],[8.42577,-1.19814],[8.29729,-1.20749],[8.15945,-1.10003],[8.11507,-1.06732],[8.00527,-1.08835],[7.90248,-1.05097],[7.84408,-1.01125],[7.8067,-0.89445],[7.7483,-0.84539],[7.70157,-0.77297],[7.6969,-0.71924],[7.503,-0.69821],[7.36517,-0.67018],[7.08951,-0.68653],[7.00541,-0.60477],[6.947,-0.4646],[6.87225,-0.38283],[6.87692,-0.31509],[6.90495,-0.27537],[6.90729,-0.15857],[6.90028,-0.1025],[6.71573,0.11243],[6.60593,0.26895],[6.41203,0.43715],[6.36531,0.48153],[6.36297,0.55162],[6.2742,0.65207],[6.30457,0.72683],[6.31158,0.7899],[6.36764,0.81794],[6.43072,0.80859],[6.54519,0.90905],[6.64798,1.03052],[6.63163,1.09126],[6.57322,1.21274],[6.51949,1.31553],[6.47277,1.34824],[6.391,1.36459],[6.24383,1.47672],[6.24383,1.53279],[6.39334,1.6753],[6.40268,1.72202],[6.75872,1.74606],[7.62375,1.7284],[7.82383,1.74606],[8.1769,1.88729],[8.51232,2.05794],[8.93601,2.25802],[9.30674,2.50517],[9.61274,2.62286],[10.18354,2.64051],[10.97207,2.69936],[11.27807,2.7229],[12.04306,2.88766],[12.40202,3.05832],[12.7904,3.2937],[12.91987,3.53497],[13.08463,3.88216],[13.32002,4.18816],[13.7084,4.64127],[14.10855,5.11203],[14.25566,5.34153]]],[[[5.6358,-9.44559],[5.7755,-9.69007],[5.83836,-9.71801],[5.92218,-9.88565],[5.90821,-9.99042],[6.0549,-10.20696],[6.16317,-10.21045],[6.22603,-10.15806],[6.36224,-10.12314],[6.38843,-10.15457],[6.41113,-10.26284],[6.44606,-10.38158],[6.52988,-10.47239],[6.52988,-10.52128],[6.78832,-10.66098],[6.8442,-10.69591],[6.82325,-10.76576],[6.76038,-10.8845],[6.82325,-10.97531],[6.76038,-11.0242],[6.66259,-10.99626],[6.51591,-11.05913],[6.36922,-11.03817],[6.28265,-11.15058],[6.23302,-11.26169],[6.13872,-11.34202],[6.01997,-11.40838],[5.9152,-11.31059],[5.84186,-11.19533],[5.71263,-11.17089],[5.64977,-11.00325],[5.6358,-10.82862],[5.54499,-10.70988],[5.61484,-10.57716],[5.64278,-10.50382],[5.67422,-10.39555],[5.66374,-10.27681],[5.60461,-10.21965],[5.64977,-10.16156],[5.67072,-10.01836],[5.61834,-9.97296],[5.52055,-9.96598],[5.46816,-9.80183],[5.43323,-9.64117],[5.51007,-9.50147],[5.6358,-9.44559]]]]}}]}