{"type":"FeatureCollection","features":[{"type":"Feature","properties":{"name":"Blackwater Rush","size":2},"geometry":{"type":"MultiLineString","coordinates":[[[13.46074,6.1388],[13.62488,6.10737],[13.71918,6.02355],[14.00207,6.01307],[14.05795,5.97465],[14.15367,5.87339]],[[13.5089,5.35704],[13.69225,5.45048],[13.73312,5.57314],[13.79273,5.6654],[13.89547,5.71095],[13.9808,5.8009],[14.15367,5.87339],[14.41532,5.77287],[14.65818,5.78112],[14.8942,5.7589],[15.04781,5.70604]],[[14.89266,7.50786],[14.89965,7.26338],[14.83678,7.10273],[14.78789,6.99097],[14.72502,6.83031],[14.77392,6.73252],[14.84377,6.66267],[14.84377,6.57187],[14.91362,6.48805],[15.00442,6.39724],[14.98347,6.32041],[14.95553,6.15277],[14.91362,6.01307],[14.95553,5.90829],[15.04781,5.70604]],[[15.04781,5.70604],[15.14419,5.47384],[15.11148,5.28695],[15.1582,5.18416],[15.31239,5.11408],[15.53666,5.09539],[15.77027,4.96457],[15.87306,4.87579],[15.96651,4.81973],[16.09733,4.88047],[16.24217,4.84309],[16.31225,4.88047],[16.70472,4.7403],[16.80284,4.55808],[16.89161,4.38521],[17.02711,4.27774],[17.17662,4.25905],[17.39622,4.24971],[17.52237,4.12823],[17.91484,3.6283],[18.05033,3.63297],[18.19517,3.60961],[18.38674,3.62363],[18.5783,3.58625],[18.65773,3.5442],[18.83994,3.60027],[18.98478,3.74978],[19.10159,3.92265],[19.29315,4.01143],[19.41289,3.96121]],[[16.71574,6.41121],[16.71574,6.21563],[16.76464,6.13181],[16.75765,5.96417],[16.77861,5.80352],[16.90434,5.63588],[16.93228,5.42633],[16.98816,5.23075],[17.06499,5.13296],[17.19072,5.05613],[17.26756,4.94437],[17.27454,4.78371],[17.34439,4.69989],[17.35138,4.60909],[17.37233,4.50431],[17.45615,4.43446],[17.47711,4.2319]]]}},{"type":"Feature","properties":{"name":"Green Fork","size":null},"geometry":{"type":"LineString","coordinates":[[12.56364,16.86353],[12.61822,16.74446],[12.56364,16.59066],[12.40984,16.42694],[12.47434,16.32275],[12.4793,16.24833],[12.40984,16.13919],[12.35031,15.96554],[12.34535,15.79686],[12.48426,15.66291],[12.59341,15.6381],[12.59837,15.56368],[12.50411,15.42973],[12.51403,15.38508],[12.59341,15.34539],[12.65295,15.27097],[12.61822,15.13205],[12.65295,15.03779],[12.74225,15.01795],[12.79682,15.02787],[12.80674,14.94353],[12.80178,14.87903],[12.83155,14.87407],[12.86132,14.73516],[12.93078,14.71035],[12.99527,14.75004],[13.10442,14.70539],[13.20364,14.63593],[13.25822,14.53671],[13.30287,14.35314],[13.35248,14.29857],[13.61047,14.21919],[13.66504,14.13981],[13.69481,14.0257],[13.81884,13.64864],[13.85853,13.51965],[13.92798,13.48988],[13.99744,13.47996],[14.04209,13.43035],[14.08674,13.33609],[14.2455,13.24182],[14.32488,13.22694],[14.36457,13.17236],[14.44395,13.13764],[14.52829,13.10787],[14.62752,12.99872],[14.6424,12.87965],[14.68209,12.82508],[14.78132,12.80523],[14.85078,12.73081],[14.87062,12.63159],[14.85574,12.53733],[14.92023,12.44802],[15.06411,12.36368],[15.18318,12.2843],[15.23775,12.19004],[15.24271,12.09081],[15.31713,11.98167],[15.42132,11.84275],[15.49574,11.73857],[15.59,11.65422],[15.65946,11.6195],[15.73884,11.58973],[15.78845,11.53516],[15.78349,11.47066],[15.88271,11.3764],[15.99682,11.25733],[16.04643,11.14322],[16.1407,11.04399],[16.21512,10.98942],[16.2945,10.89019],[16.40364,10.8505],[16.50287,10.77112],[16.60705,10.63221],[16.70132,10.46353],[16.79558,10.28988],[16.79062,10.16585],[16.76581,10.09143]]}},{"type":"Feature","properties":{"name":"Green Fork","size":null},"geometry":{"type":"LineString","coordinates":[[13.25822,14.53671],[13.25822,14.53671],[13.28302,14.76492],[13.32023,14.78973],[13.33264,14.95097],[13.43186,15.06012],[13.38225,15.17174],[13.41946,15.26353],[13.52364,15.3181],[13.6576,15.38012],[13.65512,15.45205],[13.67,15.5736],[13.60798,15.63562],[13.58566,15.67531],[13.62039,15.71748],[13.67744,15.73236],[13.71961,15.77205],[13.77667,15.76461],[13.85605,15.82911],[13.85357,15.88368],[13.8114,15.91097],[13.79403,15.98043],[13.84364,16.05733],[13.89078,16.13919],[13.97016,16.17888],[14.04705,16.18384],[14.08426,16.23097],[14.10411,16.31531],[14.08178,16.37236],[14.04705,16.46415],[14.05698,16.55097],[14.10411,16.66508],[14.16116,16.70477],[14.21822,16.7519],[14.21822,16.8288],[14.24302,16.97764],[14.26535,17.09422]]}},{"type":"Feature","properties":{"name":"Blue Fork","size":null},"geometry":{"type":"MultiLineString","coordinates":[[[13.87682,12.3736],[13.84209,12.42818],[13.79,12.45795],[13.78008,12.56461],[13.79744,12.63903],[13.71558,12.70849],[13.71806,12.78787],[13.71062,12.85484],[13.74535,12.90942],[13.76519,13.00368],[13.72302,13.04833],[13.74783,13.19469],[13.71806,13.26167]],[[13.87682,12.3736],[13.92891,12.44802],[14.00085,12.49516],[13.99341,12.59438],[13.99341,12.6936],[14.0207,12.77547],[13.9686,12.85484],[13.98349,12.94167]],[[16.76581,10.09143],[16.65512,10.15345],[16.5807,10.15593],[16.48643,10.17081],[16.47155,10.24275],[16.46163,10.33453],[16.39217,10.39159],[16.29791,10.49081],[16.22845,10.62725],[16.1714,10.74136],[16.0945,10.81578],[16.00519,10.87283],[15.93326,10.87283],[15.8886,10.91748],[15.80178,10.90508],[15.71,10.86787],[15.57357,10.88275],[15.48178,10.9274],[15.40984,10.99686],[15.41669,11.08041],[15.3776,11.13826],[15.29822,11.14074],[15.24116,11.19531],[15.20147,11.28213],[15.13946,11.33671],[15.06256,11.40368],[15.0055,11.50539],[14.93357,11.54012],[14.79713,11.555],[14.68302,11.55748],[14.6086,11.53516],[14.51186,11.53019],[14.47713,11.57733],[14.37295,11.66167],[14.28364,11.7088],[14.19434,11.74105],[14.11,11.78074],[14.09264,11.84027],[14.01574,11.86756],[13.93388,11.89981],[13.89419,11.97422],[13.85698,12.0536],[13.8545,12.14787],[13.88674,12.25453],[13.87682,12.3736]]]}},{"type":"Feature","properties":{"name":"Red Fork","size":null},"geometry":{"type":"MultiLineString","coordinates":[[[10.45109,8.89578],[10.40147,8.9305],[10.24023,8.98508]],[[10.45109,8.89578],[10.40147,8.81888],[10.4114,8.73702],[10.31465,8.67996]],[[13.43031,9.59035],[13.28395,9.49857],[13.07062,9.48864],[12.95899,9.43159],[12.80271,9.40182],[12.65636,9.50353],[12.48519,9.53826],[12.3562,9.48616],[12.21233,9.33981],[12.12302,9.30756],[12.02628,9.315],[11.9345,9.31252],[11.87248,9.24802],[11.76333,9.20833],[11.65667,9.2257],[11.56488,9.23314],[11.43589,9.15128],[11.36147,9.0719],[11.26721,9.02973],[11.22752,9.00492],[11.06628,8.95283],[10.89512,8.90322],[10.72147,8.83128],[10.53791,8.9057],[10.45109,8.89578]],[[13.43031,9.59035],[13.39558,9.41919],[13.33605,9.31996],[13.34349,9.20833],[13.27651,9.0595],[13.22938,8.95035],[13.3162,8.88585],[13.25667,8.80895],[13.19961,8.75438],[13.2393,8.64771],[13.2145,8.52616],[13.24922,8.45919],[13.19961,8.38229],[13.07806,8.33516],[12.95403,8.31035],[12.82504,8.26074],[12.83248,8.15655],[12.90442,8.08957],[12.87713,7.98539],[12.86225,7.92337],[12.89946,7.85888],[12.89946,7.76461],[12.87217,7.715],[12.82256,7.71004],[12.83,7.63562],[12.77047,7.60585],[12.71093,7.55376],[12.68612,7.4595],[12.7407,7.32554],[12.76054,7.24616],[12.76302,7.16926],[12.76054,7.13702],[12.78039,7.06756],[12.71837,7.02043],[12.62411,7.01298],[12.56705,6.97329],[12.51744,6.89888],[12.48767,6.85174],[12.40829,6.82198],[12.3314,6.78229],[12.28922,6.71035],[12.2024,6.63841],[12.11062,6.6136],[12.02876,6.63097],[11.92457,6.68306],[11.77822,6.68058],[11.68643,6.62601],[11.57481,6.62849],[11.49295,6.62105],[11.42597,6.53671],[11.3069,6.45236],[11.23992,6.39779]],[[16.97264,9.82105],[16.82628,9.83097],[16.67248,9.82105],[16.58814,9.85578],[16.48891,9.94508],[16.39961,10.04182],[16.21109,10.12616],[15.97543,10.13112],[15.5686,10.1212],[15.44457,10.17329],[15.35279,10.2626],[15.21388,10.30229],[15.08736,10.29484],[14.98566,10.27748],[14.90132,10.32461],[14.83186,10.42632],[14.64581,10.41143],[14.50194,10.29981],[14.37047,10.24027],[14.2638,10.23035],[14.1993,10.16585],[14.15713,10.03686],[14.06535,9.91283],[13.96116,9.89547],[13.82473,9.89298],[13.64612,9.87562],[13.53202,9.81112],[13.44767,9.69453],[13.43031,9.59035]]]}},{"type":"Feature","properties":{"name":null,"size":null},"geometry":{"type":"LineString","coordinates":[[16.76581,10.09143],[16.76581,10.09143],[16.78411,9.99717],[16.89326,9.93267],[16.97264,9.82105],[17.06194,9.6995],[17.19093,9.58539],[17.42907,9.5705],[17.71682,9.59531],[17.90039,9.59035],[17.99961,9.52089],[18.12116,9.53081],[18.21295,9.47872],[18.31961,9.36213],[18.44364,9.26043],[18.57512,9.16368],[18.91744,9.01484],[19.21402,8.93576]]}},{"type":"Feature","properties":{"name":"Fever","size":null},"geometry":{"type":"MultiLineString","coordinates":[[[12.24067,20.1716],[12.39093,20.16523],[12.50504,20.12058],[12.68364,20.15531],[12.83744,20.1305],[12.98132,20.03128],[13.0607,20.04616],[13.20953,20.14539],[13.36829,20.17516],[13.53698,20.10074],[13.6114,20.08585],[13.73543,20.19004],[13.80488,20.21981],[13.89915,20.17019],[14.05295,20.19996],[14.13233,20.2595]],[[14.13233,20.2595],[14.39031,20.26446]],[[14.13233,20.2595],[14.32085,20.35872]]]}},{"type":"Feature","properties":{"name":null,"size":null},"geometry":{"type":"MultiLineString","coordinates":[[[10.0634,20.01274],[10.13605,20.16027],[10.24271,20.31903],[10.31217,20.47531],[10.3469,20.63159],[10.46845,20.78539],[10.62225,20.87221],[10.80085,20.95655],[10.8976,21.05826],[10.93977,21.20213],[10.94969,21.39066],[10.98507,21.6482]],[[10.98507,21.6482],[10.91,21.74043],[10.81822,21.81981],[10.76612,21.91407],[10.69171,22.0381],[10.62721,22.10756],[10.64457,22.23903],[10.66442,22.27128]],[[10.98507,21.6482],[11.03716,21.78215],[11.10597,21.91159],[11.14566,22.08771],[11.13822,22.2688],[11.12581,22.3457]]]}},{"type":"Feature","properties":{"name":null,"size":null},"geometry":{"type":"MultiLineString","coordinates":[[[9.13388,21.47996],[9.06442,21.46508],[8.99992,21.54942],[8.97512,21.63376]],[[9.03083,20.34447],[9.01977,20.55717],[9.08922,20.66632],[9.19837,20.86973],[9.20829,21.03841],[9.15868,21.20709],[9.13388,21.47996]],[[9.13388,21.47996],[9.29264,21.6536],[9.40178,21.79252],[9.52085,21.92647],[9.62008,22.07531],[9.63496,22.1795]],[[9.63496,22.1795],[9.51093,22.27872],[9.51093,22.41267],[9.51093,22.56647],[9.44147,22.70043]],[[9.63496,22.1795],[9.82349,22.40275],[9.9376,22.49205],[10.09636,22.60616],[10.22535,22.82446],[10.24519,22.95841],[10.33946,23.14198],[10.46349,23.3305]],[[10.46349,23.3305],[10.47341,23.51407],[10.46349,23.71252],[10.37419,23.83159],[10.31961,23.90105],[10.38907,23.95562],[10.32953,24.02012],[10.36426,24.0995],[10.26504,24.16895],[10.26504,24.25329],[10.36922,24.35748]],[[10.46349,23.3305],[10.61729,23.42477],[10.78101,23.52895],[10.88519,23.63314],[11.01915,23.70756],[11.17295,23.80182],[11.34163,23.91097]]]}},{"type":"Feature","properties":{"name":null,"size":null},"geometry":{"type":"LineString","coordinates":[[6.0546,22.83011],[6.16073,23.01245],[6.25338,23.17336],[6.25826,23.32452],[6.37528,23.39279],[6.5362,23.43667],[6.6581,23.42205],[6.76538,23.42205],[6.89216,23.50494],[6.97993,23.60246],[7.02869,23.72437],[7.13597,23.76338],[7.27738,23.73412],[7.38466,23.72925],[7.45292,23.82677],[7.59921,23.98768],[7.72111,24.09496],[7.91128,24.18273],[8.10146,24.12422],[8.23311,24.09984],[8.33064,24.01206],[8.58908,24.03157],[8.66709,24.09008],[8.74999,24.08033],[8.83288,24.01694],[9.00843,24.05107],[9.2181,24.07546],[9.29125,24.15835],[9.4034,24.19736]]}},{"type":"Feature","properties":{"name":null,"size":null},"geometry":{"type":"LineString","coordinates":[[7.91128,24.18273],[7.91128,24.18273],[8.04294,24.29976],[8.05269,24.29976],[8.08683,24.43142],[8.05269,24.56795],[8.02831,24.6606],[8.11608,24.69961],[8.11608,24.81664],[8.25749,24.96292],[8.43304,25.06532],[8.52568,25.14334],[8.57932,25.275],[8.62808,25.40178]]}},{"type":"Feature","properties":{"name":null,"size":null},"geometry":{"type":"LineString","coordinates":[[9.5253,23.86578],[9.53506,23.73412],[9.47654,23.62197],[9.50092,23.44643]]}},{"type":"Feature","properties":{"name":null,"size":null},"geometry":{"type":"LineString","coordinates":[[9.59357,24.60696],[9.61795,24.73374],[9.67647,24.84589],[9.63746,24.95317],[9.64233,25.10433]]}},{"type":"Feature","properties":{"name":"White Knife","size":null},"geometry":{"type":"LineString","coordinates":[[17.05193,21.08736],[17.05193,21.08736],[16.94443,21.20582],[16.92248,21.34235],[16.92005,21.47645],[16.80058,21.61542],[16.70793,21.73976],[16.66648,21.84216],[16.67136,22.00795],[16.65917,22.20787],[16.7445,22.39805],[16.76401,22.5102],[16.67868,22.57603],[16.56408,22.66136],[16.57628,22.78814],[16.51045,22.85641],[16.47875,22.94418],[16.52264,23.07096],[16.46168,23.13923],[16.25932,23.26601],[16.21544,23.36109],[16.15692,23.49031],[16.16668,23.67561],[16.12767,23.78288],[16.14473,23.91942],[16.19349,24.07302],[16.25688,24.21199],[16.30077,24.38022],[16.28858,24.54601],[16.19593,24.70936],[16.23007,24.84102],[16.22763,24.95805],[16.19349,24.99218],[16.24469,25.07264],[16.213,25.13603],[16.16911,25.27987],[16.24226,25.35789],[16.32759,25.45054],[16.39098,25.55294],[16.38854,25.75774],[16.35928,25.92597],[16.37635,26.09176],[16.44706,26.20391],[16.49582,26.29168],[16.55433,26.38677],[16.64454,26.44041],[16.76401,26.51355],[16.92492,26.6769],[17.05658,26.84757],[17.12241,27.01092],[17.08096,27.14746],[17.03951,27.28643],[17.06389,27.39614],[17.15167,27.52292],[17.26626,27.61557],[17.4101,27.71309],[17.65148,27.86669],[17.80751,28.03248],[17.91723,28.15926],[18.00744,28.30067],[18.07814,28.42014],[18.17323,28.45184],[18.30976,28.5006],[18.42435,28.51523],[18.49262,28.6225]]}},{"type":"Feature","properties":{"name":null,"size":null},"geometry":{"type":"LineString","coordinates":[[17.15167,27.52292],[17.15167,27.52292],[17.13704,27.67165],[17.07365,27.75942],[17.07365,27.92521],[17.1858,28.091],[17.33696,28.24704],[17.32721,28.38357],[17.23944,28.46646],[17.14191,28.51523],[17.13704,28.64688],[17.17117,28.77854]]}},{"type":"Feature","properties":{"name":"Last River","size":null},"geometry":{"type":"LineString","coordinates":[[16.63967,32.04559],[16.78595,32.01146],[16.96637,31.97732],[17.07365,31.95294],[17.10778,31.91393],[17.26869,31.90906],[17.31502,31.83835],[17.38816,31.82616],[17.49544,31.70913],[17.55639,31.63111],[17.62953,31.52627],[17.78313,31.44582],[17.9538,31.46288],[18.11228,31.42144],[18.35852,31.35073],[18.55357,31.27271],[18.62671,31.16056],[18.69986,30.99965],[18.79007,30.85336],[18.90953,30.79972],[19.0802,30.8046],[19.11921,30.71926],[19.28988,30.69732],[19.52149,30.62662],[19.68728,30.52909],[19.82138,30.44132],[19.88233,30.26334],[19.95548,30.12193],[20.03837,29.98784],[20.08713,29.96102],[20.2066,29.91226],[20.26755,29.77085],[20.34557,29.74403],[20.44553,29.65626],[20.64546,29.65382],[20.83075,29.56361],[20.91365,29.42464],[20.96241,29.24422],[21.00629,28.98334],[21.07944,28.83949],[21.2306,28.69808],[21.2945,28.61991],[21.33056,28.52986],[21.32133,28.42679],[21.28911,28.34456],[21.22328,28.27386],[21.18671,28.17389],[21.24279,28.04955],[21.34763,27.90326],[21.40614,27.73747],[21.43052,27.58144],[21.44759,27.34982],[21.52561,27.20841],[21.67747,27.05384],[21.67747,27.05384]]}},{"type":"Feature","properties":{"name":"Weeping Water","size":null},"geometry":{"type":"LineString","coordinates":[[21.58869,26.07733],[21.58869,26.07733],[21.48416,26.13321],[21.34763,26.1649],[21.28911,26.2673],[21.25498,26.40384],[21.19403,26.44772],[21.09407,26.44528],[20.99167,26.37946],[20.86488,26.37214],[20.7186,26.46966],[20.65765,26.55256],[20.5845,26.70372],[20.54062,26.80856],[20.46504,26.89146],[20.34801,26.93778],[20.23098,26.95485],[20.14808,27.03043],[20.053,27.12795],[19.96767,27.21572],[19.92866,27.29374],[19.86527,27.33519],[19.73605,27.40589],[19.67022,27.48147],[19.56538,27.53267],[19.49224,27.56437]]}},{"type":"Feature","properties":{"name":null,"size":null},"geometry":{"type":"LineString","coordinates":[[16.12767,23.78288],[16.12767,23.78288],[15.93993,23.82921],[15.82778,23.87797],[15.75951,23.99012],[15.73026,24.08765],[15.65711,24.15591],[15.57666,24.22174],[15.56934,24.32658],[15.58885,24.44848],[15.53033,24.54113],[15.43037,24.54113],[15.30847,24.52894],[15.21338,24.57526],[15.13048,24.70205],[15.05247,24.84346],[14.97932,24.92391],[14.95007,25.02387],[14.92568,25.17991],[14.86229,25.26281],[14.82085,25.3262],[14.74527,25.39446],[14.69163,25.46029],[14.58923,25.45786],[14.52232,25.49792],[14.49658,25.58464],[14.38443,25.74555],[14.29666,25.85283],[14.25277,25.88208],[14.20888,25.95523],[14.12599,25.95035],[14.04797,25.99911],[13.9797,26.04787],[13.94069,26.06738],[13.82367,26.10639],[13.72614,26.17953],[13.70176,26.23805],[13.62862,26.37458],[13.62862,26.49648]]}},{"type":"Feature","properties":{"name":"Mander","size":null},"geometry":{"type":"LineString","coordinates":[[17.29308,3.04688],[17.18092,2.93961],[17.07365,2.89572],[16.95174,2.76894],[16.86397,2.63241],[16.74694,2.57877],[16.6933,2.46174],[16.64942,2.37885],[16.47875,2.25206],[16.33247,2.29595],[16.24957,2.16429],[16.11791,2.05702],[15.95212,2.01313],[15.88386,1.92048],[15.83022,1.7937],[15.80096,1.65717],[15.67418,1.55477],[15.4645,1.41824],[15.35235,1.39873],[15.17681,1.42799],[15.0354,1.3646],[14.87448,1.2622],[14.77208,1.1793],[14.59654,1.14517],[14.39662,1.0574],[14.37224,0.89648],[14.30885,0.78433],[14.17231,0.65755],[14.14306,0.56003],[14.16256,0.42349],[14.09917,0.28696],[14.06504,0.14555],[14.09429,-0.03487],[13.98702,-0.13239],[13.92363,-0.22992],[13.85536,-0.36157],[13.68469,-0.46397],[13.4994,-0.55174],[13.24584,-0.65414],[13.1922,-0.71266],[13.18245,-0.84432],[13.16782,-0.99548],[13.05567,-1.07837],[12.885,-1.11251],[12.79235,-1.22466],[12.72896,-1.35632],[12.68995,-1.51235],[12.53879,-1.57087],[12.35837,-1.66352],[12.0853,-1.70253],[11.89026,-1.74641],[11.68546,-1.81955],[11.5538,-1.91708],[11.46115,-1.99997],[11.32462,-2.12188],[11.27098,-2.23403],[11.15883,-2.31693],[10.99791,-2.33643],[10.85163,-2.39738],[10.74435,-2.49734],[10.62245,-2.61925],[10.56881,-2.75578],[10.56393,-2.87769],[10.45178,-3.02885],[10.37864,-3.16051],[10.30549,-3.27266],[10.25186,-3.37506],[10.17384,-3.4482],[10.0373,-3.46771],[9.88127,-3.52134],[9.79349,-3.59936],[9.67647,-3.67251],[9.56919,-3.66275],[9.48142,-3.60912],[9.44728,-3.56523],[9.36927,-3.57986],[9.22786,-3.56035],[9.10595,-3.52134],[9.01818,-3.44333],[8.9109,-3.36043],[8.83776,-3.25315],[8.76949,-3.12637],[8.73414,-3.04836]]}},{"type":"Feature","properties":{"name":"Blueburn","size":null},"geometry":{"type":"LineString","coordinates":[[14.09429,-0.03487],[14.09429,-0.03487],[14.25033,0.04803],[14.38199,0.04315],[14.55753,0.0529],[14.70382,0.00902],[14.84523,0.02852],[14.97201,0.03827],[15.07441,0.14555],[15.22557,0.16993],[15.35235,0.16993],[15.47913,0.14555],[15.57666,0.22357],[15.69368,0.23332],[15.82047,0.21382],[15.92287,0.18456],[16.04477,0.28696],[16.25932,0.42349],[16.39098,0.47226],[16.63479,0.44787],[16.72256,0.40886],[16.84447,0.40399],[17.02976,0.32109],[17.24431,0.26746],[17.38572,0.26258],[17.60515,0.21869],[17.7173,0.22845],[17.90748,0.28696],[18.01963,0.36986],[18.1074,0.41374],[18.26831,0.46738],[18.32195,0.5649],[18.40485,0.68681],[18.48774,0.79408],[18.56576,0.86723]]}},{"type":"Feature","properties":{"name":"Cockleswent","size":null},"geometry":{"type":"MultiLineString","coordinates":[[[12.68995,-1.51235],[12.93376,-1.49773],[13.11906,-1.52211],[13.2946,-1.49773],[13.40675,-1.52698],[13.56767,-1.59525],[13.77734,-1.57087],[13.98702,-1.59525],[14.16744,-1.68302],[14.30885,-1.8098],[14.4405,-1.9122],[14.69894,-2.02435],[15.04028,-1.99997],[15.40599,-1.98534]],[[15.40599,-1.98534],[15.5474,-1.94634],[15.7522,-1.88294]],[[15.40599,-1.98534],[15.52789,-2.02923],[15.60591,-2.0975]]]}},{"type":"Feature","properties":{"name":null,"size":null},"geometry":{"type":"MultiLineString","coordinates":[[[10.54687,5.02662],[10.42496,4.93885],[10.42984,4.7633],[10.43471,4.60239],[10.39083,4.41222],[10.41033,4.32932],[10.44934,4.26106],[10.3762,4.13915],[10.37132,4.08551],[10.46397,3.97824],[10.44447,3.91485],[10.48348,3.80269],[10.46885,3.71005],[10.51761,3.52963],[10.4981,3.42235],[10.45422,3.28094],[10.3957,3.21267],[10.40058,3.10052],[10.45909,3.00787],[10.42008,2.91035],[10.43471,2.76406],[10.46885,2.59827],[10.53224,2.45199],[10.53224,2.32521],[10.4981,2.15942],[10.47372,1.98387],[10.46397,1.74494],[10.55174,1.59378],[10.63951,1.46212],[10.77605,1.3646],[10.80652,1.27439],[10.80043,1.17443]],[[10.80043,1.17443],[10.8565,1.22928],[10.89551,1.24635],[10.90039,1.28658]],[[10.80043,1.17443],[10.73216,1.09641],[10.62976,1.01839],[10.63464,0.955],[10.66389,0.86723],[10.65902,0.74045],[10.6005,0.6478],[10.57125,0.55027],[10.59563,0.45275],[10.61026,0.3406],[10.60416,0.24917],[10.54077,0.17481],[10.55296,0.1041],[10.51517,0.03584],[10.53955,-0.05559],[10.60841,-0.13932],[10.7029,-0.20554],[10.73338,-0.32256],[10.78092,-0.48957],[10.8053,-0.63952],[10.89795,-0.81994],[10.9333,-0.93087],[10.92355,-1.11373],[10.97597,-1.20515],[11.07837,-1.21491],[11.12835,-1.25757]],[[11.12835,-1.25757],[11.11982,-1.32706],[11.06862,-1.36241],[11.02961,-1.41727],[11.07169,-1.46448],[11.07228,-1.51479],[11.04058,-1.55746],[11.06862,-1.60988],[11.05033,-1.65254],[10.9906,-1.67571],[10.89795,-1.71715],[10.82481,-1.82443],[10.84675,-1.98047],[10.91258,-2.09262],[10.89064,-2.2194],[10.85163,-2.39738]],[[11.12835,-1.25757],[11.13201,-1.17102],[11.13688,-1.10763]]]}},{"type":"Feature","properties":{"name":"Honeywine","size":null},"geometry":{"type":"MultiLineString","coordinates":[[[7.6969,-6.76047],[7.7333,-6.62016],[7.85521,-6.47388],[7.91372,-6.32272],[7.88447,-6.1423],[7.94298,-5.92774],[7.97711,-5.69369],[8.00149,-5.47426],[7.99174,-5.32797]],[[7.99174,-5.32797],[7.91372,-5.18656],[7.80157,-5.09879],[7.75281,-5.02565],[7.77231,-4.93788],[7.8357,-4.80622],[7.84058,-4.62093],[7.86008,-4.54778],[7.8162,-4.46001],[7.80157,-4.38199],[7.84058,-4.30885]],[[7.99174,-5.32797],[8.01856,-5.23533],[8.0917,-5.20119],[8.1746,-5.1378],[8.19654,-5.03053],[8.22824,-4.89643],[8.33795,-4.8306],[8.44767,-4.77453],[8.52812,-4.67213],[8.67197,-4.48683]]]}},{"type":"Feature","properties":{"name":"Torentine","size":null},"geometry":{"type":"MultiLineString","coordinates":[[[12.07311,-6.45925],[11.96584,-6.22519],[11.65376,-6.04965],[11.44896,-5.96188],[11.28317,-5.8546],[11.15639,-5.75708],[11.11738,-5.54253],[11.03936,-5.38649],[10.98085,-5.26946]],[[11.36649,-8.26026],[11.50748,-8.03914],[11.58549,-7.83434],[11.61475,-7.6783],[11.78054,-7.61003],[11.91708,-7.41498],[12.02435,-7.24919],[12.16088,-7.19068],[12.25841,-7.03464],[12.17064,-6.88835],[12.08287,-6.77133],[12.04386,-6.63479],[12.07311,-6.45925]],[[12.07311,-6.45925],[12.28767,-6.16668],[12.35593,-5.91312],[12.50222,-5.75708],[12.47296,-5.51327],[12.58024,-5.31822],[12.63875,-5.18169],[12.65826,-4.85011],[12.65826,-4.51853],[12.73628,-4.25521],[12.78504,-4.17719]]]}},{"type":"Feature","properties":{"name":"Brimstone","size":null},"geometry":{"type":"LineString","coordinates":[[16.6396,-10.45155],[16.59334,-10.26755],[16.44218,-10.01399],[16.3154,-9.87258],[16.22275,-9.75555],[16.25201,-9.58976],[16.16911,-9.50199],[16.20812,-9.30207],[16.22763,-9.20454],[16.32515,-9.07776],[16.20325,-8.93148],[16.09597,-8.7218]]}},{"type":"Feature","properties":{"name":"Greenblood","size":null},"geometry":{"type":"LineString","coordinates":[[24.04513,-9.2648],[23.93688,-9.17529],[23.77109,-9.17529],[23.55654,-9.06801],[23.36149,-8.98999],[23.21521,-8.99974],[23.02991,-8.98024],[22.90313,-8.88272],[22.84462,-8.8047],[22.85437,-8.71693],[22.66908,-8.71693],[22.24972,-8.77544],[21.92789,-8.77544],[21.7621,-8.83395],[21.41102,-8.77544],[21.31349,-8.66816]]}},{"type":"Feature","properties":{"name":"The Vaith","size":null},"geometry":{"type":"LineString","coordinates":[[21.31349,-8.66816],[21.22085,-8.73643],[21.00142,-8.81933],[20.9234,-8.88759],[20.72835,-8.9266],[20.58207,-8.98999],[20.45528,-9.01925],[20.36264,-8.97536],[20.25536,-8.96561],[20.17734,-9.07289],[20.01643,-9.1314],[19.84088,-9.12653],[19.76287,-9.10214],[19.73361,-9.06314],[19.66047,-9.08264]]}},{"type":"Feature","properties":{"name":"The Scourge","size":null},"geometry":{"type":"LineString","coordinates":[[21.31349,-8.66816],[21.16721,-8.56576],[21.03068,-8.48774],[20.86001,-8.43898],[20.76248,-8.48774],[20.6357,-8.52188],[20.5333,-8.58039],[20.40165,-8.58527],[20.21148,-8.57552],[20.03593,-8.57552],[19.95791,-8.62915],[19.79212,-8.56576],[19.61658,-8.49262],[19.43128,-8.48774],[19.31913,-8.39022],[19.21673,-8.27319],[19.0802,-8.22443],[19.00706,-8.13666],[18.95829,-8.08302],[18.89003,-8.09765],[18.80226,-7.97087],[18.76812,-7.92698],[18.62184,-7.76607]]}},{"type":"Feature","properties":{"name":null,"size":null},"geometry":{"type":"LineString","coordinates":[[16.73305,-6.55255],[16.47631,-6.50314],[16.24713,-6.50801],[16.00332,-6.55677],[15.81315,-6.68843],[15.62786,-6.66893],[15.49132,-6.73719],[15.31578,-6.63967],[15.1061,-6.62504],[14.94519,-6.69331],[14.80866,-6.71769],[14.62336,-6.67868],[14.49658,-6.71769],[14.32104,-6.66893],[14.1845,-6.63967]]}},{"type":"Feature","properties":{"name":null,"size":null},"geometry":{"type":"LineString","coordinates":[[17.83453,-4.22927],[17.60759,-4.22108],[17.42229,-4.26009],[17.31502,-4.32348],[17.1541,-4.26984],[17.0322,-4.2162],[16.92005,-4.23083],[16.75913,-4.37224],[16.66161,-4.46489],[16.58359,-4.52828],[16.44218,-4.57216],[16.37391,-4.65994],[16.29102,-4.63068],[16.22763,-4.64531],[16.15936,-4.73308],[15.96919,-4.75258],[15.74488,-4.79647],[15.56447,-4.88424],[15.4133,-4.88424],[15.27189,-4.85498]]}},{"type":"Feature","properties":{"name":null,"size":null},"geometry":{"type":"LineString","coordinates":[[19.895,-3.40462],[19.86527,-3.25559],[19.89452,-3.0703],[19.96279,-2.91426],[19.96279,-2.81674],[20.08957,-2.71921],[20.05056,-2.63144],[20.01155,-2.53392],[20.07007,-2.40714],[19.98229,-2.29986],[19.87502,-2.21209],[19.88477,-2.05605],[19.98229,-1.861],[20.07982,-1.69521],[20.18709,-1.61719],[20.27487,-1.51967],[20.28462,-1.31487]]}},{"type":"Feature","properties":{"name":"Wendwater","size":null},"geometry":{"type":"LineString","coordinates":[[22.23815,3.5165],[22.23997,3.43454],[22.18633,3.31751],[22.1522,3.24437],[22.20096,3.1566],[22.14732,3.08833],[22.15708,2.98106],[22.1522,2.87866],[22.09368,2.79088],[21.91327,2.747],[21.7621,2.65923],[21.63532,2.58608],[21.5573,2.43005],[21.48904,2.33252],[21.43052,2.19111],[21.333,2.05946],[21.24035,2.02532],[21.16233,1.90342],[21.0453,1.86441],[20.86976,1.87416],[20.7381,1.87416],[20.68447,1.84003],[20.60157,1.72787],[20.52355,1.69374],[20.46504,1.56208],[20.33338,1.46944],[20.27487,1.38654],[20.15296,1.32315]]}},{"type":"Feature","properties":{"name":null,"size":null},"geometry":{"type":"LineString","coordinates":[[21.48904,2.33252],[21.37688,2.35203],[21.26961,2.43005],[21.23548,2.50319],[21.17696,2.59584],[21.06481,2.62022],[20.9429,2.57146],[20.75761,2.58608],[20.67471,2.65435],[20.58207,2.747]]}},{"type":"Feature","properties":{"name":"Antler","size":null},"geometry":{"type":"MultiLineString","coordinates":[[[17.49431,37.43585],[17.35461,37.48475],[17.19395,37.52666],[17.11712,37.58254],[17.02631,37.6454],[16.90757,37.75018]],[[17.49431,37.43585],[17.36858,37.42538],[17.24634,37.41141],[17.13458,37.42887],[17.05076,37.48126],[16.92852,37.5057]],[[17.77371,37.31711],[17.68989,37.39744],[17.69338,37.47078],[17.6375,37.52666],[17.56066,37.56508],[17.50478,37.62096],[17.45589,37.72922],[17.38255,37.82003]],[[17.77371,37.31711],[17.65496,37.34505],[17.56416,37.38696],[17.49431,37.43585]],[[19.56794,37.14124],[19.42216,37.17042],[19.33136,37.19138],[19.26849,37.24726],[19.22658,37.21233],[19.16372,37.16344],[19.11482,37.17741],[19.04497,37.19138],[18.98211,37.18439],[18.9402,37.12852],[18.85638,37.12153],[18.77256,37.19138],[18.66778,37.18439],[18.59095,37.15645],[18.48618,37.17042],[18.38839,37.19138],[18.29758,37.16344],[18.17884,37.16344],[18.08105,37.21233],[17.99024,37.2752],[17.87848,37.31711],[17.77371,37.31711]]]}},{"type":"Feature","properties":{"name":"Milkwater","size":null},"geometry":{"type":"LineString","coordinates":[[15.17952,34.2678],[15.33245,34.38691],[15.36039,34.45676],[15.38833,34.49867],[15.46517,34.5755],[15.52105,34.59645],[15.54899,34.70123],[15.59788,34.79902],[15.70964,34.90379],[15.8214,34.90379],[15.95412,34.93872],[16.03095,35.01555],[16.07286,35.06445],[16.20557,35.10636],[16.34527,35.19018],[16.46402,35.26701],[16.5199,35.33686],[16.56181,35.45561],[16.56181,35.63023],[16.53387,35.77692],[16.53387,35.94456],[16.51291,36.05632],[16.45703,36.13315],[16.3802,36.27285],[16.3313,36.41954],[16.27542,36.49637],[16.28939,36.63607],[16.2405,36.77577],[16.17763,36.9015],[16.07984,37.03422],[15.99603,37.18789],[15.86331,37.33457],[15.72361,37.46729],[15.64678,37.56508],[15.47215,37.61397],[15.13687,37.69081],[14.8924,37.74669],[14.68285,37.80955],[14.5641,37.85146],[14.43139,37.89337],[14.2847,38.08895],[14.1939,38.24262],[14.11008,38.39629],[13.94244,38.54996],[13.83766,38.65474],[13.74686,38.77348]]}},{"type":"Feature","properties":{"name":null,"size":null},"geometry":{"type":"LineString","coordinates":[[14.43139,37.89337],[14.28819,37.88988],[14.07166,37.90385],[13.94942,37.88639]]}},{"type":"Feature","properties":{"name":null,"size":null},"geometry":{"type":"LineString","coordinates":[[16.56181,35.45561],[16.63864,35.65468],[16.69452,35.7874],[16.80628,35.93408],[16.91804,36.07378],[17.09965,36.15062],[17.24634,36.30429],[17.38604,36.43002],[17.53971,36.47891],[17.73529,36.53479],[17.94484,36.45097],[18.16836,36.37414],[18.21725,36.31127],[18.29409,36.17157],[18.4268,36.10871],[18.60841,36.0668],[18.74811,36.0179],[18.96465,35.94805],[19.05545,35.89217]]}},{"type":"Feature","properties":{"name":null,"size":null},"geometry":{"type":"LineString","coordinates":[[18.21725,36.31127],[18.36394,36.35318],[18.49665,36.44399],[18.60143,36.45796],[18.80399,36.49288],[18.86686,36.53479]]}},{"type":"Feature","properties":{"name":null,"size":null},"geometry":{"type":"LineString","coordinates":[[16.3802,36.27285],[16.22653,36.31476],[16.10429,36.3427],[15.90173,36.2973],[15.76552,36.2973],[15.64328,36.31476],[15.51057,36.36366]]}},{"type":"Feature","properties":{"name":null,"size":null},"geometry":{"type":"MultiLineString","coordinates":[[[13.68399,40.04126],[13.58969,40.18096],[13.48841,40.36955],[13.4011,40.48131],[13.22648,40.66641],[13.06931,40.79564],[12.85976,40.94931],[12.75499,41.01916]],[[13.68399,40.04126],[13.60061,40.09277],[13.52334,40.10412],[13.43603,40.15302],[13.37665,40.15302],[13.29633,40.12857],[13.22648,40.13905],[13.13567,40.16349],[13.08328,40.19493]],[[15.64678,37.56508],[15.6363,37.66636],[15.50358,37.82701],[15.39182,38.00513],[15.30102,38.08895],[15.22069,38.16928],[15.06004,38.30549],[14.67935,38.52901],[14.64443,38.59536],[14.54315,38.74554],[14.46282,38.84333],[14.40694,39.02145],[14.37551,39.25894],[14.36154,39.36022],[14.379,39.49643],[14.35455,39.60819],[14.26375,39.68153],[14.13802,39.71995],[13.97736,39.7863],[13.81671,39.85615],[13.68399,40.04126]]]}},{"type":"Feature","properties":{"name":null,"size":null},"geometry":{"type":"MultiLineString","coordinates":[[[8.17502,35.97075],[8.00738,35.94281],[7.84672,35.87995],[7.77687,35.79613],[7.54637,35.71929],[7.48431,35.67882]],[[8.07302,35.22562],[8.10517,35.50276],[8.13311,35.70532],[8.17502,35.97075]],[[8.17502,35.97075],[8.29376,36.0406],[8.4614,36.05457],[8.52427,36.06156],[8.60809,36.15236],[8.76874,36.23618],[8.8805,36.28508],[9.04115,36.37588],[9.13196,36.48764],[9.18085,36.68322],[9.19482,36.82292],[9.10402,36.94167],[9.05512,37.04644],[9.13894,37.16519],[9.20181,37.26996],[9.25769,37.40268],[9.22276,37.52841],[9.31357,37.64017],[9.43231,37.71002],[9.52312,37.80082],[9.64186,37.94751],[9.71171,38.05927],[9.80252,38.17801],[9.80252,38.26183]],[[9.80252,38.26183],[9.72568,38.30374],[9.57201,38.43645]],[[9.80252,38.26183],[9.90031,38.34565],[10.04001,38.52726]]]}},{"type":"Feature","properties":{"name":null,"size":null},"geometry":{"type":"LineString","coordinates":[[16.15602,42.82271],[15.99122,42.80906],[15.8166,42.80906],[15.71881,42.80906],[15.66293,42.72524],[15.61403,42.55062],[15.55117,42.45981],[15.43941,42.43187],[15.32066,42.43886],[15.2578,42.34107],[15.16699,42.2782],[15.05523,42.28519],[15.02031,42.26423],[14.93649,42.16644],[14.87362,42.13152]]}},{"type":"Feature","properties":{"name":null,"size":null},"geometry":{"type":"MultiLineString","coordinates":[[[19.26902,15.94203],[19.10641,15.95454],[19.02302,15.94203],[18.88126,15.93786],[18.74784,15.90868],[18.64778,15.82946],[18.63527,15.72523]],[[19.26902,15.94203],[19.244,15.82946],[19.25651,15.77109],[19.22315,15.66685]],[[22.0676,16.68142],[21.89573,16.65083],[21.82902,16.55076],[21.7498,16.5049],[21.67058,16.5591],[21.60804,16.61747],[21.52882,16.62164],[21.48713,16.5591],[21.48713,16.45487],[21.46628,16.34646],[21.38289,16.27141],[21.33286,16.19637],[21.18276,16.14216],[21.04934,16.09213],[20.92426,16.18803],[20.87423,16.26725],[20.76999,16.36314],[20.69494,16.34646],[20.64491,16.27141],[20.62823,16.2047],[20.53234,16.13799],[20.52817,16.07128],[20.47814,15.95037],[20.41143,15.892],[20.26967,15.87949],[20.11123,15.87115],[20.007,15.92119],[19.95696,16.01291],[19.88608,16.12966],[19.76934,16.17135],[19.6526,16.13799],[19.49833,16.06295],[19.32322,15.99207],[19.26902,15.94203]]]}},{"type":"Feature","properties":{"name":null,"size":null},"geometry":{"type":"LineString","coordinates":[[22.27084,16.06468],[22.09586,15.98373],[22.0083,15.87532],[21.8582,15.7294],[21.5997,15.6335],[21.40791,15.56679],[21.26198,15.6335],[21.11188,15.58347],[21.00348,15.45005],[20.96178,15.36666],[20.97846,15.24158],[20.90758,15.19571],[20.77833,15.14568],[20.58237,15.00809],[20.39475,15.01226],[20.23214,14.99558],[20.18628,14.92887],[20.08621,14.85799],[20.03201,14.84966]]}},{"type":"Feature","properties":{"name":null,"size":null},"geometry":{"type":"LineString","coordinates":[[21.95313,14.75879],[21.84986,14.72457]]}},{"type":"Feature","properties":{"name":null,"size":null},"geometry":{"type":"MultiLineString","coordinates":[[[18.50185,13.74477],[18.35175,13.81148],[18.24752,13.95741],[18.15579,14.06998],[17.83058,14.04913],[17.6513,14.03246],[17.55957,14.00744],[17.43449,14.06164],[17.42615,14.15337],[17.33442,14.22842],[17.25104,14.29096],[17.17182,14.44523],[17.03006,14.51194],[16.95084,14.54112]],[[18.50185,13.74477],[18.35175,13.61969],[18.26836,13.59884],[18.17664,13.61552],[18.12661,13.51962],[18.04322,13.40705],[17.83475,13.36953],[17.72218,13.34868],[17.53038,13.32783],[17.41364,13.23611],[17.32608,13.0735],[17.26354,12.97343],[17.12595,12.91089]],[[19.53586,13.62386],[19.45664,13.69891],[19.30654,13.78646],[19.21898,13.87819],[19.13143,13.9449],[18.92713,13.91571],[18.68113,13.91571],[18.60192,13.82399],[18.50185,13.74477]],[[19.53586,13.62386],[19.30237,13.46125],[19.07722,13.4821],[18.86459,13.51545],[18.6853,13.49044]],[[21.35371,14.27011],[21.18276,14.15337],[21.09104,14.0408],[20.88674,13.98242],[20.76582,13.88653],[20.60739,13.849],[20.35722,13.86151],[20.15293,13.87819],[19.98615,13.82399],[19.87775,13.73643],[19.63592,13.71975],[19.53586,13.62386]]]}},{"type":"Feature","properties":{"name":null,"size":null},"geometry":{"type":"LineString","coordinates":[[33.73773,-0.13462],[33.85351,-0.00376],[33.90354,0.11715],[33.91605,0.22972],[34.05364,0.33396],[34.21625,0.42985],[34.38302,0.57578],[34.42889,0.69252],[34.52478,0.80718]]}},{"type":"Feature","properties":{"name":null,"size":null},"geometry":{"type":"LineString","coordinates":[[54.17924,-13.15608],[54.16257,-12.80168],[54.11253,-12.59321],[54.01247,-12.35139],[54.00413,-11.90109],[54.00413,-11.61758],[53.85403,-11.38409],[53.93742,-11.12559],[53.97911,-10.79204],[53.88739,-10.5252],[53.67058,-10.40012],[53.42876,-10.25002],[53.36205,-9.97484],[53.18693,-9.86644],[52.97846,-9.74135],[52.81169,-9.708],[52.65325,-9.65797],[52.56152,-9.49953],[52.53651,-9.36611],[52.36973,-9.28272],[52.21964,-9.23269],[52.04452,-9.05758]]}},{"type":"Feature","properties":{"name":null,"size":null},"geometry":{"type":"LineString","coordinates":[[53.36205,-9.97484],[53.41208,-9.84142],[53.51631,-9.65797],[53.5997,-9.53288],[53.60804,-9.2994]]}},{"type":"Feature","properties":{"name":null,"size":null},"geometry":{"type":"LineString","coordinates":[[54.00413,-11.90109],[54.11253,-11.75933],[54.2126,-11.5592],[54.36687,-11.42161],[54.57117,-11.30487],[54.83801,-11.17979],[55.02146,-10.988],[55.06315,-10.73784],[55.15488,-10.66279],[55.33833,-10.55855],[55.54313,-10.43611],[55.7511,-10.29588],[55.90954,-10.30422],[56.03045,-10.21249],[56.19722,-10.0624],[56.37234,-9.8581],[56.46407,-9.74969],[56.55162,-9.61627],[56.57247,-9.37862],[56.69755,-9.26604],[56.81846,-9.13679],[56.87266,-9.00337]]}},{"type":"Feature","properties":{"name":null,"size":null},"geometry":{"type":"LineString","coordinates":[[56.61416,-11.68845],[56.7184,-11.63842],[56.87683,-11.57588],[56.93521,-11.43412],[57.00192,-11.29236],[57.12283,-11.29236],[57.33964,-11.28402],[57.48139,-11.15894],[57.56061,-10.96715],[57.68986,-10.85458],[57.76074,-10.70865],[57.71488,-10.51686],[57.72739,-10.40845],[57.76908,-10.30422],[57.89833,-10.18748],[58.02758,-10.09992],[58.14433,-9.93731]]}},{"type":"Feature","properties":{"name":"Skahazadban","size":null},"geometry":{"type":"LineString","coordinates":[[67.24454,-9.55886],[67.39618,-9.61627],[67.66302,-9.59543],[67.81729,-9.52455],[67.90902,-9.5037],[67.91319,-9.54956],[68.05494,-9.54539],[68.19253,-9.5037],[68.31762,-9.54539],[68.40934,-9.61627],[68.61364,-9.6538],[68.74706,-9.708],[68.85547,-9.80806],[68.94719,-9.89562],[68.98889,-10.02904],[69.08895,-10.09158],[69.21403,-10.18748],[69.23488,-10.32924],[69.33494,-10.471],[69.4642,-10.62526],[69.48504,-10.73367],[69.43501,-10.88376],[69.37247,-10.88793],[69.28908,-10.96298],[69.20986,-11.08389],[69.09729,-11.17979],[69.00556,-11.27569],[68.95136,-11.42578],[68.97221,-11.56754],[68.98889,-11.68845],[68.91384,-11.7635],[68.79709,-11.85523],[68.7554,-12.00533],[68.73038,-12.12207],[68.67201,-12.24715],[68.73872,-12.37223],[68.74915,-12.56194],[68.76374,-12.66409],[68.8096,-12.8392],[68.84921,-13.00181],[68.88048,-13.15608],[68.93885,-13.30617],[68.88048,-13.36455],[68.80543,-13.40624],[68.78876,-13.48963],[68.78876,-13.59803],[68.83045,-13.68142],[68.82211,-13.75647]]}},{"type":"Feature","properties":{"name":null,"size":null},"geometry":{"type":"LineString","coordinates":[[69.43501,-10.88376],[69.50797,-10.96298],[69.60387,-10.98383],[69.67892,-11.04637],[69.72895,-11.1381],[69.83319,-11.18813],[69.97078,-11.24233],[70.07501,-11.36741],[70.12504,-11.51334],[70.1584,-11.66761],[70.1167,-11.80937],[70.07918,-11.94696]]}},{"type":"Feature","properties":{"name":"Worm River","size":null},"geometry":{"type":"LineString","coordinates":[[64.91776,-15.25901],[65.08426,-15.24911],[65.27188,-15.345],[65.35944,-15.44507],[65.42615,-15.57849],[65.46784,-15.67021],[65.62628,-15.69106],[65.71801,-15.71608],[65.81807,-15.78279],[65.92648,-15.82865],[66.0599,-15.79113],[66.15996,-15.66604],[66.20582,-15.5493],[66.2642,-15.45758],[66.26836,-15.39087],[66.2225,-15.345],[66.13494,-15.26578],[66.12244,-15.16155],[66.13911,-15.01562],[66.16413,-14.87803],[66.19749,-14.78214],[66.29338,-14.7321],[66.3726,-14.79881],[66.47266,-14.8822],[66.51019,-15.03647],[66.48517,-15.16155],[66.4685,-15.31999],[66.47266,-15.53679],[66.50602,-15.67855],[66.59775,-15.7536],[66.74784,-15.74943],[66.84374,-15.66604],[66.92296,-15.52012],[66.97716,-15.40754],[67.11892,-15.29497],[67.26485,-15.25328],[67.39827,-15.2908],[67.53586,-15.30331],[67.60257,-15.19907],[67.64426,-15.09901],[67.74433,-15.04064],[67.81521,-15.0865],[67.86524,-15.27829],[67.89442,-15.49093],[67.84856,-15.77028],[67.81937,-16.04546],[67.82354,-16.27894],[67.88192,-16.41236],[67.89025,-16.53744],[67.83188,-16.60416],[67.71097,-16.65419],[67.67345,-16.77093],[67.69429,-16.87933],[67.74016,-16.96272],[67.74016,-17.04611],[67.69012,-17.10448],[67.65677,-17.2379],[67.67762,-17.37132],[67.7068,-17.56728]]}},{"type":"Feature","properties":{"name":null,"size":null},"geometry":{"type":"LineString","coordinates":[[78.37065,4.75548],[78.4513,4.59298],[78.5055,4.39702],[78.63475,4.1677],[78.73064,4.00093]]}},{"type":"Feature","properties":{"name":"Volaena","size":null},"geometry":{"type":"MultiLineString","coordinates":[[[43.20335,-8.84911],[43.36178,-8.64064],[43.67866,-8.47803],[43.82459,-8.34044],[44.04556,-8.04025],[44.39579,-7.82344],[44.47084,-7.69836],[44.6126,-7.58578],[44.67847,-7.43109],[44.77937,-7.33979],[44.87944,-7.18969]],[[44.87944,-7.18969],[45.12126,-7.11464],[45.29638,-6.94787],[45.58823,-6.55595],[45.85507,-6.38917],[46.14693,-6.21406]],[[44.87944,-7.18969],[44.99201,-7.07295],[45.01703,-6.93953],[45.10459,-6.7394],[45.23384,-6.50591],[45.20882,-6.35582],[45.17964,-6.10148],[45.2797,-5.96389],[45.3339,-5.79712],[45.45064,-5.50526],[45.484,-5.37184],[45.484,-5.17588],[45.65494,-5.01328]]]}},{"type":"Feature","properties":{"name":"Rhoyne","size":null},"geometry":{"type":"MultiLineString","coordinates":[[[42.57377,-8.69901],[42.24022,-8.29041],[41.94836,-7.89849],[41.53143,-7.63999],[41.35631,-7.31477],[41.38133,-7.02292],[41.24791,-6.76442],[41.06446,-6.57262],[41.20621,-6.39751],[40.96439,-5.99725],[41.03944,-5.58865],[41.08113,-5.18839],[40.97273,-4.9549],[40.87266,-4.76311],[40.69755,-4.61301],[40.54745,-4.37119],[40.40569,-4.071],[40.35566,-3.89588],[40.38068,-3.7708],[40.31397,-3.6207],[40.38068,-3.42891],[40.31397,-3.18709],[40.34732,-2.81184],[40.4724,-2.37823],[40.56413,-2.11973],[40.53078,-1.91126],[40.6642,-1.6194],[40.73924,-1.2108],[40.78928,-1.07738],[40.73924,-0.87725],[40.83097,-0.70214],[40.76426,-0.47699],[40.81846,-0.2164],[40.89259,-0.05868],[40.881,0.1505]],[[42.3671,-10.71758],[42.44035,-10.53354],[42.49872,-10.36676],[42.57377,-10.05823]],[[42.57377,-10.05823],[42.60713,-9.6663],[42.60713,-9.49953],[42.73221,-9.32442],[42.65716,-8.97419],[42.57377,-8.69901]],[[42.57377,-10.05823],[42.71553,-10.25836],[42.79058,-10.46683],[42.87171,-10.5447]],[[43.22213,-10.03076],[43.15749,-9.94982],[43.01573,-9.77471],[43.01573,-9.59959],[42.94068,-9.37445],[42.82393,-9.22435],[42.79892,-8.94083],[42.57377,-8.69901]],[[42.57377,-8.69901],[43.20335,-8.84911],[43.34094,-9.0409],[43.49104,-9.18266],[43.59123,-9.37664]]]}},{"type":"Feature","properties":{"name":"Selhoru","size":null},"geometry":{"type":"LineString","coordinates":[[41.08113,-5.18839],[41.28543,-4.96324],[41.47722,-4.76311],[41.68569,-4.51712],[41.89833,-4.35451],[41.94836,-4.12937],[41.95253,-3.95842],[42.11931,-3.76663],[42.25273,-3.68324],[42.49038,-3.47894],[42.59879,-3.45393],[42.8281,-3.43308],[43.11996,-3.24129],[43.2367,-3.09953],[43.28674,-2.94109],[43.4285,-2.81601],[43.62029,-2.66591],[43.67032,-2.4908],[43.72035,-2.30735],[43.83709,-2.11556],[43.96218,-1.99881],[44.08726,-1.92376],[44.26237,-1.88207],[44.36244,-1.69862],[44.58758,-1.57354],[44.75436,-1.49849],[44.90446,-1.47347],[45.19631,-1.44012],[45.4298,-1.40676],[45.58823,-1.3067],[45.84674,-1.10657],[45.99683,-1.06487]]}},{"type":"Feature","properties":{"name":null,"size":null},"geometry":{"type":"LineString","coordinates":[[43.96218,-1.99881],[44.00387,-1.86539],[44.00387,-1.70696],[43.96218,-1.49015],[43.99136,-1.34005],[44.13729,-1.20663],[44.26237,-1.03986]]}},{"type":"Feature","properties":{"name":null,"size":null},"geometry":{"type":"LineString","coordinates":[[44.75436,-1.49849],[44.91279,-1.39842],[44.95449,-1.25666],[45.00452,-1.08572],[45.10042,-1.0065],[45.23384,-0.96481],[45.29638,-0.85223],[45.39644,-0.75634],[45.55488,-0.6938],[45.61325,-0.57288],[45.64244,-0.47699],[45.74667,-0.3394],[45.75501,-0.2435]]}},{"type":"Feature","properties":{"name":null,"size":null},"geometry":{"type":"LineString","coordinates":[[42.8281,-3.43308],[43.04491,-3.4164],[43.22836,-3.37471],[43.40348,-3.29966],[43.58693,-3.31634],[43.83709,-3.34552],[44.04139,-3.34969],[44.13312,-3.29966],[44.22485,-3.20376],[44.39579,-3.05784],[44.60009,-2.94526],[44.8711,-2.86187],[45.02954,-2.77849],[45.32556,-2.80767],[45.45481,-2.77432],[45.56322,-2.70344],[45.67996,-2.67425],[45.80921,-2.67842]]}},{"type":"Feature","properties":{"name":"Lhorulu","size":null},"geometry":{"type":"MultiLineString","coordinates":[[[38.25846,-0.30604],[38.09169,-0.18096],[37.91657,-0.09758],[37.79983,-0.02253],[37.79983,0.13591],[37.83319,0.26099],[37.80817,0.41109],[37.71644,0.4778]],[[38.25846,-0.30604],[38.18341,-0.14761],[38.27514,0.03584],[38.39188,0.2193],[38.33351,0.46112],[38.36687,0.59454],[38.47527,0.74464],[38.45025,0.87806],[38.33351,1.01148]],[[40.53078,-1.91126],[40.30146,-1.79034],[40.04296,-1.69028],[39.87618,-1.55686],[39.60934,-1.55686],[39.45924,-1.45679],[39.43423,-1.37341],[39.32582,-1.27334],[39.31749,-0.96481],[39.20908,-0.8564],[39.00895,-0.8564],[38.7838,-0.93145],[38.60035,-0.84806],[38.37521,-0.64793],[38.25846,-0.30604]]]}},{"type":"Feature","properties":{"name":"Rhoyne","size":null},"geometry":{"type":"LineString","coordinates":[[40.62459,1.04067],[40.52244,1.15741],[40.44322,1.32001],[40.40986,1.61604],[40.33481,1.89122],[40.18889,2.10386],[40.00543,2.26229],[39.90954,2.39571],[39.88035,2.56666],[39.73859,2.69591],[39.53012,2.81682],[39.22576,2.8877],[38.98393,2.99611],[38.87553,3.19624],[38.60035,3.22959],[38.47527,3.36301],[38.23345,3.41304],[38.10003,3.37135],[37.93325,3.43806],[37.80817,3.57982],[37.57468,3.64653],[37.20778,3.79663],[37.04934,3.90503],[36.88257,4.17187],[36.81169,4.39702],[36.69911,4.58881],[36.61573,4.64301],[36.53651,4.61383],[36.45729,4.6847],[36.41143,4.84731],[36.22797,4.93904],[36.05286,5.21005],[35.90276,5.42685]]}},{"type":"Feature","properties":{"name":"Little Rhoyne","size":null},"geometry":{"type":"LineString","coordinates":[[35.90276,5.42685],[35.77768,5.51858],[35.57338,5.59363],[35.46081,5.62282],[35.29403,5.58112],[35.15644,5.5436],[34.9855,5.63115],[34.79371,5.82712],[34.62276,5.95637],[34.48934,5.99389],[34.29338,6.01474],[34.20999,6.08562],[34.21416,6.24405],[34.02237,6.38164],[33.84309,6.49005],[33.73885,6.6193],[33.60126,6.77356],[33.49703,6.86946],[33.43449,7.02373],[33.34693,7.04874],[33.26771,7.0279],[33.12595,6.95285],[33.0384,7.00288],[32.90498,7.09461],[32.82159,7.13213]]}},{"type":"Feature","properties":{"name":"Upper Rhoyne","size":null},"geometry":{"type":"LineString","coordinates":[[35.90276,5.42685],[35.91527,5.60197],[35.91527,5.79376],[35.84022,5.96887],[35.74016,6.0606],[35.64009,6.12731],[35.54836,6.31076],[35.56504,6.49422],[35.45664,6.62764],[35.3399,6.71102],[35.20648,6.75272],[35.08139,6.88614],[35.09807,6.99454],[35.00635,7.21969],[34.79788,7.44484],[34.64778,7.57826],[34.5227,7.68666],[34.47266,7.82842],[34.32257,7.9535],[34.14745,8.05773],[33.99735,8.14112],[33.83892,8.27037],[33.7055,8.44966],[33.58459,8.5122],[33.55957,8.59141],[33.52621,8.70399],[33.48869,8.8249],[33.42198,8.8791],[33.42198,8.92913],[33.44283,8.99584],[33.41364,9.03754],[33.36778,9.09174],[33.38446,9.13343],[33.38446,9.22933],[33.36778,9.32523],[33.31775,9.45031],[33.25937,9.55871],[33.28856,9.75467],[33.34276,9.9006],[33.32608,10.07155],[33.24687,10.2008],[33.23853,10.31337],[33.18433,10.40093],[33.21351,10.52184],[33.20934,10.64692],[33.1468,10.72614],[33.08426,10.78034],[33.07175,10.88041],[33.0384,10.99298],[32.96335,11.07637],[32.91749,11.15141],[32.91332,11.22229],[32.82576,11.29317],[32.71735,11.36822],[32.62146,11.43493],[32.55892,11.52249],[32.54641,11.63089],[32.45051,11.70594],[32.3838,11.70594],[32.27957,11.7393],[32.18784,11.83519],[32.10029,11.93109],[31.99605,12.00614]]}},{"type":"Feature","properties":{"name":"Noyne","size":null},"geometry":{"type":"LineString","coordinates":[[38.87553,3.19624],[38.85468,3.33799],[38.80048,3.45474],[38.82133,3.5965],[38.84218,3.79246],[38.80465,3.93422],[38.7713,4.05513],[38.80465,4.17604],[38.88387,4.30946],[38.88387,4.46373],[38.80882,4.62216],[38.76296,4.78894],[38.69208,4.85982],[38.68791,4.94738],[38.68374,5.0933],[38.63788,5.19337],[38.54615,5.31845],[38.58367,5.38516],[38.57117,5.49773],[38.5253,5.57695],[38.51696,5.68536],[38.5253,5.76457],[38.6754,6.0064],[38.75879,6.2649],[38.8255,6.5651],[38.87553,7.15715],[38.86719,7.42399],[38.80882,7.6408],[38.79214,7.79923],[38.65038,7.92848],[38.58784,8.02021],[38.60035,8.18282],[38.54615,8.37044],[38.45442,8.49135],[38.27514,8.84158],[38.22511,9.00001],[38.2668,9.2335],[38.29182,9.40027],[38.33351,9.55871],[38.28348,9.66712],[38.2668,9.7922],[38.33351,9.85057],[38.36687,10.00067],[38.34185,10.16744]]}},{"type":"Feature","properties":{"name":null,"size":null},"geometry":{"type":"LineString","coordinates":[[38.5253,5.76457],[38.44608,5.87715],[38.44192,6.01474],[38.41273,6.13982],[38.30433,6.25656],[38.1167,6.28575],[38.04582,6.38998],[38.0083,6.47337],[38.04165,6.56093],[37.99162,6.66099],[37.84569,6.7819],[37.64139,6.88197],[37.5038,7.00705],[37.33286,7.19467],[37.23696,7.31558],[37.18693,7.42816],[37.20361,7.56575],[37.19944,7.72418],[37.17442,7.86594],[37.09521,7.97018],[36.9868,8.07858],[36.92009,8.19115],[36.87423,8.28288],[36.8784,8.41213]]}},{"type":"Feature","properties":{"name":"Qhoyne","size":null},"geometry":{"type":"MultiLineString","coordinates":[[[40.87683,1.21786],[40.96439,1.33669],[41.02693,1.47845],[41.04361,1.62855],[41.11866,1.7578],[41.21872,1.89539],[41.26459,1.98295],[41.31462,2.07467],[41.36048,2.20809],[41.44387,2.30399],[41.4939,2.38321],[41.5898,2.45826],[41.70654,2.5333],[41.89833,2.60835],[42.01091,2.64588],[42.07345,2.7793],[42.16517,2.85435],[42.28192,3.00444],[42.34863,3.12119],[42.35279,3.30464],[42.45286,3.41304],[42.56126,3.46308],[42.71136,3.54646],[42.74472,3.6507],[42.85729,3.8008],[42.94902,3.89252],[43.09494,3.88418],[43.32009,3.99259],[43.47436,4.04262],[43.59944,4.06347],[43.65781,4.13435],[43.68283,4.21773],[43.7412,4.28444],[43.98302,4.34282],[44.204,4.44288],[44.29156,4.49708],[44.42498,4.51793],[44.57507,4.58881],[44.66263,4.63884],[44.79605,4.6305],[45.07957,4.64718]],[[45.07957,4.64718],[45.19631,4.66803],[45.30055,4.62216],[45.5924,4.65135],[45.72582,4.75141],[45.87175,4.81813],[46.03853,4.85565],[46.1511,4.85982],[46.26784,4.9307],[46.37625,4.99324],[46.5055,5.00575],[46.6139,5.07663],[46.74315,5.18086],[46.8599,5.26425],[46.98498,5.34347],[47.0767,5.43519]],[[45.07957,4.64718],[45.08374,4.77643],[45.18797,4.88067],[45.28387,5.00575],[45.32139,5.15584],[45.50485,5.28927],[45.64244,5.38099],[45.78836,5.4477],[45.85091,5.56861],[45.96765,5.71037],[46.05104,5.82295],[46.11775,5.91884],[46.26784,5.96054],[46.38876,6.00223],[46.41794,6.0606]]]}},{"type":"Feature","properties":{"name":"Darkwash","size":null},"geometry":{"type":"MultiLineString","coordinates":[[[41.40218,8.81239],[41.30211,8.92288],[41.27293,9.0021],[41.26876,9.08132],[41.22498,9.19598],[41.127,9.27311],[41.12491,9.34816],[41.16661,9.42321],[41.13534,9.50451],[41.10407,9.56705],[41.0999,9.65461],[41.0999,9.72757],[41.08739,9.80887]],[[41.40218,8.81239],[41.48139,8.89995],[41.56895,8.99584],[41.644,9.04171],[41.644,9.10425],[41.70654,9.21682],[41.81494,9.30438],[41.85247,9.43363],[41.89833,9.60457],[41.90667,9.70047],[41.96087,9.77552],[41.9567,9.86725],[41.9025,9.94229],[41.86498,9.9965],[41.86498,10.13409],[41.88165,10.25917],[41.9025,10.32171]],[[42.35279,3.30464],[42.34863,3.43389],[42.34029,3.55897],[42.39032,3.66321],[42.46954,3.82164],[42.47788,3.94256],[42.52791,4.08431],[42.59045,4.23024],[42.67384,4.33031],[42.69051,4.48041],[42.67384,4.63884],[42.65716,4.76809],[42.58628,4.86399],[42.59879,5.00575],[42.65299,5.17669],[42.71553,5.28093],[42.76973,5.46855],[42.7739,5.63949],[42.85729,5.82295],[42.93651,5.96887],[42.96569,6.12314],[42.96569,6.24822],[43.01781,6.40874],[43.00218,6.50047],[42.94589,6.56822],[42.83227,6.61096],[42.65299,6.65265],[42.54459,6.71519],[42.5154,6.83611],[42.49455,6.95702],[42.45703,7.06125],[42.37364,7.09878],[42.29025,7.17799],[42.23605,7.2864],[42.2027,7.38229],[42.2027,7.51571],[42.16934,7.63663],[42.16934,7.77005],[42.11514,7.87428],[41.97338,7.98269],[41.87332,8.05773],[41.81078,8.20783],[41.77325,8.31207],[41.68152,8.37878],[41.56061,8.45799],[41.44804,8.53721],[41.42302,8.61643],[41.40218,8.81239]]]}},{"type":"Feature","properties":{"name":null,"size":null},"geometry":{"type":"LineString","coordinates":[[43.01781,6.40874],[43.08661,6.4692],[43.17312,6.5307],[43.26172,6.54425],[43.35345,6.60679],[43.45768,6.65474],[43.51918,6.73917],[43.5838,6.82256],[43.67136,6.91428],[43.72973,7.01852],[43.78185,7.11441]]}},{"type":"Feature","properties":{"name":null,"size":null},"geometry":{"type":"LineString","coordinates":[[55.09828,-22.82447],[55.03084,-22.78422],[55.00165,-22.66748],[54.94745,-22.44233],[54.86407,-22.40064],[54.67227,-22.32976],[54.53051,-22.25054],[54.57638,-22.0921],[54.58055,-21.83777],[54.5055,-21.62096],[54.4513,-21.53758]]}},{"type":"Feature","properties":{"name":null,"size":null},"geometry":{"type":"LineString","coordinates":[[52.23443,-20.74644],[52.17898,-20.81627],[52.17064,-20.89966],[52.02889,-20.95803],[51.84543,-21.0164],[51.76205,-21.10396],[51.74954,-21.24989],[51.67032,-21.43751]]}},{"type":"Feature","properties":{"name":null,"size":null},"geometry":{"type":"MultiLineString","coordinates":[[[65.11852,-33.66146],[64.94354,-33.74344],[64.82055,-33.82057],[64.63709,-33.87477],[64.47866,-33.91438],[64.29104,-33.90604],[64.19514,-33.8164],[64.08882,-33.67881],[63.93038,-33.61836],[63.71358,-33.57458],[63.59058,-33.49328],[63.47175,-33.45992],[63.25494,-33.4495],[63.08608,-33.38487],[62.90869,-33.2402]],[[64.75384,-32.99503],[64.54537,-32.86995],[64.53703,-32.70735],[64.46198,-32.61145],[64.30771,-32.61145],[64.22016,-32.61979],[64.08257,-32.54891],[63.9825,-32.51973],[63.83657,-32.56559],[63.67814,-32.59894],[63.54055,-32.56976],[63.38211,-32.47803],[63.3105,-32.43657]],[[64.57872,-32.44468],[64.4453,-32.29458],[64.31605,-32.2237],[64.24517,-32.05275],[64.21599,-31.82344],[64.04921,-31.71087],[63.95749,-31.55243],[63.8992,-31.47876]],[[64.67462,-31.48989],[64.64126,-31.35647],[64.51618,-31.25223],[64.41612,-31.13132],[64.34307,-31.0676]],[[64.57872,-32.44468],[64.57872,-32.31959],[64.57872,-32.14031],[64.5412,-32.03191],[64.60374,-31.84845],[64.6496,-31.67751],[64.67462,-31.48989]],[[64.75384,-32.99503],[64.78719,-32.69484],[64.57872,-32.44468]],[[64.67462,-31.48989],[64.7455,-31.35647],[64.85702,-31.11899]],[[64.86224,-33.15347],[64.75384,-32.99503]],[[64.86224,-33.15347],[64.95814,-33.00754],[65.07488,-32.84494],[65.13325,-32.71152],[65.1124,-32.51973],[65.16661,-32.35295],[65.21664,-32.25288],[65.21664,-32.1153],[65.32921,-31.99855],[65.4126,-31.84845],[65.42928,-31.63165],[65.4126,-31.4607],[65.42511,-31.36064],[65.52515,-31.28252]],[[65.11852,-33.66146],[64.97064,-33.44533],[64.86224,-33.15347]],[[65.82954,-34.2792],[65.47931,-33.99569],[65.31253,-33.84559],[65.18745,-33.7622],[65.11852,-33.66146]],[[65.82954,-34.2792],[65.75866,-34.11868],[65.78367,-34.00819],[65.83579,-33.90604],[65.83371,-33.81432],[65.81703,-33.69549],[65.80452,-33.54956],[65.82537,-33.45575],[65.81703,-33.30565],[65.91501,-33.14096],[66.00048,-32.93041],[66.13182,-32.69692]],[[68.07683,-36.23881],[67.90172,-36.08872],[67.70159,-35.88859],[67.52648,-35.77184],[67.20126,-35.83021],[66.92608,-35.78018],[66.75097,-35.64676],[66.71762,-35.5467],[66.50915,-35.46331],[66.40908,-35.34657],[66.19227,-35.27152],[66.10055,-35.12142],[66.00882,-34.97966],[65.90876,-34.8379],[65.87123,-34.61692],[65.89208,-34.42513],[65.82954,-34.2792]],[[66.13182,-32.69692],[66.14016,-32.59894],[66.11514,-32.48845],[66.09012,-32.32168],[66.08804,-32.15699],[66.10263,-31.94227],[66.07345,-31.73797],[66.07181,-31.5722]],[[66.13182,-32.69692],[66.20895,-32.61771],[66.284,-32.46761],[66.31944,-32.34878],[66.30693,-32.17575],[66.32152,-32.05692],[66.40074,-31.98396],[66.46745,-31.89015],[66.55305,-31.82451]]]}},{"type":"Feature","properties":{"name":null,"size":null},"geometry":{"type":"MultiLineString","coordinates":[[[31.60694,15.04154],[31.5109,15.07996],[31.43407,15.20161],[31.36363,15.36809],[31.24198,15.52176],[31.24838,15.59219],[31.17154,15.68183],[31.11392,15.77147],[31.10258,15.90524]],[[31.60694,15.04154],[31.55572,14.91988],[31.53651,14.81103],[31.61335,14.69578],[31.61975,14.59333],[31.60054,14.45887],[31.58133,14.31481],[31.64536,14.20916],[31.69659,14.14513]],[[32.97717,13.66491],[32.90034,13.89541],[32.8235,14.02347],[32.71465,14.10671],[32.58659,14.25398],[32.49055,14.42045],[32.34968,14.59333],[32.24083,14.72139],[32.13839,14.77262],[31.9527,14.80463],[31.85666,14.83024],[31.77342,14.90067],[31.66457,15.00952],[31.60694,15.04154]],[[31.69659,14.14513],[31.735,14.02988],[31.75421,13.8634],[31.71579,13.78016]],[[31.69659,14.14513],[31.81824,14.06189],[31.92709,13.98505],[31.99752,13.90182],[32.00393,13.84419]],[[32.97717,13.66491],[32.93875,13.52404],[32.91314,13.46642],[32.92595,13.40879],[32.97717,13.35116],[32.93875,13.26152]],[[33.54703,13.16548],[33.39977,13.41519],[33.20128,13.60088],[33.16926,13.60728],[33.11163,13.57527],[33.0412,13.60088],[32.97717,13.66491]]]}}]}