{"type":"FeatureCollection","features":[{"type":"Feature","properties":{"name":null,"size":1},"geometry":{"type":"LineString","coordinates":[[22.71325,-0.65616],[22.8724,-0.49888],[22.95579,-0.2779],[22.93911,-0.13614],[22.82654,0.05148],[22.71397,0.32666],[22.68478,0.57265],[22.45964,0.77695],[22.23032,0.93122],[21.95097,1.13135],[21.55905,1.51493],[21.08374,1.9694],[20.52087,2.37383],[20.09977,2.67819],[19.33677,3.2619]]}},{"type":"Feature","properties":{"name":"Roseroad","size":2},"geometry":{"type":"LineString","coordinates":[[19.07823,3.95361],[19.176,3.57963],[19.33677,3.2619],[19.35151,2.90363],[19.27006,2.55728],[19.05325,2.29044],[18.56126,1.96523],[17.69403,1.58164],[16.36817,1.24809],[15.39253,0.98959],[14.41999,0.73617],[14.15423,0.76027],[14.09586,0.71024],[13.73312,0.48927],[13.09937,0.21409],[12.76582,0.12236],[12.39475,-0.09862],[12.10289,-0.46135],[11.73599,-1.01588],[11.44413,-1.51621],[11.03553,-2.0749],[10.88543,-2.36676],[10.80205,-2.55855],[10.71489,-2.76802]]}},{"type":"Feature","properties":{"name":null,"size":1},"geometry":{"type":"LineString","coordinates":[[10.71489,-2.76802],[10.63527,-3.02552],[10.52687,-3.35073],[10.36843,-3.50083],[10.22667,-3.63425],[10.03488,-3.73432],[9.8681,-3.93445],[9.84309,-4.19295],[9.69299,-4.65992],[9.45117,-5.01849],[8.88413,-5.67725],[8.45051,-6.11087],[8.12113,-6.40689],[7.75268,-6.57124]]}},{"type":"Feature","properties":{"name":"Oceanroad","size":2},"geometry":{"type":"LineString","coordinates":[[10.71489,-2.76802],[10.5769,-2.75451],[10.40178,-2.73367],[10.2767,-2.62943],[10.10576,-2.52103],[9.93898,-2.3209],[9.53038,-1.88728],[9.03006,-1.42031],[8.62146,-1.06174],[8.52139,-0.99503],[7.98354,-0.78657],[7.70003,-0.65315],[7.28309,-0.428],[7.13299,-0.2779],[6.94537,-0.03608],[6.82446,0.20992],[6.78276,0.57265],[6.78276,0.8937],[6.74941,1.13552],[6.61599,1.39402],[6.54094,1.7776],[6.54511,2.01109],[6.63266,2.23207],[6.77859,2.45304],[6.93703,2.67402],[6.98706,2.88249],[7.00374,3.17018],[6.99957,3.43285],[7.04126,3.7664],[7.19136,4.02907],[7.25807,4.24171],[7.27892,4.37513],[7.37064,4.55441],[7.3498,4.90047],[7.36488,5.22154]]}},{"type":"Feature","properties":{"name":null,"size":1},"geometry":{"type":"LineString","coordinates":[[7.36488,5.22154],[7.48739,5.3591],[7.57494,5.54256],[7.73755,5.72184],[7.93351,5.89278],[8.11244,5.9691],[8.33377,6.04705],[8.52556,6.21383],[8.69651,6.38477],[8.96279,6.45502],[9.0926,6.61826],[9.20934,6.69747],[9.33025,6.79337],[9.447,6.77669],[9.6096,6.78086],[9.7055,6.83506],[9.77221,6.92679],[9.82641,6.89343],[9.83892,6.86425],[9.91814,6.94347],[9.99319,6.93513],[10.09742,6.95598],[10.1683,7.02269],[10.24335,7.0894],[10.3184,7.13109],[10.40595,7.11858],[10.43931,7.13109],[10.46433,7.1978],[10.52687,7.26034],[10.6448,7.29602],[10.8354,7.2937],[10.88543,7.39376],[10.99801,7.42295],[11.01885,7.5105],[11.08973,7.53552],[11.15227,7.62308],[11.26902,7.69813],[11.46081,7.77317],[11.66928,7.85656],[11.82354,7.84405],[11.98107,7.99686]]}},{"type":"Feature","properties":{"name":"Riverroad","size":1},"geometry":{"type":"LineString","coordinates":[[11.98107,7.99686],[12.10289,8.11089],[12.17794,8.26099],[12.31553,8.49448],[12.524,8.72796],[12.7283,8.99897],[12.89507,9.14907],[13.11605,9.26164],[13.31201,9.35337],[13.58719,9.52848],[13.87488,9.69526],[14.07084,9.75363],[14.19592,9.87454],[14.29599,10.00379],[14.50446,10.1122],[14.66706,10.15389],[14.86719,10.17891],[15.26328,10.1247],[15.46341,10.04966],[15.78863,9.94125],[16.08465,9.83285],[16.33064,9.7036],[16.61416,9.6077],[16.881,9.54099],[16.98941,9.58269],[17.17286,9.67858],[17.26876,9.78699],[17.34015,9.81904]]}},{"type":"Feature","properties":{"name":null,"size":2},"geometry":{"type":"LineString","coordinates":[[17.34015,9.81904],[17.37753,9.37051],[18.11514,7.86073],[18.50821,6.26813],[18.65072,5.52757],[18.80257,4.488],[19.07823,3.95361]]}},{"type":"Feature","properties":{"name":null,"size":1},"geometry":{"type":"LineString","coordinates":[[19.07823,3.95361],[19.28257,4.1333],[19.42433,4.29174],[19.61612,4.42516],[19.98698,4.62115],[20.07475,4.75871],[20.24986,4.85044],[20.39814,5.04166],[20.59175,5.209],[20.73351,5.3591],[20.88361,5.55089],[20.9191,5.83828],[20.91696,6.12627],[20.77521,6.53487],[20.60009,6.86842],[20.55006,7.11024],[20.32491,7.50216],[20.20817,7.83571],[20.17154,8.23047],[20.54172,8.16093],[20.85859,8.30269],[21.25051,8.31936],[21.62576,8.29435],[21.96765,8.20262],[22.35123,8.11923],[22.61807,8.12757],[22.80152,8.35272],[22.86823,8.44444],[23.06003,8.51115],[23.16843,8.51949],[23.2685,8.67793],[23.41859,8.76132],[23.66876,8.8447],[23.90224,8.96145],[23.91869,9.18362]]}},{"type":"Feature","properties":{"name":"Goldroad","size":2},"geometry":{"type":"LineString","coordinates":[[19.07823,3.95361],[18.79058,3.84145],[18.54042,3.80809],[18.32361,3.79975],[17.98172,3.96653],[17.60648,4.23337],[17.02276,4.61695],[16.64752,4.85878],[16.37234,4.9505],[16.12218,4.94216],[15.78863,4.92549],[14.97977,4.65865],[14.38771,4.48353],[13.62889,4.15832],[13.287,4.12497],[12.66159,4.23337],[12.16126,4.31676],[11.83605,4.5419],[11.51918,4.71702],[11.27089,5.05334],[10.96882,5.15063],[10.76869,5.20067],[10.55188,5.23402],[10.47683,5.32575],[10.4268,5.44249],[10.19332,5.5092],[9.88478,5.52588],[9.5012,5.41747],[9.15931,5.38412],[8.8341,5.25904],[8.58393,5.15897],[8.26706,5.08392],[7.95853,5.08392],[7.62498,5.15897],[7.36488,5.22154]]}},{"type":"Feature","properties":{"name":"High Road","size":2},"geometry":{"type":"LineString","coordinates":[[17.34015,9.81904],[17.55644,9.92874],[17.6982,9.97044],[17.81494,10.12887],[17.88165,10.27897],[18.17351,10.37904],[18.407,10.37904],[18.71553,10.36236],[18.93234,10.36236],[19.11579,10.42907],[19.2242,10.59584],[19.30758,10.76262],[19.31592,10.87102],[19.39097,10.94607],[19.51605,11.0378],[19.64947,11.16288],[19.71618,11.32132],[19.78289,11.46308],[19.86784,11.66926],[19.94133,11.82998],[19.96635,11.87168],[19.94133,11.92171],[19.99136,11.97174],[19.94967,12.07181],[19.9426,12.21124]]}},{"type":"Feature","properties":{"name":"Kingsroad","size":2},"geometry":{"type":"LineString","coordinates":[[17.34015,9.81904],[17.32296,10.06216],[17.21455,10.23728],[16.61416,11.01278],[15.5885,12.18855],[15.22993,12.62216],[15.01312,13.00575],[14.92139,13.43102],[14.94641,13.69786],[15.0298,14.14816],[15.12986,14.57343],[15.27162,15.00705],[15.22159,15.46568],[15.02146,16.0077],[14.88804,16.40796],[14.85468,16.73317],[14.92139,17.16679],[14.91306,17.77552],[14.89638,18.69278],[14.83801,19.33487],[14.83801,19.84353],[14.8218,20.15408],[14.84635,20.57734],[14.91306,20.91923],[14.87136,21.67806],[14.76296,22.62868],[14.61286,23.51259],[14.42941,24.51324],[14.30433,25.14699],[14.22094,25.55558],[14.27097,25.88913],[14.41273,26.31441],[14.56016,26.61114]]}},{"type":"Feature","properties":{"name":null,"size":1},"geometry":{"type":"LineString","coordinates":[[14.56016,26.61114],[14.96726,27.68197],[15.24244,28.16562],[15.52595,28.52418],[16.60999,29.7333],[17.47722,30.60054],[18.00257,31.13422],[18.23605,31.39272],[18.38615,31.71793],[18.4612,31.95141],[18.44452,32.10151],[18.50289,32.18073],[18.48621,32.31832],[18.54876,32.48093],[18.65299,32.80614],[18.65299,32.95207],[18.76973,33.22725],[18.8156,33.54412],[18.81977,34.03611],[18.88648,34.24457],[18.89481,34.42803],[18.88199,34.6007],[18.85396,34.89038]]}},{"type":"Feature","properties":{"name":null,"size":2},"geometry":{"type":"LineString","coordinates":[[31.12798,4.63284],[35.0994,5.59532],[38.31392,8.76311],[44.90758,4.69617],[42.0724,2.61148]]}},{"type":"Feature","properties":{"name":null,"size":2},"geometry":{"type":"LineString","coordinates":[[42.37645,-8.16682],[42.62276,-8.44572],[43.36491,-8.70422],[43.63796,-9.2134],[46.95058,-8.36233],[47.18407,-8.30396],[47.35918,-8.33731],[47.58433,-8.39569],[51.36587,-12.42324],[51.9038,-12.21484],[53.99168,-11.36264],[56.53339,-11.64765],[55.86993,-18.53456],[52.88903,-16.30122],[53.00452,-14.12442],[51.89547,-12.19816]]}},{"type":"Feature","properties":{"name":null,"size":2},"geometry":{"type":"LineString","coordinates":[[51.36587,-12.42324],[49.84413,-13.15712]]}},{"type":"Feature","properties":{"name":null,"size":2},"geometry":{"type":"LineString","coordinates":[[56.53339,-11.64765],[57.54081,-11.35595],[59.13117,-13.21753]]}},{"type":"Feature","properties":{"name":null,"size":2},"geometry":{"type":"LineString","coordinates":[[57.54081,-11.35595],[62.19384,-10.13015]]}},{"type":"Feature","properties":{"name":null,"size":1},"geometry":{"type":"LineString","coordinates":[[67.13007,-9.61054],[67.18459,-9.7966],[67.12205,-9.9467],[67.02615,-10.00507],[67.03866,-10.151],[66.96361,-10.28442],[66.81351,-10.44702],[66.75097,-10.53875],[66.75514,-10.70135],[66.70928,-10.84728],[66.5842,-11.00989],[66.39657,-11.11412],[66.17143,-11.20585],[65.84987,-11.24583],[65.69612,-11.3893],[65.54185,-11.50187],[65.54185,-11.69367],[65.69612,-11.8938],[65.77117,-12.08559],[65.72947,-12.28572],[65.80035,-12.49836],[65.89625,-12.6151],[66.03801,-12.88611],[66.04218,-13.11543],[66.00465,-13.44064],[65.98797,-13.66578],[65.88791,-13.87842],[65.77117,-14.03269],[65.79618,-14.27034],[65.63358,-14.4663],[65.62107,-14.57888],[65.68361,-14.68728],[65.66276,-14.87073],[65.57521,-15.01249],[65.37924,-15.10839],[65.17078,-15.17093],[64.91542,-15.23594]]}},{"type":"Feature","properties":{"name":null,"size":1},"geometry":{"type":"LineString","coordinates":[[52.29816,-20.76817],[52.96126,-21.15552]]}},{"type":"Feature","properties":{"name":null,"size":1},"geometry":{"type":"LineString","coordinates":[[53.85414,-21.7464],[54.75359,-22.22567],[55.37073,-22.15345]]}},{"type":"Feature","properties":{"name":null,"size":1},"geometry":{"type":"LineString","coordinates":[[55.3773,-19.9672],[54.73389,-22.2191],[54.08393,-24.64828]]}}]}